<?xml version="1.0" encoding="UTF-8"?>
<kml xmlns="http://www.opengis.net/kml/2.2">
 <Document>
  <name>Dấu Xưa Mường Cốc</name>
  <description>Tuyến tự động dựng bằng OSRM (cycling). 11 điểm dừng. ~10 – 11 km. CẢNH BÁO: route có thể bám đường lớn (Hồ Chí Minh) — kiểm tra và chỉnh trong My Maps để bám đường dân sinh.</description>
  <Style id="stop"><IconStyle><color>ff3ba300</color><scale>1.1</scale><Icon><href>http://maps.google.com/mapfiles/kml/paddle/grn-blank.png</href></Icon></IconStyle></Style>
  <Style id="stopact"><IconStyle><color>ff0a78ff</color><scale>1.0</scale><Icon><href>http://maps.google.com/mapfiles/kml/paddle/orange-blank.png</href></Icon></IconStyle></Style>
  <Style id="route"><LineStyle><color>ff2f6a0a</color><width>5</width></LineStyle></Style>
  <Placemark><name>Tuyến Dấu Xưa Mường Cốc (OSRM cycling — kiểm tra tránh đường HCM)</name><styleUrl>#route</styleUrl><LineString><tessellate>1</tessellate><coordinates>105.690182,20.622672,0 105.689987,20.623021,0 105.689867,20.62321,0 105.689739,20.623223,0 105.689698,20.623238,0 105.689021,20.623598,0 105.688986,20.623616,0 105.688828,20.623692,0 105.688815,20.624078,0 105.688804,20.624153,0 105.688696,20.62451,0 105.688645,20.624656,0 105.689131,20.624812,0 105.689263,20.624422,0 105.689547,20.623793,0 105.689867,20.62321,0 105.689987,20.623021,0 105.69014,20.622999,0 105.690236,20.622967,0 105.690397,20.622901,0 105.691014,20.622603,0 105.692326,20.621948,0 105.692358,20.621932,0 105.695069,20.620588,0 105.695377,20.620436,0 105.695466,20.620407,0 105.695542,20.620405,0 105.695598,20.620412,0 105.695646,20.62043,0 105.695708,20.620453,0 105.695937,20.620557,0 105.696193,20.620653,0 105.696327,20.620697,0 105.696432,20.620725,0 105.696814,20.620809,0 105.69736,20.620918,0 105.697471,20.620935,0 105.697567,20.620981,0 105.697632,20.621033,0 105.697678,20.621089,0 105.697742,20.621172,0 105.697934,20.621518,0 105.698253,20.62214,0 105.698597,20.622983,0 105.698638,20.623132,0 105.698668,20.623289,0 105.698735,20.623627,0 105.698755,20.623765,0 105.698763,20.623799,0 105.698851,20.624085,0 105.698948,20.624398,0 105.698999,20.624576,0 105.699063,20.624804,0 105.699175,20.625505,0 105.699208,20.62578,0 105.699244,20.626083,0 105.699264,20.626311,0 105.699274,20.626418,0 105.699281,20.62651,0 105.699286,20.626608,0 105.699283,20.626952,0 105.699289,20.627173,0 105.699301,20.627244,0 105.699352,20.627492,0 105.699369,20.627608,0 105.699388,20.62772,0 105.699405,20.628235,0 105.699417,20.628546,0 105.699429,20.628794,0 105.69944,20.628875,0 105.699459,20.628984,0 105.699472,20.629044,0 105.69951,20.629155,0 105.699637,20.629588,0 105.699669,20.629692,0 105.69973,20.629973,0 105.699753,20.630085,0 105.699783,20.630177,0 105.69986,20.630354,0 105.699969,20.630706,0 105.700099,20.631092,0 105.700246,20.631552,0 105.7005,20.632198,0 105.700576,20.632385,0 105.70061,20.632445,0 105.700634,20.632478,0 105.7009,20.632812,0 105.700924,20.632841,0 105.7013,20.633387,0 105.701341,20.63347,0 105.701364,20.633539,0 105.701422,20.633885,0 105.701515,20.634496,0 105.701521,20.634578,0 105.701518,20.634659,0 105.701508,20.634741,0 105.701456,20.635032,0 105.701447,20.63514,0 105.701449,20.635183,0 105.701463,20.635308,0 105.7015,20.63564,0 105.701498,20.635674,0 105.701493,20.635697,0 105.701387,20.635881,0 105.701367,20.635896,0 105.701322,20.635917,0 105.701296,20.635936,0 105.7012,20.636051,0 105.701136,20.63611,0 105.70103,20.636187,0 105.700982,20.636217,0 105.7006,20.636409,0 105.700496,20.636456,0 105.699668,20.636817,0 105.69936,20.636967,0 105.699301,20.636996,0 105.698561,20.637319,0 105.698221,20.637515,0 105.698198,20.637538,0 105.698181,20.637569,0 105.695922,20.634677,0 105.695525,20.634431,0 105.694682,20.634279,0 105.693358,20.634055,0 105.689549,20.633394,0 105.689509,20.633387,0 105.689,20.633214,0 105.688713,20.633055,0 105.688415,20.632774,0 105.688084,20.632174,0 105.687674,20.631432,0 105.686801,20.629851,0 105.68541,20.627346,0 105.685781,20.627231,0 105.686177,20.627161,0 105.686759,20.62713,0 105.687076,20.627066,0 105.68735,20.627,0 105.68768,20.626879,0 105.687964,20.626705,0 105.688246,20.626486,0 105.688446,20.626281,0 105.688624,20.626025,0 105.688862,20.625535,0 105.689099,20.624889,0 105.689131,20.624812,0 105.689263,20.624422,0 105.689547,20.623793,0 105.689867,20.62321,0 105.689987,20.623021,0 105.690351,20.62237,0 105.6913,20.620788,0 105.69203,20.619564,0 105.692877,20.618093,0 105.693337,20.617288,0 105.693515,20.616965,0 105.693562,20.61688,0 105.693791,20.616401,0 105.694075,20.61556,0 105.6943,20.615629,0 105.695177,20.616078,0 105.695306,20.616146,0 105.69533,20.616182,0 105.695354,20.616259,0 105.695362,20.616415,0 105.695355,20.616777,0 105.695374,20.616854,0 105.695398,20.616873,0 105.695523,20.616938,0 105.695727,20.61701,0 105.696319,20.617199,0 105.696416,20.617209,0 105.696479,20.617204,0 105.696975,20.617052,0 105.697033,20.61704,0 105.697084,20.617047,0 105.697164,20.617081,0 105.697443,20.617276,0 105.697606,20.617379,0 105.697746,20.617434,0 105.69782,20.617426,0 105.697875,20.617399,0 105.697964,20.617315,0 105.698086,20.61709,0 105.698412,20.616588,0 105.698548,20.616432,0 105.698678,20.616313,0 105.699003,20.616034,0 105.699425,20.615644,0 105.699669,20.615414,0 105.699779,20.615314,0 105.699892,20.615251,0 105.700176,20.615107,0 105.700563,20.614891,0 105.701646,20.614321,0 105.701815,20.614243,0 105.702212,20.614138,0 105.702757,20.614002,0 105.703266,20.613912,0 105.703634,20.613869,0 105.703899,20.613872,0 105.704189,20.613917,0 105.704807,20.614105,0 105.704913,20.614127,0 105.704891,20.614217,0 105.704863,20.614294,0 105.703893,20.616142,0 105.702858,20.618089,0 105.701886,20.619898,0 105.701218,20.621151,0 105.700879,20.621803,0 105.699935,20.621845,0 105.699858,20.62185,0 105.699791,20.62187,0 105.699731,20.621903,0 105.699687,20.621957,0 105.699632,20.622065,0 105.69962,20.622111,0 105.699617,20.622157,0 105.699669,20.622925,0 105.699726,20.623514,0 105.699821,20.624736,0 105.699892,20.62563,0 105.699904,20.6257,0 105.699954,20.625937,0 105.699959,20.626002,0 105.699956,20.626404,0 105.700003,20.626835,0 105.70006,20.627569,0 105.700064,20.627972,0 105.700066,20.627995,0 105.700106,20.628434,0 105.700127,20.62878,0 105.70014,20.628867,0 105.700311,20.62954,0 105.700522,20.630257,0 105.700709,20.630785,0 105.700867,20.631285,0 105.700888,20.631332,0 105.701196,20.631767,0 105.70124,20.631848,0 105.701271,20.631921,0 105.701315,20.632077,0 105.701337,20.632113,0 105.70158,20.632361,0 105.701453,20.632472,0 105.701325,20.632565,0 105.700924,20.632841,0 105.7013,20.633387,0 105.701341,20.63347,0 105.701364,20.633539,0 105.701422,20.633885,0 105.701515,20.634496,0 105.701521,20.634578,0 105.701518,20.634659,0 105.701508,20.634741,0 105.701456,20.635032,0 105.701447,20.63514,0 105.701449,20.635183,0 105.7015,20.63564,0 105.701498,20.635674,0 105.701493,20.635697,0 105.701387,20.635881,0 105.701367,20.635896,0 105.701322,20.635917,0 105.701296,20.635936,0 105.7012,20.636051,0 105.701136,20.63611,0 105.70103,20.636187,0 105.700982,20.636217,0 105.7006,20.636409,0 105.700496,20.636456,0 105.699668,20.636817,0 105.69936,20.636967,0 105.699301,20.636996,0 105.698561,20.637319,0 105.698221,20.637515,0 105.698198,20.637538,0 105.698181,20.637569,0 105.698047,20.638038,0 105.698046,20.638063,0 105.698041,20.638357,0 105.69819,20.63873,0 105.697906,20.63888,0 105.697801,20.638926,0 105.697487,20.638892,0 105.697364,20.638929,0 105.696481,20.639536,0 105.696226,20.639712,0 105.695316,20.640409,0 105.695143,20.640557,0 105.695072,20.640639,0 105.694929,20.64085,0 105.694718,20.641243,0 105.694689,20.641296,0 105.69467,20.641353,0 105.694661,20.641421,0 105.69461,20.641789,0 105.6946,20.641984,0 105.694602,20.64213,0 105.694631,20.64231,0 105.694643,20.642374,0 105.694679,20.642768,0 105.694675,20.642908,0 105.694662,20.643011,0 105.694625,20.643122,0 105.694378,20.643685,0 105.694251,20.64396,0 105.694238,20.644048,0 105.694242,20.644161,0 105.694297,20.644475,0 105.694297,20.644475,0 105.69433,20.644543,0 105.694435,20.644729,0 105.69451,20.64482,0 105.694933,20.645366,0 105.69523,20.645761,0 105.695284,20.64568,0 105.695328,20.645613,0 105.695365,20.645558,0 105.695398,20.645491,0 105.695438,20.645382,0 105.695564,20.645095,0 105.695497,20.645043,0 105.694852,20.644385,0 105.694378,20.643685,0 105.694625,20.643122,0 105.694662,20.643011,0 105.694675,20.642908,0 105.694679,20.642768,0 105.694643,20.642374,0 105.694631,20.64231,0 105.694602,20.64213,0 105.6946,20.641984,0 105.69461,20.641789,0 105.694661,20.641421,0 105.69467,20.641353,0 105.694689,20.641296,0 105.694718,20.641243,0 105.694929,20.64085,0 105.695072,20.640639,0 105.695143,20.640557,0 105.695316,20.640409,0 105.696226,20.639712,0 105.696481,20.639536,0 105.697364,20.638929,0 105.697487,20.638892,0 105.697801,20.638926,0 105.697906,20.63888,0 105.69819,20.63873,0 105.698041,20.638357,0 105.698046,20.638063,0 105.698047,20.638038,0 105.698181,20.637569,0 105.695922,20.634677,0 105.695525,20.634431,0 105.694682,20.634279,0 105.693358,20.634055,0 105.689549,20.633394,0 105.689509,20.633387,0 105.689,20.633214,0 105.688713,20.633055,0 105.688415,20.632774,0 105.688084,20.632174,0 105.687674,20.631432,0 105.686801,20.629851,0 105.68541,20.627346,0 105.685781,20.627231,0 105.686177,20.627161,0 105.686759,20.62713,0 105.687076,20.627066,0 105.68735,20.627,0 105.68768,20.626879,0 105.687964,20.626705,0 105.688246,20.626486,0 105.688446,20.626281,0 105.688624,20.626025,0 105.688862,20.625535,0 105.689099,20.624889,0 105.689131,20.624812,0 105.689263,20.624422,0 105.689547,20.623793,0 105.689867,20.62321,0 105.689987,20.623021,0 105.690182,20.622672,0 105.690351,20.62237,0 105.6913,20.620788,0 105.69117,20.62071,0 105.691078,20.620687,0 105.690875,20.620667,0 105.690802,20.620642,0 105.690738,20.620602,0 105.690644,20.620502,0 105.690392,20.620243,0 105.690644,20.620502,0 105.690738,20.620602,0 105.690802,20.620642,0 105.690875,20.620667,0 105.691078,20.620687,0 105.69117,20.62071,0 105.6913,20.620788,0 105.690351,20.62237,0 105.689987,20.623021,0 105.689867,20.62321,0 105.689547,20.623793,0 105.689263,20.624422,0 105.689131,20.624812,0 105.689099,20.624889,0 105.688862,20.625535,0 105.688624,20.626025,0 105.688446,20.626281,0 105.688246,20.626486,0 105.687964,20.626705,0 105.68768,20.626879,0 105.68735,20.627,0 105.687076,20.627066,0 105.686759,20.62713,0 105.686177,20.627161,0 105.685781,20.627231,0 105.68541,20.627346,0 105.686801,20.629851,0 105.687674,20.631432,0 105.688084,20.632174,0 105.688415,20.632774,0 105.688713,20.633055,0 105.689,20.633214,0 105.689509,20.633387,0 105.689549,20.633394,0 105.688901,20.634277,0 105.688709,20.634539,0 105.687759,20.635796,0 105.687127,20.63665,0 105.68632,20.637711,0 105.688074,20.6385,0 105.690925,20.63978,0 105.69228,20.640373,0 105.69207,20.640606,0 105.691737,20.640897,0 105.687542,20.643176,0 105.685343,20.644401,0 105.683884,20.645304,0 105.68338,20.645786,0 105.68323,20.645934,0 105.683197,20.64605,0 105.684612,20.646991,0 105.684654,20.647124,0 105.684456,20.64796,0 105.684359,20.648038,0 105.684091,20.648111,0 105.683684,20.648422,0 105.683533,20.648761,0 105.683308,20.649335,0 105.683295,20.649481,0 105.683447,20.650442,0 105.683426,20.650691,0 105.683383,20.651037,0 105.683308,20.651117,0 105.682426,20.651173,0 105.681473,20.65114,0 105.681369,20.651193,0 105.681342,20.651303,0 105.681586,20.652977,0 105.681342,20.651303,0 105.681369,20.651193,0 105.681473,20.65114,0 105.682426,20.651173,0 105.683308,20.651117,0 105.683383,20.651037,0 105.683426,20.650691,0 105.683447,20.650442,0 105.683295,20.649481,0 105.683308,20.649335,0 105.683533,20.648761,0 105.683684,20.648422,0 105.684091,20.648111,0 105.684359,20.648038,0 105.684456,20.64796,0 105.684654,20.647124,0 105.684612,20.646991,0 105.683197,20.64605,0 105.68323,20.645934,0 105.68338,20.645786,0 105.683884,20.645304,0 105.685343,20.644401,0 105.687542,20.643176,0 105.691737,20.640897,0 105.691871,20.640779,0 105.69207,20.640606,0 105.69228,20.640373,0 105.693447,20.640884,0 105.694108,20.640404,0 105.694157,20.64037,0 105.694796,20.639937,0 105.695615,20.639398,0 105.69619,20.638989,0 105.696667,20.638587,0 105.697167,20.638219,0 105.697446,20.637954,0 105.698046,20.638063,0 105.698047,20.638038,0 105.698181,20.637569,0 105.695922,20.634677,0 105.695525,20.634431,0 105.694682,20.634279,0 105.693358,20.634055,0 105.693283,20.633864,0 105.693012,20.633259,0 105.692629,20.63241,0 105.692095,20.631241,0 105.69203,20.631089,0 105.691843,20.630656,0 105.691392,20.629702,0 105.691019,20.628876,0 105.690902,20.628619,0 105.690794,20.628384,0 105.690503,20.627753,0 105.69028,20.627256,0 105.690058,20.626765,0 105.689855,20.626324,0 105.689794,20.626184,0 105.691108,20.62569,0 105.692511,20.625198,0 105.69261,20.625171,0 105.692771,20.625111,0 105.69442,20.624536,0 105.69626,20.623873,0 105.69442,20.624536,0 105.692771,20.625111,0 105.69261,20.625171,0 105.69256,20.625185,0 105.692511,20.625198,0 105.691108,20.62569,0 105.689794,20.626184,0 105.689765,20.626118,0 105.689575,20.625707,0 105.689431,20.625397,0 105.689322,20.625171,0 105.689131,20.624812,0 105.689263,20.624422,0 105.689547,20.623793,0 105.689867,20.62321,0 105.689987,20.623021,0 105.690182,20.622672,0</coordinates></LineString></Placemark>
  <Placemark><name>1. Tourism Hub Đồi Dùng</name><description>08:00 — Hướng dẫn viên người Mường đón bạn bằng một ly trà thảo dược. Giới thiệu ngắn về Mường Cốc, cam kết 5 KHÔNG, mạng lưới Refill Station. Bạn nhận xe đạp, mũ bảo hiểm và bản đồ tour.</description><styleUrl>#stop</styleUrl><Point><coordinates>105.6897842,20.6224767,0</coordinates></Point></Placemark>
  <Placemark><name>2. Chùa Phú Cốc &amp; Cây đa cổ</name><description>08:30 — Trên ngọn đồi lộng gió thôn Đồi Dùng, điểm tựa tâm linh của 6 thôn vùng Phú Cốc. Cây đa cổ thụ hơn 400 năm tuổi xoè tán che chở; cụm tam bảo, nhà mẫu, nhà thờ tổ và miếu thờ quan lang.</description><styleUrl>#stop</styleUrl><Point><coordinates>105.68909,20.6237117,0</coordinates></Point></Placemark>
  <Placemark><name>3. Lamia Mường Cốc</name><description>09:10 — Bước vào căn bếp Mường còn ám khói lá. Bạn thử kéo từng sợi cạp váy theo nhịp khung gỗ, khoác trang phục Mường truyền thống, nếm đôi món ăn dân tộc vừa nấu xong từ chính tay người Mường.</description><styleUrl>#stop</styleUrl><Point><coordinates>105.6990625,20.625795,0</coordinates></Point></Placemark>
  <Placemark><name>4. Chùa Đinh Long</name><description>10:20 — Ngôi chùa cổ (Đinh Long Tự) in dấu vua Đinh Bộ Lĩnh — tương truyền dựng làm nơi dừng chân khi dẹp loạn 12 sứ quân, trùng tu thời Lê – Trịnh (1599). Trong kháng chiến từng làm kho thóc, nơi in tài liệu, bệnh xá, xưởng công binh.</description><styleUrl>#stop</styleUrl><Point><coordinates>105.7012208,20.6353317,0</coordinates></Point></Placemark>
  <Placemark><name>5. Con đường Tràm</name><description>10:45 — Con đường tràm dài chừng 800 mét — hai hàng tràm khép tán trên đầu, nắng lọc xuống thành những vệt sáng lay động. Một trong những đoạn đường đẹp và ăn ảnh nhất vùng.</description><styleUrl>#stop</styleUrl><Point><coordinates>105.7,20.628,0</coordinates></Point></Placemark>
  <Placemark><name>6. Đền Mẫu Thượng Thiên (Đền Ái Nàng)</name><description>11:15 — Toạ trên núi Đền, lưng tựa núi mặt nhìn ra sông, theo thế tả Thanh long hữu Bạch hổ. Thờ Mẫu Quế Anh phu nhân cùng Tam toà Thánh Mẫu, được triều Nguyễn ban bốn đạo sắc từ Tự Đức đến Khải Định.</description><styleUrl>#stop</styleUrl><Point><coordinates>105.693655,20.6447467,0</coordinates></Point></Placemark>
  <Placemark><name>7. Bữa trưa Cỗ Lá Mường</name><description>12:00 — Bữa trưa dọn tại nhà dân với mâm Cỗ Lá Mường — bày trên lá chuối tươi, không một chiếc đĩa nhựa. Nguyên liệu 100% địa phương, vừa hái sáng nay — bữa ăn farm-to-table đúng nghĩa.</description><styleUrl>#stop</styleUrl><Point><coordinates>105.6897842,20.6224767,0</coordinates></Point></Placemark>
  <Placemark><name>8. Hang Hổ &amp; Đền Quán Mai</name><description>13:30 — Hang đá xuyên núi dài chừng 80m, vòm cao gần 10m, trong hang có hai bầu nước — thờ Quan Ngũ Hổ trấn giữ, từng là nơi bộ đội công binh đúc đạn thời kháng chiến. Cạnh cửa hang là Đền Quán Mai thờ tam vị đức thượng đẳng, tựa lưng vào núi, cảnh quan thanh tịnh.</description><styleUrl>#stop</styleUrl><Point><coordinates>105.6918717,20.64078,0</coordinates></Point></Placemark>
  <Placemark><name>9. Chợ dân sinh An Phú</name><description>14:15 — Chợ mới An Phú khang trang xây từ Chương trình mục tiêu quốc gia — trung tâm giao thương, quảng bá sản vật địa phương. Trước khi vào chợ, bạn nhận một chiếc giỏ tre hoặc túi vải của bản, đi chợ, chọn mua sản vật quê — không một chiếc túi nhựa nào.</description><styleUrl>#stopact</styleUrl><Point><coordinates>105.6918717,20.64078,0</coordinates></Point></Placemark>
  <Placemark><name>10. Vườn Sim Cổ và Rượu Sim</name><description>15:00 — Bạn vào vườn sim cổ, nghe người trồng sim kể các bước trồng, chăm và thu hái; thưởng thức một chén rượu sim OCOP — ủ từ chính nắng và gió của khu vườn nhà. Có thể mua vài chai làm quà.</description><styleUrl>#stop</styleUrl><Point><coordinates>105.6927417,20.62577,0</coordinates></Point></Placemark>
  <Placemark><name>11. Trở về Tourism Hub Đồi Dùng</name><description>15:40 — Bạn đạp xe trở về NVH Đồi Dùng, trả xe và mũ. Mường Cốc gửi tặng quà lưu niệm cộng đồng — dấu ấn nhỏ về vùng đất cổ.</description><styleUrl>#stop</styleUrl><Point><coordinates>105.6897842,20.6224767,0</coordinates></Point></Placemark>
 </Document>
</kml>