<?xml version="1.0" encoding="UTF-8"?>
<kml xmlns="http://www.opengis.net/kml/2.2">
 <Document>
  <name>Mường Cốc — Một ngày, vạn trải nghiệm (Phương án B: Văn hoá sen &amp; Lễ Mo Mường)</name>
  <description>Tuyến tự động dựng bằng OSRM (cycling). 9 điểm dừng. . CẢNH BÁO: route có thể bám đường lớn (Hồ Chí Minh) — kiểm tra và chỉnh trong My Maps để bám đường dân sinh.</description>
  <Style id="stop"><IconStyle><color>ff3ba300</color><scale>1.1</scale><Icon><href>http://maps.google.com/mapfiles/kml/paddle/grn-blank.png</href></Icon></IconStyle></Style>
  <Style id="stopact"><IconStyle><color>ff0a78ff</color><scale>1.0</scale><Icon><href>http://maps.google.com/mapfiles/kml/paddle/orange-blank.png</href></Icon></IconStyle></Style>
  <Style id="route"><LineStyle><color>ff2f6a0a</color><width>5</width></LineStyle></Style>
  <Placemark><name>Tuyến Mường Cốc — Một ngày, vạn trải nghiệm (Phương án B: Văn hoá sen &amp; Lễ Mo Mường) (OSRM cycling — kiểm tra tránh đường HCM)</name><styleUrl>#route</styleUrl><LineString><tessellate>1</tessellate><coordinates>105.690182,20.622672,0 105.689987,20.623021,0 105.689867,20.62321,0 105.689739,20.623223,0 105.689698,20.623238,0 105.689021,20.623598,0 105.688986,20.623616,0 105.688828,20.623692,0 105.688815,20.624078,0 105.688804,20.624153,0 105.688696,20.62451,0 105.688645,20.624656,0 105.689131,20.624812,0 105.689099,20.624889,0 105.688862,20.625535,0 105.688624,20.626025,0 105.688446,20.626281,0 105.688246,20.626486,0 105.687964,20.626705,0 105.68768,20.626879,0 105.68735,20.627,0 105.687076,20.627066,0 105.686759,20.62713,0 105.686177,20.627161,0 105.685781,20.627231,0 105.68541,20.627346,0 105.684744,20.626255,0 105.685378,20.625954,0 105.685151,20.625463,0 105.685128,20.625439,0 105.685097,20.625426,0 105.684984,20.625427,0 105.684958,20.625422,0 105.684941,20.625408,0 105.684914,20.625359,0 105.684893,20.625299,0 105.684892,20.625264,0 105.684892,20.625264,0 105.68491,20.625218,0 105.684931,20.625184,0 105.684968,20.625145,0 105.68501,20.625093,0 105.685031,20.625062,0 105.685042,20.625036,0 105.685096,20.624896,0 105.685042,20.625036,0 105.685031,20.625062,0 105.68501,20.625093,0 105.684968,20.625145,0 105.684931,20.625184,0 105.68491,20.625218,0 105.684892,20.625264,0 105.684893,20.625299,0 105.684914,20.625359,0 105.684941,20.625408,0 105.684958,20.625422,0 105.684984,20.625427,0 105.685097,20.625426,0 105.685128,20.625439,0 105.685151,20.625463,0 105.685378,20.625954,0 105.684744,20.626255,0 105.684578,20.625934,0 105.684448,20.625653,0 105.684317,20.625302,0 105.684286,20.625187,0 105.684197,20.624777,0 105.684154,20.62458,0 105.684106,20.624302,0 105.684097,20.624246,0 105.68405,20.623897,0 105.68392,20.622913,0 105.683889,20.622543,0 105.683876,20.622466,0 105.683854,20.622414,0 105.683823,20.622362,0 105.683682,20.622188,0 105.684325,20.622214,0 105.684848,20.621577,0 105.684876,20.621524,0 105.684881,20.621465,0 105.684874,20.621405,0 105.684846,20.62136,0 105.684801,20.621327,0 105.684747,20.621302,0 105.684549,20.621243,0 105.684525,20.621224,0 105.684508,20.62119,0 105.684472,20.620851,0 105.684484,20.620804,0 105.684529,20.620743,0 105.684742,20.620557,0 105.684529,20.620743,0 105.684484,20.620804,0 105.684472,20.620851,0 105.684508,20.62119,0 105.684525,20.621224,0 105.684549,20.621243,0 105.684747,20.621302,0 105.684801,20.621327,0 105.684846,20.62136,0 105.684874,20.621405,0 105.684877,20.621427,0 105.684881,20.621465,0 105.684876,20.621524,0 105.684848,20.621577,0 105.684325,20.622214,0 105.683682,20.622188,0 105.683823,20.622362,0 105.683854,20.622414,0 105.683876,20.622466,0 105.683889,20.622543,0 105.68392,20.622913,0 105.68405,20.623897,0 105.684097,20.624246,0 105.684106,20.624302,0 105.684154,20.62458,0 105.684197,20.624777,0 105.684286,20.625187,0 105.684317,20.625302,0 105.684448,20.625653,0 105.684578,20.625934,0 105.684744,20.626255,0 105.68541,20.627346,0 105.685781,20.627231,0 105.686177,20.627161,0 105.686759,20.62713,0 105.687076,20.627066,0 105.68735,20.627,0 105.68768,20.626879,0 105.687964,20.626705,0 105.688246,20.626486,0 105.688446,20.626281,0 105.688624,20.626025,0 105.688862,20.625535,0 105.689099,20.624889,0 105.689131,20.624812,0 105.689263,20.624422,0 105.689547,20.623793,0 105.689867,20.62321,0 105.689987,20.623021,0 105.690182,20.622672,0 105.690351,20.62237,0 105.6913,20.620788,0 105.69117,20.62071,0 105.691078,20.620687,0 105.690875,20.620667,0 105.690802,20.620642,0 105.690738,20.620602,0 105.690644,20.620502,0 105.690392,20.620243,0 105.690644,20.620502,0 105.690738,20.620602,0 105.690802,20.620642,0 105.690875,20.620667,0 105.691078,20.620687,0 105.69117,20.62071,0 105.6913,20.620788,0 105.690351,20.62237,0 105.689987,20.623021,0 105.689867,20.62321,0 105.689547,20.623793,0 105.689263,20.624422,0 105.689131,20.624812,0 105.689099,20.624889,0 105.688862,20.625535,0 105.688624,20.626025,0 105.688446,20.626281,0 105.688246,20.626486,0 105.687964,20.626705,0 105.68768,20.626879,0 105.68735,20.627,0 105.687076,20.627066,0 105.686759,20.62713,0 105.686177,20.627161,0 105.685781,20.627231,0 105.68541,20.627346,0 105.684744,20.626255,0 105.684578,20.625934,0 105.684448,20.625653,0 105.684317,20.625302,0 105.684286,20.625187,0 105.684197,20.624777,0 105.684154,20.62458,0 105.684106,20.624302,0 105.684097,20.624246,0 105.68405,20.623897,0 105.68392,20.622913,0 105.683889,20.622543,0 105.683876,20.622466,0 105.683854,20.622414,0 105.683823,20.622362,0 105.683682,20.622188,0 105.683144,20.62172,0 105.682897,20.621501,0 105.682738,20.621383,0 105.682685,20.621377,0 105.682627,20.621378,0 105.682352,20.62149,0 105.682152,20.621571,0 105.682071,20.621592,0 105.681915,20.621615,0 105.681711,20.62163,0 105.681565,20.62163,0 105.681391,20.621618,0 105.681234,20.621592,0 105.680888,20.621506,0 105.680254,20.621433,0 105.680177,20.621418,0 105.680106,20.6214,0 105.678532,20.62101,0 105.678703,20.62079,0 105.678762,20.620712,0 105.678798,20.620675,0 105.678909,20.620607,0 105.678992,20.620562,0 105.679126,20.620509,0 105.679263,20.620484,0 105.679207,20.620494,0 105.679126,20.620509,0 105.678992,20.620562,0 105.678909,20.620607,0 105.678798,20.620675,0 105.678762,20.620712,0 105.678703,20.62079,0 105.678532,20.62101,0 105.680106,20.6214,0 105.680177,20.621418,0 105.680254,20.621433,0 105.680888,20.621506,0 105.681234,20.621592,0 105.681391,20.621618,0 105.681565,20.62163,0 105.681711,20.62163,0 105.681915,20.621615,0 105.682071,20.621592,0 105.682152,20.621571,0 105.682352,20.62149,0 105.682627,20.621378,0 105.682685,20.621377,0 105.682738,20.621383,0 105.682897,20.621501,0 105.683144,20.62172,0 105.683682,20.622188,0 105.683823,20.622362,0 105.683854,20.622414,0 105.683876,20.622466,0 105.683889,20.622543,0 105.68392,20.622913,0 105.68405,20.623897,0 105.684097,20.624246,0 105.684106,20.624302,0 105.684154,20.62458,0 105.684197,20.624777,0 105.684286,20.625187,0 105.684317,20.625302,0 105.684448,20.625653,0 105.684578,20.625934,0 105.684744,20.626255,0 105.68541,20.627346,0 105.686801,20.629851,0 105.687674,20.631432,0 105.688084,20.632174,0 105.688415,20.632774,0 105.688713,20.633055,0 105.689,20.633214,0 105.689509,20.633387,0 105.689549,20.633394,0 105.688901,20.634277,0 105.688709,20.634539,0 105.687759,20.635796,0 105.687127,20.63665,0 105.68632,20.637711,0 105.688074,20.6385,0 105.689643,20.639204,0 105.690925,20.63978,0 105.69228,20.640373,0 105.693447,20.640884,0 105.694108,20.640404,0 105.694157,20.64037,0 105.694796,20.639937,0 105.695615,20.639398,0 105.69619,20.638989,0 105.696667,20.638587,0 105.697167,20.638219,0 105.697446,20.637954,0 105.698046,20.638063,0 105.698047,20.638038,0 105.698181,20.637569,0 105.695922,20.634677,0 105.695525,20.634431,0 105.694682,20.634279,0 105.693358,20.634055,0 105.689549,20.633394,0 105.689509,20.633387,0 105.689,20.633214,0 105.688713,20.633055,0 105.688415,20.632774,0 105.688084,20.632174,0 105.687674,20.631432,0 105.686801,20.629851,0 105.686341,20.63021,0 105.685438,20.630984,0 105.685337,20.63092,0 105.684963,20.630683,0 105.684736,20.630985,0 105.684323,20.631536,0 105.683879,20.631367,0 105.683411,20.631189,0 105.682968,20.63102,0 105.682467,20.630829,0 105.683622,20.629207,0 105.684203,20.628398,0 105.684491,20.627997,0 105.684915,20.627599,0 105.685178,20.627444,0 105.68541,20.627346,0 105.685781,20.627231,0 105.686177,20.627161,0 105.686759,20.62713,0 105.687076,20.627066,0 105.68735,20.627,0 105.68768,20.626879,0 105.687964,20.626705,0 105.688246,20.626486,0 105.688446,20.626281,0 105.688624,20.626025,0 105.688862,20.625535,0 105.689099,20.624889,0 105.689131,20.624812,0 105.689263,20.624422,0 105.689547,20.623793,0 105.689867,20.62321,0 105.689987,20.623021,0 105.690182,20.622672,0</coordinates></LineString></Placemark>
  <Placemark><name>1. Đón khách tại Tourism Hub Đồi Dùng</name><description>Sáng — Hướng dẫn viên đón bạn bằng một ly trà thảo dược và giới thiệu chương trình.</description><styleUrl>#stop</styleUrl><Point><coordinates>105.6897842,20.6224767,0</coordinates></Point></Placemark>
  <Placemark><name>2. Chùa Phú Cốc &amp; Cây đa cổ</name><description>Sáng — Trên ngọn đồi lộng gió thôn Đồi Dùng, điểm tựa tâm linh của 6 thôn vùng Phú Cốc — với cây đa cổ thụ hơn 400 năm tuổi. Cụm tam bảo, nhà mẫu, nhà thờ tổ và miếu thờ quan lang.</description><styleUrl>#stop</styleUrl><Point><coordinates>105.68909,20.6237117,0</coordinates></Point></Placemark>
  <Placemark><name>3. Đền Cây Thợi &amp; Cây Thị 400 năm</name><description>Sáng — Đền thờ Nhị vị Thánh Mẫu Từ Quang và Từ Minh — gắn truyền thuyết Đầm Hai Bà, sắc phong Khải Định 1924. Bên đền là cây thị hơn 400 năm, một gốc cho ba loại quả.</description><styleUrl>#stop</styleUrl><Point><coordinates>105.6848617,20.6252583,0</coordinates></Point></Placemark>
  <Placemark><name>4. Hồ Baibóo &amp; các homestay ven hồ</name><description>Sáng — Hồ ngọc bích giữa đất Mường, đường vòng hồ chừng 4 km. Bạn ngắm cảnh hồ, khoác trang phục Mường, đi bè tre ra giữa hồ và ghé các homestay ven hồ.</description><styleUrl>#stop</styleUrl><Point><coordinates>105.6860667,20.621305,0</coordinates></Point></Placemark>
  <Placemark><name>5. Bữa trưa Cỗ Lá Mường &amp; giao lưu văn nghệ</name><description>Trưa — Mâm Cỗ Lá Mường bày trên lá chuối, nguyên liệu 100% địa phương, cùng các tiết mục văn nghệ truyền thống do chính cộng đồng biểu diễn.</description><styleUrl>#stop</styleUrl><Point><coordinates>105.6897842,20.6224767,0</coordinates></Point></Placemark>
  <Placemark><name>6. Đình Phú Cốc — Lễ Mo Mường</name><description>Chiều — Tại ngôi đại đình chung của các thôn người Mường, bạn được dự một lễ Mo Mường do nghệ nhân thực hiện — những lời mo cổ ngân lên trong không gian thiêng, một di sản tinh thần quý giá của người Mường.</description><styleUrl>#stop</styleUrl><Point><coordinates>105.6791833,20.6203792,0</coordinates></Point></Placemark>
  <Placemark><name>7. Đầm sen — Trải nghiệm văn hoá sen</name><description>Chiều — Bạn lội đầm hái sen, lẩy hạt sen, học cách ướp trà sen và lưu lại những khung hình giữa đầm sen thơm ngát. Mùa sen đẹp nhất từ tháng 6 đến tháng 8 hàng năm.</description><styleUrl>#stop</styleUrl><Point><coordinates>105.690095,20.6383217,0</coordinates></Point></Placemark>
  <Placemark><name>8. Nhà Niệm Nga — Làm trà sen &amp; chọn quà</name><description>Chiều — Bạn cùng nhà Niệm Nga trải nghiệm làm trà sen, rồi chọn vài món đặc sản làm quà (trà sen, mật ong An Phú).</description><styleUrl>#stop</styleUrl><Point><coordinates>105.684805,20.63103,0</coordinates></Point></Placemark>
  <Placemark><name>9. Trở về Tourism Hub Đồi Dùng</name><description>Chiều — Kết thúc một ngày đậm hương sen và văn hoá Mường.</description><styleUrl>#stop</styleUrl><Point><coordinates>105.6897842,20.6224767,0</coordinates></Point></Placemark>
 </Document>
</kml>