<?xml version="1.0" encoding="UTF-8"?>
<kml xmlns="http://www.opengis.net/kml/2.2">
 <Document>
  <name>Hà Nội · Mường Cốc · Mai Châu · Pù Luông</name>
  <description>Tuyến tự động dựng bằng OSRM (cycling). 6 điểm dừng. Mường Cốc → Mai Châu ~70 km · Mai Châu → Pù Luông ~80 km. CẢNH BÁO: route có thể bám đường lớn (Hồ Chí Minh) — kiểm tra và chỉnh trong My Maps để bám đường dân sinh.</description>
  <Style id="stop"><IconStyle><color>ff3ba300</color><scale>1.1</scale><Icon><href>http://maps.google.com/mapfiles/kml/paddle/grn-blank.png</href></Icon></IconStyle></Style>
  <Style id="stopact"><IconStyle><color>ff0a78ff</color><scale>1.0</scale><Icon><href>http://maps.google.com/mapfiles/kml/paddle/orange-blank.png</href></Icon></IconStyle></Style>
  <Style id="route"><LineStyle><color>ff2f6a0a</color><width>5</width></LineStyle></Style>
  <Placemark><name>Tuyến Hà Nội · Mường Cốc · Mai Châu · Pù Luông (OSRM cycling — kiểm tra tránh đường HCM)</name><styleUrl>#route</styleUrl><LineString><tessellate>1</tessellate><coordinates>105.690182,20.622672,0 105.690351,20.62237,0 105.6913,20.620788,0 105.69203,20.619564,0 105.692877,20.618093,0 105.693337,20.617288,0 105.693515,20.616965,0 105.693562,20.61688,0 105.693791,20.616401,0 105.694075,20.61556,0 105.694322,20.61453,0 105.694793,20.612205,0 105.695046,20.610921,0 105.695344,20.6095,0 105.695965,20.606561,0 105.696448,20.604131,0 105.69647,20.604021,0 105.696969,20.601577,0 105.696971,20.60146,0 105.697041,20.600895,0 105.697068,20.599836,0 105.696992,20.599108,0 105.696725,20.59738,0 105.696355,20.595247,0 105.69635,20.595216,0 105.696244,20.594629,0 105.69595,20.59282,0 105.695656,20.591177,0 105.695587,20.590706,0 105.695382,20.589401,0 105.695444,20.588449,0 105.695678,20.58763,0 105.695999,20.587014,0 105.696442,20.586361,0 105.696985,20.585763,0 105.697066,20.58568,0 105.69723,20.585507,0 105.698195,20.584515,0 105.699851,20.582794,0 105.701476,20.581132,0 105.703755,20.578805,0 105.704155,20.578156,0 105.704362,20.577706,0 105.704536,20.57719,0 105.704624,20.576694,0 105.704648,20.57611,0 105.704638,20.575714,0 105.704623,20.575408,0 105.704623,20.575386,0 105.704629,20.573745,0 105.704592,20.571986,0 105.704583,20.571252,0 105.704598,20.570654,0 105.704592,20.570564,0 105.704548,20.569549,0 105.704547,20.569436,0 105.704482,20.564396,0 105.704478,20.564025,0 105.704471,20.563501,0 105.704452,20.563252,0 105.70436,20.562052,0 105.704151,20.56105,0 105.703973,20.560416,0 105.703932,20.560268,0 105.702602,20.555523,0 105.702257,20.554104,0 105.701841,20.551946,0 105.701739,20.55146,0 105.701211,20.548952,0 105.700869,20.547266,0 105.700289,20.544406,0 105.700108,20.543514,0 105.699576,20.540895,0 105.699554,20.540822,0 105.69934,20.540113,0 105.699294,20.54002,0 105.699133,20.539696,0 105.698782,20.539205,0 105.698163,20.538741,0 105.697089,20.538112,0 105.696294,20.537482,0 105.696103,20.537261,0 105.695576,20.536649,0 105.694038,20.534057,0 105.693349,20.532897,0 105.692954,20.532231,0 105.692248,20.531173,0 105.691494,20.530023,0 105.691463,20.529978,0 105.691452,20.529962,0 105.690666,20.528731,0 105.689718,20.527273,0 105.689508,20.526954,0 105.688427,20.525332,0 105.688013,20.524917,0 105.687866,20.524771,0 105.687182,20.52426,0 105.686578,20.523808,0 105.684643,20.522414,0 105.684221,20.522093,0 105.683707,20.521563,0 105.683436,20.52111,0 105.683262,20.520517,0 105.683212,20.520118,0 105.68325,20.519612,0 105.68344,20.519097,0 105.683685,20.518428,0 105.683831,20.517942,0 105.683909,20.517419,0 105.683843,20.516913,0 105.683716,20.516543,0 105.683543,20.51624,0 105.683204,20.515871,0 105.682605,20.515395,0 105.681756,20.514834,0 105.680585,20.514064,0 105.680105,20.513737,0 105.679899,20.513604,0 105.67935,20.513251,0 105.679309,20.513226,0 105.679232,20.513172,0 105.679153,20.513126,0 105.678679,20.512834,0 105.678303,20.512593,0 105.677925,20.512348,0 105.677598,20.512129,0 105.677093,20.511609,0 105.676803,20.511091,0 105.676656,20.510652,0 105.676603,20.510165,0 105.67671,20.509472,0 105.676718,20.508918,0 105.676703,20.508487,0 105.676611,20.507924,0 105.676522,20.507526,0 105.676353,20.507145,0 105.676193,20.506785,0 105.675852,20.506293,0 105.675538,20.505919,0 105.675365,20.505777,0 105.674698,20.505229,0 105.674427,20.505051,0 105.674264,20.504945,0 105.673623,20.504548,0 105.672993,20.504159,0 105.672693,20.503972,0 105.672317,20.503641,0 105.672092,20.503335,0 105.671925,20.502925,0 105.671839,20.502508,0 105.671837,20.502101,0 105.671892,20.501343,0 105.671942,20.500803,0 105.671969,20.500308,0 105.671983,20.49986,0 105.671999,20.49958,0 105.672076,20.498329,0 105.672079,20.497543,0 105.672043,20.497147,0 105.672021,20.497077,0 105.671975,20.496848,0 105.671817,20.496348,0 105.671491,20.495502,0 105.671277,20.494967,0 105.671241,20.494859,0 105.671017,20.493964,0 105.670959,20.492998,0 105.670946,20.49229,0 105.670938,20.491875,0 105.670875,20.491335,0 105.67077,20.490965,0 105.670576,20.490585,0 105.670407,20.490359,0 105.670141,20.490175,0 105.669082,20.489642,0 105.668951,20.489587,0 105.668823,20.489531,0 105.66857,20.489424,0 105.667909,20.489155,0 105.667565,20.489014,0 105.667279,20.488892,0 105.666799,20.488682,0 105.666232,20.488492,0 105.665858,20.488305,0 105.665281,20.487876,0 105.664516,20.487144,0 105.664124,20.486309,0 105.663966,20.48533,0 105.663697,20.484303,0 105.663627,20.48415,0 105.663414,20.483805,0 105.663177,20.483527,0 105.663148,20.483494,0 105.662601,20.483002,0 105.662143,20.482701,0 105.661801,20.48246,0 105.661651,20.482347,0 105.661414,20.482178,0 105.661189,20.481999,0 105.660725,20.48164,0 105.660291,20.481285,0 105.659965,20.481038,0 105.659659,20.480785,0 105.65951,20.480662,0 105.658943,20.480008,0 105.658511,20.479298,0 105.658352,20.479024,0 105.657987,20.478431,0 105.65778,20.47803,0 105.657489,20.477618,0 105.657151,20.476924,0 105.656951,20.476522,0 105.656736,20.47611,0 105.656563,20.475708,0 105.656376,20.475376,0 105.656116,20.475106,0 105.655741,20.474797,0 105.655391,20.474533,0 105.655099,20.474317,0 105.654793,20.474083,0 105.654613,20.473906,0 105.654528,20.473778,0 105.654456,20.473615,0 105.654394,20.473428,0 105.654392,20.4732,0 105.65445,20.472934,0 105.654587,20.472712,0 105.655074,20.471912,0 105.655575,20.471305,0 105.655786,20.470957,0 105.655896,20.470634,0 105.655881,20.470224,0 105.65574,20.469962,0 105.655505,20.46972,0 105.655085,20.469457,0 105.654639,20.469245,0 105.65435,20.46903,0 105.654071,20.468601,0 105.65385,20.468165,0 105.653495,20.467667,0 105.653238,20.467196,0 105.653071,20.466727,0 105.652967,20.466405,0 105.65276,20.465696,0 105.652716,20.465468,0 105.652703,20.465234,0 105.652767,20.464922,0 105.652937,20.464517,0 105.65318,20.464135,0 105.653267,20.464003,0 105.6535,20.46367,0 105.653892,20.463162,0 105.653992,20.462979,0 105.654413,20.462334,0 105.654574,20.462125,0 105.654969,20.461482,0 105.655404,20.460882,0 105.655604,20.460532,0 105.655693,20.460282,0 105.655684,20.459978,0 105.655415,20.459381,0 105.655325,20.459287,0 105.65525,20.45919,0 105.65494,20.45894,0 105.654447,20.458749,0 105.653808,20.458649,0 105.653617,20.458617,0 105.653154,20.45854,0 105.652997,20.458519,0 105.652269,20.458393,0 105.651769,20.458226,0 105.651744,20.458218,0 105.651457,20.45807,0 105.651345,20.457964,0 105.651199,20.457785,0 105.650903,20.457407,0 105.650686,20.457135,0 105.650388,20.456807,0 105.650074,20.456444,0 105.649878,20.456174,0 105.649176,20.455421,0 105.648791,20.455091,0 105.648749,20.455056,0 105.648192,20.45467,0 105.648093,20.454587,0 105.647423,20.454146,0 105.647304,20.454064,0 105.64616,20.453284,0 105.643864,20.4517,0 105.643225,20.45126,0 105.641691,20.450221,0 105.641458,20.45006,0 105.640673,20.449553,0 105.640274,20.449335,0 105.639832,20.449151,0 105.639368,20.449013,0 105.638639,20.448885,0 105.637914,20.448836,0 105.637514,20.448799,0 105.637147,20.448757,0 105.636616,20.448716,0 105.636258,20.44869,0 105.635694,20.448638,0 105.63484,20.44857,0 105.634491,20.448537,0 105.633326,20.448432,0 105.632217,20.448342,0 105.631352,20.448162,0 105.630952,20.448006,0 105.630922,20.447987,0 105.630789,20.447913,0 105.630661,20.447843,0 105.630516,20.44774,0 105.630244,20.447526,0 105.629887,20.447109,0 105.629588,20.446617,0 105.62937,20.446029,0 105.629206,20.445578,0 105.629155,20.44541,0 105.627726,20.441081,0 105.627532,20.440456,0 105.627465,20.440265,0 105.627015,20.438865,0 105.626607,20.437741,0 105.626293,20.436773,0 105.625967,20.435845,0 105.625788,20.435262,0 105.625415,20.434184,0 105.624773,20.432169,0 105.6247,20.431957,0 105.624617,20.431695,0 105.624245,20.430686,0 105.623805,20.429919,0 105.623376,20.429213,0 105.623056,20.428732,0 105.622627,20.428062,0 105.622573,20.427967,0 105.622512,20.427876,0 105.622105,20.427281,0 105.621677,20.426644,0 105.621592,20.426524,0 105.620923,20.425543,0 105.620296,20.424516,0 105.620175,20.42426,0 105.619978,20.423702,0 105.619919,20.423515,0 105.619851,20.423186,0 105.619839,20.423108,0 105.619807,20.422521,0 105.619798,20.422343,0 105.619816,20.421925,0 105.619878,20.421526,0 105.619996,20.421072,0 105.62021,20.420402,0 105.620659,20.419009,0 105.621144,20.417551,0 105.621146,20.417525,0 105.621342,20.416873,0 105.6217,20.415709,0 105.622213,20.414129,0 105.622708,20.412603,0 105.623161,20.411173,0 105.623437,20.410334,0 105.623671,20.409649,0 105.623736,20.40934,0 105.623768,20.409039,0 105.623752,20.408485,0 105.623724,20.408293,0 105.623615,20.407906,0 105.623445,20.407516,0 105.623379,20.407397,0 105.623064,20.406986,0 105.62296,20.406874,0 105.622722,20.406634,0 105.622508,20.406449,0 105.622289,20.406271,0 105.621987,20.406027,0 105.621944,20.405988,0 105.621655,20.405725,0 105.621425,20.405525,0 105.621193,20.405331,0 105.621057,20.405224,0 105.620372,20.404634,0 105.620341,20.404609,0 105.619686,20.404082,0 105.619336,20.403777,0 105.61875,20.403275,0 105.618003,20.402652,0 105.617967,20.402624,0 105.617228,20.401978,0 105.615705,20.400721,0 105.615553,20.400602,0 105.615021,20.400295,0 105.6144,20.400047,0 105.613939,20.39991,0 105.613437,20.399818,0 105.612526,20.39982,0 105.61008,20.400148,0 105.60845,20.400372,0 105.606374,20.400656,0 105.605345,20.400796,0 105.603062,20.401103,0 105.601798,20.401268,0 105.597141,20.401896,0 105.596418,20.401994,0 105.591597,20.402649,0 105.590369,20.402901,0 105.58949,20.403133,0 105.588843,20.403312,0 105.58852,20.403402,0 105.585834,20.40412,0 105.583457,20.404738,0 105.581132,20.40535,0 105.580568,20.405529,0 105.579753,20.40584,0 105.579218,20.406093,0 105.5775,20.40684,0 105.576899,20.407055,0 105.576797,20.40709,0 105.576369,20.4072,0 105.576009,20.407256,0 105.575154,20.40724,0 105.57446,20.40713,0 105.573968,20.407025,0 105.573502,20.406899,0 105.573203,20.406829,0 105.571598,20.406425,0 105.571244,20.406336,0 105.570448,20.406135,0 105.56851,20.405668,0 105.565623,20.404972,0 105.564657,20.404835,0 105.564082,20.40483,0 105.563459,20.404885,0 105.562337,20.405049,0 105.561357,20.405254,0 105.560406,20.405532,0 105.55968,20.405852,0 105.557419,20.407004,0 105.556906,20.407259,0 105.555462,20.407989,0 105.554668,20.408385,0 105.554381,20.408533,0 105.553898,20.408738,0 105.553422,20.408881,0 105.552901,20.408961,0 105.55253,20.408936,0 105.551807,20.408764,0 105.547343,20.407055,0 105.546752,20.406852,0 105.545936,20.406631,0 105.5452,20.406471,0 105.543596,20.406265,0 105.543409,20.406257,0 105.542028,20.406233,0 105.541723,20.406247,0 105.539338,20.406368,0 105.53831,20.40638,0 105.538245,20.406524,0 105.53813,20.406667,0 105.537959,20.406864,0 105.537787,20.40705,0 105.537655,20.407169,0 105.537495,20.40729,0 105.537248,20.407391,0 105.536933,20.407437,0 105.536417,20.407441,0 105.534893,20.407386,0 105.534684,20.407406,0 105.534437,20.407466,0 105.534233,20.407547,0 105.53404,20.407647,0 105.531685,20.409065,0 105.530837,20.409595,0 105.530598,20.409744,0 105.530064,20.410078,0 105.528897,20.410818,0 105.525624,20.412894,0 105.523275,20.414383,0 105.521058,20.415704,0 105.518959,20.416956,0 105.518761,20.417068,0 105.518081,20.417504,0 105.517094,20.418095,0 105.515391,20.419128,0 105.514678,20.419608,0 105.51434,20.419879,0 105.514066,20.420121,0 105.513889,20.420264,0 105.512883,20.420968,0 105.512693,20.421111,0 105.512438,20.421289,0 105.512245,20.421403,0 105.511679,20.421729,0 105.511526,20.421825,0 105.51122,20.422033,0 105.5093,20.423351,0 105.508694,20.42374,0 105.508629,20.423783,0 105.508549,20.423858,0 105.508364,20.424064,0 105.50827,20.424162,0 105.508125,20.424298,0 105.507025,20.42514,0 105.506481,20.425545,0 105.505917,20.425982,0 105.504482,20.427015,0 105.504166,20.427277,0 105.503959,20.4274,0 105.503756,20.427473,0 105.503573,20.4275,0 105.503313,20.427512,0 105.502621,20.42746,0 105.500306,20.427371,0 105.499496,20.427335,0 105.499386,20.427307,0 105.499279,20.427269,0 105.499166,20.427196,0 105.498852,20.42697,0 105.4986,20.42686,0 105.498517,20.426839,0 105.498394,20.426837,0 105.498211,20.42687,0 105.498085,20.426897,0 105.497222,20.427219,0 105.496272,20.427661,0 105.496098,20.427704,0 105.495958,20.427709,0 105.49587,20.427692,0 105.4958,20.427656,0 105.495663,20.427558,0 105.495427,20.427337,0 105.49525,20.427066,0 105.495001,20.42656,0 105.494703,20.426125,0 105.494598,20.426007,0 105.494459,20.42593,0 105.494338,20.425912,0 105.494188,20.425917,0 105.493949,20.425945,0 105.493681,20.425942,0 105.492868,20.425867,0 105.492713,20.425867,0 105.492573,20.425879,0 105.491632,20.426126,0 105.491358,20.426171,0 105.4912,20.426178,0 105.491031,20.426161,0 105.490669,20.426085,0 105.49002,20.42599,0 105.489681,20.42597,0 105.489529,20.425972,0 105.489425,20.425992,0 105.489349,20.426025,0 105.489261,20.42608,0 105.489186,20.426151,0 105.488754,20.426558,0 105.488309,20.426988,0 105.487912,20.427377,0 105.487778,20.427473,0 105.487429,20.427671,0 105.487314,20.427757,0 105.487249,20.427825,0 105.48719,20.427915,0 105.487139,20.428033,0 105.487051,20.428388,0 105.486978,20.428673,0 105.486909,20.428843,0 105.486815,20.429009,0 105.486579,20.429373,0 105.486498,20.429557,0 105.486485,20.429672,0 105.486487,20.429748,0 105.486522,20.429908,0 105.486555,20.430122,0 105.486557,20.430296,0 105.486528,20.430401,0 105.486386,20.430625,0 105.485919,20.43116,0 105.485702,20.431464,0 105.485613,20.431688,0 105.485562,20.431884,0 105.485337,20.433445,0 105.485281,20.433661,0 105.485224,20.433752,0 105.485168,20.433804,0 105.485114,20.433837,0 105.485012,20.433887,0 105.484071,20.434227,0 105.481429,20.435149,0 105.481167,20.435246,0 105.47984,20.435725,0 105.479522,20.435906,0 105.479356,20.436034,0 105.478813,20.436619,0 105.478155,20.437376,0 105.476489,20.439291,0 105.476429,20.439405,0 105.476403,20.439507,0 105.476418,20.439628,0 105.476583,20.440003,0 105.476606,20.440112,0 105.47662,20.440213,0 105.476597,20.440325,0 105.476286,20.440875,0 105.476138,20.441042,0 105.475983,20.44115,0 105.47564,20.44125,0 105.475152,20.441417,0 105.474995,20.44151,0 105.474305,20.442061,0 105.47411,20.442216,0 105.473535,20.442857,0 105.473386,20.442988,0 105.473221,20.443044,0 105.473012,20.443064,0 105.471566,20.44284,0 105.471287,20.442827,0 105.471062,20.442875,0 105.469984,20.44329,0 105.468957,20.443508,0 105.468638,20.443615,0 105.46838,20.443743,0 105.468225,20.443842,0 105.467075,20.44504,0 105.466817,20.445336,0 105.466345,20.445875,0 105.466207,20.446071,0 105.465565,20.447428,0 105.465551,20.447469,0 105.465469,20.447745,0 105.465476,20.447783,0 105.465788,20.449058,0 105.464884,20.45016,0 105.464531,20.450613,0 105.464341,20.450831,0 105.464264,20.450921,0 105.463981,20.451254,0 105.463852,20.451432,0 105.463826,20.451469,0 105.462516,20.453027,0 105.461628,20.454113,0 105.460935,20.454924,0 105.460772,20.455027,0 105.460039,20.455276,0 105.459324,20.455539,0 105.458527,20.455813,0 105.458407,20.455864,0 105.457174,20.456252,0 105.457022,20.456305,0 105.456851,20.456365,0 105.456474,20.456549,0 105.4564,20.456655,0 105.456333,20.456801,0 105.456267,20.457084,0 105.456216,20.457336,0 105.456122,20.457531,0 105.455905,20.457816,0 105.454545,20.458861,0 105.453646,20.459564,0 105.453053,20.460026,0 105.452357,20.460565,0 105.452239,20.460683,0 105.452172,20.460792,0 105.451903,20.461604,0 105.451769,20.461889,0 105.451463,20.462276,0 105.451257,20.462542,0 105.451092,20.462748,0 105.450818,20.463088,0 105.450602,20.463356,0 105.450463,20.463528,0 105.450307,20.463814,0 105.45022,20.464112,0 105.450046,20.465448,0 105.449931,20.466385,0 105.449899,20.466646,0 105.449768,20.46707,0 105.449546,20.46744,0 105.449339,20.467619,0 105.448751,20.468103,0 105.448221,20.46849,0 105.447839,20.468668,0 105.447433,20.468785,0 105.447281,20.468829,0 105.446999,20.468906,0 105.446395,20.469072,0 105.446306,20.469082,0 105.446225,20.469082,0 105.445004,20.468962,0 105.444787,20.468963,0 105.444535,20.468948,0 105.443863,20.468914,0 105.443755,20.468908,0 105.443571,20.468844,0 105.443476,20.46875,0 105.443427,20.468476,0 105.443419,20.467623,0 105.443435,20.46749,0 105.443505,20.467344,0 105.444303,20.466059,0 105.444295,20.465896,0 105.444242,20.465807,0 105.444086,20.465709,0 105.443557,20.465502,0 105.44276,20.465244,0 105.44209,20.464969,0 105.441916,20.464912,0 105.441743,20.464896,0 105.441576,20.464903,0 105.44141,20.465001,0 105.439146,20.466077,0 105.43759,20.466816,0 105.437561,20.46683,0 105.436806,20.467021,0 105.436213,20.467039,0 105.435467,20.46713,0 105.435007,20.467301,0 105.434379,20.467512,0 105.433983,20.467789,0 105.433627,20.468068,0 105.43268,20.469162,0 105.432371,20.469518,0 105.431118,20.470854,0 105.430888,20.471098,0 105.430505,20.471507,0 105.430304,20.471694,0 105.429661,20.472133,0 105.428705,20.47263,0 105.428552,20.472747,0 105.427169,20.473809,0 105.426421,20.474383,0 105.426253,20.474538,0 105.42507,20.475987,0 105.424593,20.476524,0 105.424245,20.476833,0 105.423229,20.477485,0 105.422129,20.478088,0 105.420919,20.478719,0 105.418965,20.479803,0 105.418643,20.479972,0 105.418548,20.480022,0 105.417567,20.480589,0 105.4175,20.480626,0 105.41614,20.481394,0 105.416056,20.481436,0 105.415336,20.481872,0 105.415052,20.482056,0 105.414659,20.482244,0 105.413641,20.482872,0 105.413373,20.483027,0 105.412765,20.483352,0 105.411576,20.484066,0 105.409934,20.48524,0 105.409594,20.485483,0 105.409177,20.485834,0 105.408781,20.486164,0 105.407126,20.487831,0 105.405318,20.489652,0 105.404709,20.490177,0 105.404151,20.490941,0 105.404065,20.491624,0 105.404366,20.493272,0 105.404323,20.493634,0 105.403884,20.494374,0 105.403679,20.494719,0 105.402507,20.496067,0 105.402102,20.496532,0 105.401535,20.497213,0 105.401309,20.497485,0 105.40119,20.497573,0 105.40016,20.498176,0 105.399473,20.498297,0 105.398904,20.498274,0 105.398591,20.498221,0 105.398379,20.498177,0 105.398094,20.498127,0 105.397233,20.497869,0 105.396995,20.497848,0 105.395482,20.497654,0 105.393679,20.49769,0 105.393623,20.497691,0 105.392564,20.497774,0 105.392064,20.497828,0 105.390656,20.498081,0 105.390464,20.498128,0 105.388135,20.49892,0 105.387543,20.499181,0 105.386494,20.49977,0 105.386257,20.499902,0 105.385737,20.500289,0 105.38521,20.500739,0 105.38402,20.501852,0 105.383291,20.502501,0 105.382583,20.503132,0 105.382246,20.503364,0 105.381721,20.503647,0 105.381232,20.503927,0 105.380644,20.504148,0 105.37771,20.504966,0 105.37616,20.505383,0 105.375548,20.505548,0 105.373963,20.505921,0 105.373474,20.506084,0 105.372308,20.506618,0 105.371544,20.507351,0 105.371292,20.507659,0 105.371086,20.508018,0 105.371027,20.508127,0 105.370658,20.509135,0 105.370351,20.510041,0 105.370027,20.510689,0 105.369525,20.511307,0 105.369445,20.511405,0 105.368145,20.512406,0 105.367319,20.512878,0 105.366375,20.513281,0 105.366347,20.513289,0 105.365963,20.513442,0 105.365574,20.513563,0 105.365544,20.51357,0 105.364446,20.51384,0 105.363068,20.513981,0 105.361915,20.51407,0 105.360559,20.514821,0 105.359651,20.515197,0 105.357185,20.515841,0 105.356561,20.515989,0 105.356327,20.516031,0 105.356132,20.516097,0 105.35591,20.516226,0 105.355678,20.51641,0 105.355432,20.516687,0 105.352591,20.520124,0 105.351808,20.521057,0 105.350897,20.522143,0 105.350636,20.522454,0 105.347017,20.526938,0 105.346361,20.52775,0 105.345875,20.528257,0 105.345754,20.528417,0 105.345665,20.528589,0 105.345581,20.528803,0 105.345471,20.529124,0 105.345357,20.529367,0 105.345308,20.529435,0 105.34502,20.529823,0 105.344019,20.531124,0 105.343503,20.531794,0 105.342504,20.532792,0 105.341906,20.53339,0 105.341744,20.533547,0 105.340761,20.534471,0 105.337448,20.537114,0 105.337391,20.537157,0 105.33591,20.538269,0 105.335727,20.538405,0 105.335169,20.53884,0 105.33502,20.538947,0 105.333571,20.540059,0 105.329451,20.543187,0 105.328491,20.543915,0 105.326491,20.545471,0 105.326337,20.54559,0 105.324874,20.546694,0 105.323719,20.547566,0 105.322604,20.548414,0 105.322516,20.548481,0 105.321039,20.549594,0 105.320928,20.549677,0 105.320483,20.550017,0 105.319925,20.550443,0 105.319276,20.550912,0 105.31862,20.551398,0 105.31767,20.552102,0 105.316893,20.552701,0 105.316366,20.553098,0 105.315353,20.553851,0 105.314834,20.554243,0 105.313764,20.555051,0 105.313586,20.555185,0 105.313146,20.555501,0 105.311742,20.55655,0 105.311404,20.556807,0 105.310927,20.557143,0 105.309899,20.557918,0 105.308542,20.558935,0 105.3085,20.558971,0 105.30695,20.560118,0 105.306507,20.560444,0 105.305818,20.560945,0 105.305089,20.561505,0 105.304761,20.561745,0 105.304471,20.561985,0 105.304244,20.562213,0 105.304073,20.562444,0 105.303901,20.562675,0 105.303787,20.562824,0 105.303692,20.563026,0 105.303449,20.563717,0 105.303333,20.564032,0 105.302901,20.565469,0 105.302429,20.566857,0 105.301921,20.568374,0 105.301591,20.569353,0 105.301015,20.571062,0 105.300816,20.571658,0 105.300039,20.573982,0 105.299672,20.575098,0 105.299088,20.57688,0 105.298959,20.577272,0 105.298505,20.57866,0 105.297927,20.580428,0 105.29772,20.580894,0 105.297291,20.581865,0 105.296973,20.582355,0 105.296622,20.582896,0 105.296369,20.583286,0 105.295501,20.584389,0 105.294456,20.58549,0 105.293958,20.586069,0 105.293898,20.586126,0 105.291976,20.588463,0 105.290416,20.591218,0 105.289934,20.592254,0 105.289683,20.592749,0 105.288635,20.595015,0 105.288089,20.596175,0 105.287963,20.596454,0 105.287547,20.597344,0 105.287454,20.597584,0 105.28693,20.598619,0 105.286702,20.599181,0 105.286464,20.599623,0 105.286172,20.600226,0 105.285627,20.601393,0 105.285607,20.601437,0 105.285398,20.601873,0 105.285173,20.60238,0 105.285022,20.602668,0 105.284674,20.603422,0 105.284194,20.604465,0 105.28414,20.604581,0 105.283491,20.605984,0 105.282981,20.607017,0 105.282878,20.607259,0 105.280889,20.611491,0 105.28053,20.612289,0 105.280426,20.612537,0 105.280282,20.612919,0 105.27971,20.614439,0 105.279071,20.616034,0 105.279022,20.616171,0 105.278821,20.616737,0 105.278791,20.616821,0 105.278539,20.617528,0 105.278353,20.618086,0 105.278207,20.618475,0 105.278063,20.618905,0 105.278046,20.618966,0 105.277982,20.619172,0 105.277891,20.619497,0 105.277797,20.620125,0 105.2777,20.620886,0 105.277609,20.62101,0 105.277509,20.62109,0 105.277195,20.621217,0 105.276114,20.620956,0 105.275889,20.620902,0 105.275425,20.620731,0 105.275108,20.620564,0 105.275004,20.620509,0 105.274623,20.620264,0 105.274052,20.620001,0 105.273778,20.619875,0 105.273465,20.619725,0 105.273071,20.619497,0 105.272456,20.619243,0 105.271995,20.619071,0 105.271931,20.619045,0 105.271826,20.619003,0 105.271354,20.61881,0 105.270935,20.618573,0 105.270738,20.618422,0 105.270513,20.618283,0 105.270417,20.618226,0 105.269769,20.617841,0 105.269501,20.617621,0 105.269485,20.617606,0 105.269048,20.61705,0 105.267915,20.615657,0 105.267815,20.615565,0 105.267715,20.615502,0 105.267607,20.61545,0 105.267507,20.61543,0 105.267378,20.615427,0 105.267196,20.615448,0 105.267067,20.615481,0 105.266776,20.615591,0 105.265204,20.616248,0 105.264877,20.616332,0 105.264481,20.616369,0 105.26432,20.616366,0 105.261168,20.616255,0 105.260847,20.616281,0 105.260196,20.616438,0 105.259279,20.616595,0 105.259057,20.616623,0 105.256553,20.616817,0 105.256363,20.616832,0 105.254797,20.616943,0 105.253718,20.617016,0 105.251051,20.617174,0 105.250762,20.617205,0 105.25051,20.617268,0 105.250329,20.617351,0 105.248486,20.618434,0 105.248149,20.61868,0 105.247976,20.618844,0 105.247836,20.619046,0 105.247245,20.620311,0 105.247081,20.620611,0 105.246872,20.62086,0 105.246598,20.621071,0 105.24634,20.621198,0 105.246013,20.621289,0 105.245719,20.62132,0 105.245401,20.621319,0 105.243907,20.621252,0 105.243348,20.621197,0 105.242948,20.621131,0 105.242634,20.621041,0 105.242334,20.620887,0 105.24188,20.620648,0 105.241655,20.620544,0 105.241417,20.620493,0 105.241046,20.620501,0 105.240053,20.62057,0 105.239712,20.620591,0 105.238228,20.620637,0 105.237799,20.620681,0 105.237453,20.620742,0 105.23714,20.62084,0 105.236952,20.62091,0 105.235406,20.621483,0 105.235263,20.621554,0 105.235149,20.621627,0 105.234985,20.621744,0 105.234875,20.621872,0 105.234221,20.622838,0 105.234056,20.622993,0 105.233803,20.623127,0 105.233556,20.62322,0 105.233357,20.623262,0 105.233274,20.623258,0 105.233127,20.623252,0 105.232947,20.623206,0 105.232572,20.623062,0 105.231785,20.622699,0 105.231556,20.62262,0 105.231376,20.622591,0 105.231194,20.622588,0 105.230961,20.622622,0 105.230738,20.622706,0 105.230314,20.622975,0 105.229542,20.623512,0 105.229282,20.623685,0 105.229052,20.623804,0 105.227669,20.624502,0 105.227448,20.624632,0 105.227295,20.624751,0 105.226227,20.625575,0 105.225403,20.626211,0 105.224736,20.626726,0 105.224643,20.626803,0 105.224255,20.62712,0 105.223677,20.627584,0 105.222208,20.628809,0 105.221926,20.62905,0 105.221464,20.629642,0 105.220436,20.631212,0 105.220322,20.631387,0 105.219292,20.632955,0 105.218968,20.633329,0 105.218454,20.633811,0 105.218055,20.634147,0 105.21578,20.636113,0 105.215659,20.636269,0 105.215524,20.636475,0 105.215426,20.636676,0 105.214948,20.637745,0 105.21453,20.638663,0 105.214246,20.639104,0 105.214069,20.63928,0 105.21383,20.639411,0 105.213559,20.639511,0 105.213181,20.639551,0 105.212754,20.63957,0 105.211245,20.639649,0 105.211101,20.639645,0 105.210856,20.639628,0 105.210689,20.639602,0 105.209012,20.639264,0 105.208873,20.639225,0 105.208762,20.639183,0 105.206614,20.638366,0 105.206496,20.638335,0 105.206382,20.638315,0 105.206267,20.638305,0 105.206031,20.638305,0 105.205793,20.638318,0 105.205601,20.638345,0 105.205387,20.638394,0 105.204995,20.638491,0 105.204683,20.638526,0 105.204164,20.638468,0 105.203637,20.638324,0 105.202993,20.638123,0 105.202451,20.637864,0 105.2017,20.637482,0 105.20132,20.637217,0 105.200852,20.637019,0 105.200361,20.636883,0 105.198885,20.636727,0 105.198254,20.636574,0 105.197802,20.636421,0 105.196633,20.635617,0 105.196224,20.635336,0 105.195709,20.635092,0 105.195303,20.635009,0 105.194638,20.635037,0 105.194058,20.635114,0 105.193331,20.635286,0 105.192901,20.635346,0 105.192068,20.635308,0 105.191509,20.635233,0 105.190994,20.635105,0 105.190574,20.63493,0 105.190146,20.634666,0 105.189723,20.63435,0 105.188249,20.632995,0 105.188108,20.63288,0 105.187967,20.632802,0 105.18683,20.632422,0 105.185206,20.631773,0 105.18483,20.631645,0 105.184543,20.631605,0 105.18441,20.631612,0 105.18427,20.63162,0 105.184134,20.63164,0 105.183962,20.631692,0 105.183712,20.631798,0 105.183559,20.631918,0 105.183295,20.632183,0 105.18136,20.634825,0 105.180327,20.636025,0 105.180095,20.636222,0 105.179917,20.636311,0 105.17975,20.636376,0 105.179533,20.636399,0 105.178637,20.636276,0 105.178311,20.636286,0 105.178114,20.636312,0 105.177851,20.636376,0 105.17767,20.636447,0 105.177528,20.636522,0 105.177386,20.636619,0 105.177172,20.636819,0 105.176987,20.637052,0 105.176889,20.637215,0 105.176515,20.637985,0 105.176373,20.638244,0 105.176274,20.638361,0 105.176175,20.638475,0 105.174813,20.639873,0 105.174502,20.640231,0 105.174387,20.640371,0 105.174264,20.640574,0 105.173753,20.641816,0 105.173653,20.641961,0 105.173518,20.642095,0 105.173358,20.642208,0 105.173159,20.642298,0 105.171775,20.642815,0 105.171572,20.642848,0 105.1713,20.642847,0 105.170272,20.642698,0 105.170027,20.642712,0 105.169845,20.642793,0 105.169716,20.642918,0 105.169665,20.643039,0 105.169635,20.643152,0 105.169645,20.643462,0 105.169627,20.643698,0 105.169594,20.643786,0 105.169478,20.643939,0 105.169316,20.644112,0 105.168512,20.644888,0 105.168307,20.645012,0 105.168152,20.645065,0 105.167967,20.645096,0 105.167747,20.645101,0 105.167578,20.645081,0 105.16742,20.645033,0 105.166991,20.644848,0 105.166862,20.644811,0 105.166732,20.644809,0 105.166583,20.644831,0 105.16647,20.64488,0 105.166335,20.644986,0 105.165862,20.645433,0 105.1654,20.645942,0 105.164115,20.647423,0 105.163965,20.647533,0 105.163783,20.647611,0 105.163598,20.647647,0 105.162391,20.647787,0 105.162251,20.647812,0 105.16212,20.64786,0 105.161115,20.648306,0 105.160818,20.648436,0 105.159068,20.649309,0 105.157628,20.649981,0 105.156652,20.650477,0 105.156144,20.65086,0 105.155797,20.651262,0 105.155649,20.651405,0 105.15553,20.651497,0 105.155382,20.651552,0 105.154763,20.6516,0 105.154193,20.651753,0 105.153314,20.651975,0 105.153001,20.652015,0 105.152607,20.652052,0 105.152213,20.652122,0 105.151674,20.65225,0 105.151405,20.652335,0 105.150902,20.652442,0 105.149857,20.652491,0 105.14952,20.652547,0 105.149265,20.652639,0 105.149076,20.652771,0 105.148897,20.65295,0 105.148254,20.653803,0 105.147561,20.6545,0 105.14718,20.65479,0 105.14672,20.655058,0 105.14524,20.655755,0 105.144073,20.65668,0 105.143778,20.656988,0 105.143684,20.657355,0 105.143766,20.657614,0 105.143847,20.657784,0 105.144471,20.658617,0 105.14453,20.658745,0 105.144549,20.658898,0 105.144541,20.659011,0 105.144488,20.659152,0 105.144426,20.659247,0 105.143575,20.659794,0 105.143325,20.659886,0 105.143094,20.659905,0 105.142871,20.659839,0 105.142696,20.659694,0 105.142356,20.659123,0 105.142296,20.659058,0 105.1422,20.659013,0 105.142058,20.658994,0 105.141371,20.659087,0 105.141025,20.659122,0 105.14077,20.659153,0 105.140302,20.659239,0 105.140176,20.659307,0 105.140078,20.659405,0 105.139572,20.660172,0 105.139434,20.660358,0 105.139221,20.660564,0 105.138913,20.660761,0 105.138523,20.660945,0 105.137037,20.661413,0 105.1368,20.661498,0 105.136605,20.661647,0 105.136469,20.661854,0 105.136403,20.66208,0 105.136458,20.66235,0 105.137116,20.663325,0 105.137162,20.663423,0 105.137191,20.663536,0 105.137202,20.663679,0 105.136917,20.66529,0 105.136835,20.665472,0 105.136719,20.665636,0 105.136587,20.665772,0 105.136222,20.666009,0 105.135815,20.666079,0 105.135179,20.666058,0 105.134794,20.665975,0 105.134501,20.665835,0 105.13422,20.665597,0 105.134045,20.66537,0 105.133586,20.664744,0 105.133384,20.664599,0 105.133103,20.664552,0 105.132838,20.664629,0 105.132626,20.66481,0 105.132529,20.665051,0 105.132516,20.6662,0 105.132478,20.666383,0 105.132422,20.666566,0 105.132037,20.667238,0 105.131903,20.667387,0 105.131747,20.667501,0 105.131559,20.667565,0 105.131441,20.667591,0 105.131307,20.667591,0 105.1309,20.667499,0 105.130516,20.667443,0 105.130381,20.667453,0 105.13025,20.667492,0 105.128653,20.668254,0 105.128395,20.668395,0 105.128219,20.668542,0 105.128095,20.668679,0 105.127973,20.668864,0 105.127902,20.668972,0 105.127836,20.669037,0 105.127702,20.669128,0 105.127487,20.669243,0 105.126773,20.669428,0 105.126632,20.669484,0 105.126546,20.669536,0 105.125855,20.670201,0 105.125397,20.670726,0 105.124731,20.67138,0 105.124134,20.672031,0 105.124033,20.672098,0 105.12389,20.672159,0 105.123716,20.672199,0 105.123291,20.672218,0 105.122887,20.672282,0 105.122493,20.672411,0 105.1219,20.672632,0 105.121737,20.672681,0 105.121549,20.672696,0 105.121436,20.672678,0 105.121324,20.672625,0 105.121148,20.672512,0 105.120577,20.672086,0 105.120194,20.67179,0 105.118924,20.67081,0 105.118212,20.670442,0 105.117822,20.670336,0 105.117659,20.670331,0 105.115857,20.670414,0 105.113777,20.670553,0 105.112565,20.670661,0 105.112179,20.670713,0 105.111966,20.67076,0 105.111775,20.670827,0 105.111079,20.67125,0 105.110893,20.671332,0 105.110745,20.671378,0 105.110619,20.671398,0 105.110134,20.671504,0 105.110007,20.671544,0 105.109867,20.671623,0 105.109631,20.671809,0 105.109135,20.672199,0 105.108857,20.672326,0 105.10872,20.672359,0 105.108594,20.67238,0 105.108411,20.6724,0 105.108218,20.672393,0 105.107245,20.672174,0 105.107101,20.672176,0 105.106975,20.672183,0 105.106868,20.672199,0 105.106762,20.672226,0 105.106605,20.672297,0 105.105118,20.673346,0 105.104855,20.673604,0 105.104597,20.673929,0 105.103683,20.675579,0 105.103656,20.675695,0 105.103658,20.67578,0 105.103689,20.675851,0 105.104036,20.676436,0 105.10409,20.676557,0 105.104128,20.676744,0 105.104147,20.676917,0 105.104135,20.677008,0 105.104104,20.677083,0 105.104058,20.677166,0 105.104002,20.677235,0 105.103539,20.677595,0 105.103016,20.677979,0 105.102782,20.678152,0 105.102662,20.67823,0 105.102489,20.678299,0 105.102358,20.678307,0 105.102221,20.678289,0 105.102058,20.678239,0 105.10155,20.67784,0 105.101467,20.677785,0 105.10138,20.677752,0 105.101298,20.677732,0 105.101147,20.677713,0 105.100426,20.677627,0 105.100292,20.677619,0 105.100166,20.677637,0 105.100052,20.677682,0 105.099957,20.67774,0 105.099899,20.677779,0 105.099855,20.677815,0 105.099814,20.677876,0 105.099783,20.677936,0 105.099494,20.678614,0 105.099461,20.678686,0 105.099417,20.678735,0 105.099368,20.678769,0 105.099305,20.678799,0 105.098774,20.67909,0 105.098608,20.679271,0 105.098525,20.679486,0 105.098507,20.67971,0 105.098534,20.680219,0 105.098554,20.680329,0 105.098598,20.680424,0 105.098683,20.680505,0 105.0988,20.680569,0 105.098986,20.680634,0 105.099128,20.680657,0 105.099303,20.680678,0 105.099433,20.680723,0 105.099539,20.680774,0 105.099645,20.680863,0 105.099727,20.680993,0 105.099784,20.681117,0 105.099797,20.681249,0 105.099768,20.681393,0 105.099309,20.682397,0 105.099284,20.682503,0 105.099303,20.682608,0 105.099339,20.6827,0 105.099387,20.682787,0 105.099445,20.682865,0 105.099536,20.682922,0 105.099941,20.683104,0 105.100072,20.683181,0 105.100186,20.68328,0 105.100239,20.683391,0 105.100274,20.683505,0 105.100275,20.683567,0 105.100273,20.683633,0 105.100259,20.683718,0 105.100225,20.683799,0 105.09994,20.684135,0 105.099785,20.684304,0 105.099654,20.684445,0 105.099376,20.684654,0 105.098983,20.684867,0 105.098585,20.685041,0 105.098332,20.685141,0 105.098082,20.685211,0 105.097878,20.685205,0 105.097679,20.685166,0 105.096821,20.684993,0 105.096338,20.68484,0 105.096047,20.684731,0 105.095849,20.684603,0 105.095743,20.684501,0 105.095674,20.684381,0 105.095625,20.684268,0 105.095606,20.684116,0 105.095604,20.683999,0 105.095628,20.68388,0 105.09567,20.683766,0 105.095731,20.683652,0 105.095923,20.683368,0 105.09615,20.683036,0 105.096222,20.682794,0 105.096248,20.682669,0 105.096253,20.682512,0 105.096237,20.682385,0 105.096202,20.682262,0 105.096147,20.682095,0 105.096079,20.681947,0 105.095826,20.681647,0 105.095611,20.681501,0 105.095404,20.681359,0 105.094741,20.680943,0 105.094349,20.680678,0 105.093536,20.679973,0 105.093415,20.679898,0 105.093289,20.679853,0 105.092989,20.679777,0 105.091418,20.679741,0 105.091244,20.679695,0 105.091094,20.679621,0 105.090793,20.679462,0 105.090431,20.679238,0 105.090064,20.678979,0 105.089215,20.678307,0 105.089054,20.678159,0 105.088932,20.678012,0 105.088702,20.67768,0 105.088407,20.677327,0 105.088244,20.677153,0 105.088036,20.67701,0 105.087816,20.676939,0 105.087587,20.676897,0 105.087104,20.676879,0 105.086327,20.67693,0 105.086191,20.676936,0 105.086055,20.676931,0 105.085852,20.676901,0 105.085703,20.676894,0 105.085575,20.676907,0 105.085464,20.676936,0 105.085369,20.676977,0 105.085237,20.677102,0 105.08517,20.677223,0 105.085103,20.677353,0 105.084968,20.677687,0 105.084886,20.677828,0 105.084761,20.677976,0 105.084513,20.67815,0 105.084237,20.678276,0 105.083967,20.678412,0 105.083777,20.678541,0 105.083172,20.679004,0 105.082074,20.679714,0 105.081839,20.679825,0 105.081664,20.679927,0 105.081595,20.680012,0 105.081494,20.680191,0 105.081336,20.680624,0 105.08127,20.680759,0 105.08119,20.680866,0 105.080792,20.681351,0 105.0805,20.681629,0 105.080093,20.681923,0 105.079781,20.682154,0 105.079612,20.682292,0 105.079476,20.6824,0 105.079383,20.682512,0 105.079335,20.682609,0 105.079309,20.682685,0 105.079221,20.683279,0 105.079193,20.683338,0 105.079142,20.683405,0 105.078805,20.683791,0 105.078503,20.684214,0 105.078318,20.684568,0 105.078222,20.684735,0 105.078173,20.684819,0 105.078106,20.684907,0 105.078011,20.684974,0 105.077838,20.685082,0 105.077627,20.685194,0 105.07748,20.68529,0 105.07738,20.685372,0 105.077319,20.685451,0 105.077249,20.685552,0 105.077203,20.685623,0 105.077163,20.685681,0 105.077113,20.685757,0 105.077055,20.685811,0 105.076627,20.686086,0 105.076356,20.686282,0 105.076206,20.686462,0 105.076142,20.686645,0 105.076131,20.686844,0 105.076185,20.687092,0 105.076395,20.687733,0 105.076667,20.688645,0 105.076737,20.688796,0 105.076842,20.688901,0 105.076981,20.688969,0 105.077131,20.689012,0 105.077384,20.689024,0 105.078045,20.689045,0 105.07818,20.689079,0 105.078308,20.689147,0 105.078391,20.689225,0 105.078455,20.689319,0 105.078502,20.689423,0 105.078526,20.689537,0 105.078519,20.68967,0 105.078481,20.689777,0 105.078419,20.689881,0 105.078059,20.690306,0 105.077904,20.69056,0 105.07781,20.690791,0 105.077748,20.691057,0 105.077722,20.691423,0 105.07774,20.69191,0 105.077772,20.692163,0 105.077831,20.692387,0 105.077912,20.692542,0 105.078228,20.692878,0 105.078344,20.693036,0 105.078478,20.693285,0 105.078545,20.693513,0 105.07866,20.694083,0 105.078676,20.694376,0 105.07866,20.69459,0 105.078612,20.694873,0 105.078454,20.695495,0 105.07843,20.695746,0 105.078435,20.696163,0 105.078475,20.696436,0 105.078553,20.696768,0 105.078572,20.696971,0 105.078556,20.697199,0 105.078435,20.697646,0 105.0784,20.697912,0 105.078397,20.698371,0 105.078425,20.698636,0 105.078482,20.698902,0 105.07857,20.699176,0 105.078659,20.699461,0 105.078675,20.699596,0 105.078629,20.699768,0 105.078572,20.699882,0 105.078517,20.69993,0 105.078388,20.700013,0 105.07829,20.70006,0 105.078172,20.700108,0 105.078112,20.700127,0 105.078023,20.700139,0 105.077949,20.700139,0 105.077852,20.700131,0 105.077663,20.7001,0 105.077094,20.699981,0 105.076806,20.699929,0 105.076706,20.699909,0 105.076626,20.699871,0 105.076532,20.699807,0 105.076339,20.699648,0 105.076449,20.698885,0 105.076488,20.69806,0 105.076496,20.697442,0 105.076544,20.697172,0 105.076589,20.69702,0 105.076778,20.696343,0 105.076889,20.695805,0 105.076869,20.695185,0 105.076834,20.694689,0 105.076824,20.694611,0 105.076776,20.694247,0 105.076755,20.694079,0 105.07672,20.693801,0 105.076495,20.692692,0 105.076415,20.692457,0 105.076317,20.692246,0 105.076093,20.691819,0 105.07601,20.691704,0 105.075919,20.691584,0 105.075796,20.691466,0 105.075671,20.691362,0 105.075394,20.691184,0 105.075203,20.69107,0 105.075141,20.691007,0 105.075096,20.690927,0 105.075067,20.69084,0 105.07505,20.690774,0 105.075054,20.690676,0 105.075163,20.69047,0 105.075258,20.690332,0 105.075282,20.690283,0 105.075306,20.690212,0 105.075311,20.690134,0 105.075303,20.690011,0 105.075283,20.689944,0 105.07522,20.689812,0 105.074925,20.689212,0 105.074633,20.688672,0 105.074463,20.688269,0 105.074388,20.688056,0 105.074334,20.687851,0 105.074109,20.686891,0 105.074029,20.686531,0 105.074019,20.686415,0 105.074028,20.686302,0 105.074052,20.686198,0 105.074111,20.685988,0 105.074219,20.685742,0 105.074354,20.68532,0 105.074465,20.685065,0 105.074535,20.684937,0 105.07462,20.684824,0 105.074725,20.684693,0 105.075289,20.684092,0 105.075527,20.683782,0 105.075997,20.683105,0 105.076061,20.683003,0 105.076122,20.682858,0 105.076152,20.682736,0 105.076191,20.682503,0 105.076229,20.682357,0 105.076276,20.682253,0 105.076443,20.681897,0 105.076929,20.681146,0 105.077071,20.680919,0 105.077217,20.680722,0 105.077392,20.680427,0 105.077457,20.680322,0 105.077506,20.680233,0 105.077535,20.680135,0 105.077565,20.679991,0 105.077597,20.679754,0 105.077606,20.679634,0 105.077636,20.679542,0 105.077686,20.679491,0 105.077748,20.679443,0 105.07781,20.679405,0 105.078881,20.678879,0 105.078997,20.678786,0 105.079061,20.678725,0 105.079123,20.678628,0 105.079173,20.67851,0 105.07919,20.678417,0 105.079193,20.678345,0 105.079179,20.677918,0 105.079177,20.677755,0 105.079216,20.677603,0 105.079258,20.677504,0 105.079296,20.677451,0 105.079399,20.677276,0 105.079442,20.677205,0 105.079505,20.677146,0 105.079606,20.677096,0 105.079765,20.677015,0 105.079913,20.676932,0 105.080011,20.676858,0 105.080133,20.676733,0 105.080314,20.676496,0 105.080451,20.676321,0 105.080532,20.676195,0 105.080723,20.675729,0 105.080953,20.675185,0 105.081011,20.675047,0 105.081029,20.674898,0 105.081041,20.674812,0 105.081035,20.674775,0 105.081005,20.674578,0 105.080985,20.674256,0 105.080977,20.674037,0 105.081061,20.673812,0 105.081113,20.673724,0 105.081233,20.673581,0 105.08134,20.673503,0 105.081591,20.673356,0 105.081805,20.67324,0 105.082001,20.673162,0 105.082225,20.673081,0 105.082736,20.672932,0 105.082861,20.672937,0 105.083048,20.672954,0 105.083232,20.672959,0 105.083371,20.672938,0 105.083463,20.672907,0 105.083581,20.672849,0 105.083701,20.672721,0 105.083768,20.672578,0 105.083817,20.672364,0 105.083808,20.672038,0 105.083861,20.67145,0 105.083881,20.6713,0 105.083939,20.671058,0 105.084,20.670778,0 105.084065,20.670645,0 105.084167,20.670485,0 105.084316,20.670323,0 105.084614,20.669911,0 105.084793,20.669742,0 105.084832,20.66958,0 105.084831,20.669413,0 105.084798,20.669241,0 105.084742,20.669113,0 105.08463,20.668994,0 105.084491,20.66883,0 105.084428,20.668724,0 105.084407,20.668632,0 105.084377,20.668397,0 105.084395,20.66819,0 105.084425,20.668007,0 105.084666,20.667466,0 105.084768,20.667347,0 105.08476,20.667266,0 105.084727,20.667199,0 105.084391,20.666564,0 105.083751,20.665356,0 105.083663,20.66519,0 105.083507,20.664894,0 105.083435,20.664758,0 105.083097,20.664081,0 105.083071,20.663981,0 105.08307,20.663917,0 105.083095,20.663841,0 105.083119,20.663791,0 105.083614,20.663086,0 105.083652,20.663021,0 105.083675,20.662962,0 105.083687,20.662869,0 105.083673,20.662662,0 105.083543,20.662474,0 105.090317,20.662245,0 105.091709,20.662198,0 105.09241,20.6622,0 105.093019,20.662192,0 105.093293,20.662188,0 105.093453,20.662171,0 105.093538,20.662149,0 105.09361,20.662122,0 105.093713,20.662115,0 105.093861,20.662142,0 105.093713,20.662115,0 105.09361,20.662122,0 105.093538,20.662149,0 105.093453,20.662171,0 105.093293,20.662188,0 105.093019,20.662192,0 105.09241,20.6622,0 105.091709,20.662198,0 105.083543,20.662474,0 105.083261,20.661868,0 105.082982,20.661234,0 105.082818,20.66084,0 105.082762,20.660539,0 105.082808,20.660276,0 105.082809,20.660127,0 105.082836,20.660005,0 105.082856,20.659535,0 105.082852,20.659011,0 105.082811,20.658773,0 105.082775,20.658664,0 105.082694,20.658493,0 105.082438,20.658159,0 105.082284,20.658002,0 105.081985,20.657699,0 105.081697,20.657407,0 105.081541,20.657248,0 105.081261,20.656985,0 105.081248,20.656973,0 105.081138,20.656869,0 105.080819,20.656542,0 105.080589,20.656328,0 105.080529,20.656272,0 105.079927,20.655599,0 105.079785,20.655457,0 105.079411,20.654997,0 105.079296,20.654859,0 105.079267,20.654823,0 105.07911,20.654638,0 105.078765,20.654156,0 105.078536,20.653779,0 105.078411,20.653551,0 105.078066,20.652967,0 105.078002,20.652876,0 105.07737,20.652179,0 105.076842,20.651449,0 105.076471,20.650755,0 105.076288,20.650021,0 105.076231,20.649793,0 105.076231,20.649744,0 105.076249,20.649556,0 105.076435,20.648887,0 105.07652,20.648667,0 105.076563,20.648579,0 105.076655,20.648342,0 105.076735,20.648165,0 105.076814,20.64799,0 105.076858,20.647824,0 105.076869,20.64761,0 105.076837,20.647332,0 105.076807,20.64723,0 105.076756,20.646867,0 105.076668,20.646521,0 105.076595,20.646089,0 105.076536,20.645717,0 105.076523,20.645355,0 105.076533,20.645001,0 105.076595,20.644654,0 105.076675,20.644391,0 105.076806,20.644104,0 105.076852,20.644002,0 105.07693,20.643831,0 105.077005,20.643707,0 105.077072,20.643524,0 105.077106,20.64332,0 105.077106,20.64321,0 105.077087,20.643066,0 105.077058,20.642951,0 105.077028,20.642865,0 105.07695,20.642592,0 105.076887,20.642339,0 105.076838,20.642151,0 105.076767,20.641941,0 105.076692,20.641752,0 105.076494,20.641516,0 105.076357,20.641308,0 105.076328,20.641265,0 105.076187,20.641075,0 105.076034,20.640922,0 105.075884,20.640781,0 105.075817,20.640726,0 105.075625,20.640606,0 105.075369,20.640497,0 105.075169,20.640412,0 105.07489,20.640337,0 105.07457,20.640233,0 105.074225,20.640158,0 105.073865,20.640111,0 105.073603,20.640057,0 105.073325,20.639997,0 105.072872,20.63987,0 105.072729,20.639844,0 105.072431,20.639771,0 105.072287,20.639723,0 105.072077,20.639658,0 105.071799,20.639563,0 105.071624,20.639528,0 105.071573,20.639511,0 105.071361,20.639437,0 105.071172,20.639382,0 105.071119,20.639363,0 105.0708,20.639283,0 105.070571,20.639225,0 105.070229,20.639102,0 105.069936,20.638991,0 105.069711,20.638913,0 105.069298,20.638693,0 105.069089,20.638589,0 105.068886,20.638457,0 105.068518,20.638172,0 105.068194,20.637937,0 105.068129,20.637886,0 105.067882,20.637697,0 105.06776,20.637611,0 105.066838,20.636969,0 105.066555,20.636722,0 105.066318,20.63651,0 105.066135,20.636361,0 105.06588,20.636226,0 105.065445,20.636028,0 105.065178,20.635885,0 105.064986,20.635711,0 105.064844,20.63556,0 105.064697,20.635333,0 105.064624,20.635205,0 105.064539,20.635096,0 105.064216,20.634873,0 105.064029,20.63473,0 105.063729,20.634509,0 105.063545,20.634306,0 105.063253,20.633971,0 105.063039,20.633719,0 105.062839,20.633588,0 105.062171,20.633078,0 105.06206,20.632962,0 105.061752,20.63231,0 105.061671,20.632174,0 105.06155,20.631931,0 105.061415,20.631699,0 105.061261,20.631434,0 105.061172,20.631291,0 105.060985,20.630884,0 105.060853,20.63059,0 105.060708,20.630254,0 105.06055,20.629888,0 105.060483,20.629677,0 105.060447,20.629566,0 105.060424,20.629446,0 105.060423,20.629323,0 105.060445,20.629047,0 105.060445,20.62875,0 105.060421,20.628617,0 105.060333,20.628412,0 105.060116,20.628196,0 105.059976,20.628002,0 105.059533,20.627367,0 105.059088,20.626736,0 105.058949,20.626471,0 105.058592,20.625645,0 105.058466,20.625301,0 105.05834,20.62491,0 105.057712,20.623328,0 105.057452,20.622733,0 105.057294,20.622301,0 105.057227,20.622086,0 105.057146,20.621707,0 105.057119,20.621621,0 105.057015,20.621085,0 105.056996,20.620946,0 105.056959,20.620637,0 105.056934,20.620268,0 105.056916,20.6201,0 105.056874,20.619699,0 105.056857,20.61956,0 105.056814,20.619362,0 105.056784,20.61924,0 105.056729,20.619131,0 105.056627,20.619019,0 105.056454,20.618855,0 105.05533,20.617996,0 105.055046,20.61775,0 105.053981,20.616905,0 105.053721,20.616703,0 105.053403,20.616508,0 105.053296,20.616469,0 105.053203,20.616443,0 105.053143,20.616446,0 105.053018,20.616482,0 105.052876,20.616539,0 105.052456,20.616712,0 105.052216,20.616782,0 105.052076,20.61681,0 105.051921,20.616818,0 105.051756,20.616825,0 105.051528,20.616811,0 105.051279,20.616782,0 105.051149,20.616796,0 105.051054,20.616826,0 105.050928,20.616879,0 105.050806,20.616938,0 105.050541,20.617104,0 105.050297,20.617244,0 105.050195,20.617287,0 105.050107,20.617306,0 105.04999,20.617311,0 105.049853,20.617301,0 105.049674,20.617263,0 105.049561,20.617232,0 105.049312,20.617174,0 105.048844,20.617012,0 105.048601,20.616913,0 105.048367,20.616804,0 105.048043,20.616653,0 105.047254,20.616295,0 105.047092,20.616239,0 105.046688,20.616058,0 105.046274,20.61587,0 105.046133,20.615815,0 105.045984,20.615741,0 105.045898,20.615687,0 105.045835,20.615628,0 105.045771,20.615531,0 105.045742,20.615437,0 105.045731,20.615338,0 105.045744,20.615152,0 105.045763,20.614931,0 105.045807,20.614606,0 105.045832,20.614179,0 105.045809,20.614084,0 105.045751,20.613888,0 105.045669,20.613703,0 105.045599,20.613589,0 105.045483,20.613428,0 105.045354,20.613302,0 105.045264,20.613235,0 105.045181,20.613211,0 105.045055,20.613186,0 105.044973,20.613169,0 105.044926,20.613145,0 105.044859,20.613102,0 105.044801,20.613056,0 105.044712,20.612987,0 105.044632,20.61296,0 105.044516,20.612933,0 105.044384,20.612919,0 105.044281,20.612885,0 105.044178,20.612822,0 105.044124,20.61276,0 105.043993,20.612555,0 105.043931,20.612439,0 105.043761,20.612193,0 105.043696,20.612084,0 105.043648,20.611971,0 105.043628,20.611846,0 105.043636,20.611625,0 105.043716,20.610598,0 105.043751,20.610221,0 105.043775,20.610025,0 105.043824,20.609852,0 105.043904,20.609687,0 105.044041,20.609428,0 105.044164,20.609117,0 105.044274,20.60883,0 105.044341,20.608572,0 105.044384,20.60825,0 105.044382,20.607846,0 105.044374,20.60758,0 105.044363,20.607364,0 105.044328,20.607098,0 105.044261,20.606897,0 105.044054,20.606609,0 105.043535,20.606182,0 105.042518,20.605454,0 105.040814,20.60463,0 105.040219,20.604377,0 105.040093,20.604346,0 105.039889,20.604316,0 105.039589,20.604294,0 105.038501,20.604253,0 105.038223,20.604241,0 105.037915,20.604191,0 105.037585,20.604105,0 105.037215,20.603982,0 105.036056,20.603572,0 105.035658,20.60341,0 105.035412,20.603289,0 105.035211,20.603153,0 105.035017,20.603064,0 105.034863,20.603018,0 105.03397,20.602801,0 105.033745,20.602727,0 105.03365,20.602687,0 105.033582,20.602642,0 105.033508,20.602578,0 105.033331,20.602337,0 105.033211,20.602139,0 105.03262,20.601379,0 105.032312,20.601065,0 105.03212,20.600906,0 105.031819,20.600679,0 105.031643,20.600547,0 105.031597,20.600506,0 105.031555,20.60045,0 105.031531,20.600406,0 105.03149,20.60028,0 105.031455,20.600106,0 105.031411,20.600007,0 105.031354,20.599936,0 105.031295,20.599853,0 105.03085,20.599299,0 105.030791,20.599235,0 105.030698,20.599163,0 105.030305,20.598912,0 105.030229,20.598868,0 105.030079,20.598761,0 105.029903,20.598588,0 105.029839,20.598502,0 105.0298,20.598417,0 105.029759,20.59822,0 105.02973,20.59811,0 105.02953,20.597618,0 105.02931,20.597239,0 105.029166,20.596932,0 105.029094,20.596718,0 105.029068,20.5966,0 105.028689,20.595406,0 105.028513,20.594977,0 105.028468,20.594816,0 105.028392,20.59439,0 105.028372,20.594037,0 105.028378,20.593752,0 105.02841,20.593552,0 105.028541,20.59313,0 105.028589,20.592879,0 105.0286,20.592582,0 105.028584,20.592414,0 105.028526,20.592245,0 105.028483,20.592127,0 105.028416,20.591936,0 105.028379,20.591759,0 105.02837,20.59159,0 105.028414,20.591243,0 105.02862,20.590408,0 105.028637,20.590277,0 105.028634,20.590113,0 105.028606,20.589741,0 105.028526,20.589417,0 105.028496,20.589332,0 105.028424,20.58922,0 105.028321,20.589149,0 105.028219,20.58909,0 105.028079,20.589035,0 105.027945,20.588978,0 105.027846,20.588928,0 105.027739,20.588835,0 105.027655,20.588714,0 105.027591,20.588549,0 105.027508,20.588295,0 105.027476,20.588042,0 105.027476,20.587396,0 105.027444,20.586962,0 105.027406,20.586696,0 105.027328,20.586387,0 105.027074,20.585606,0 105.027054,20.5855,0 105.027053,20.585347,0 105.027059,20.584733,0 105.027036,20.584303,0 105.027006,20.583873,0 105.026996,20.583226,0 105.027014,20.582952,0 105.02717,20.582339,0 105.027285,20.581885,0 105.027387,20.581018,0 105.027449,20.580024,0 105.027454,20.579796,0 105.027427,20.579482,0 105.027347,20.57916,0 105.02725,20.578879,0 105.026988,20.578537,0 105.026698,20.578291,0 105.025373,20.577302,0 105.025228,20.577187,0 105.024856,20.576908,0 105.024287,20.576431,0 105.023978,20.576175,0 105.023753,20.575944,0 105.023546,20.575645,0 105.023332,20.575298,0 105.023023,20.574921,0 105.022742,20.574648,0 105.022514,20.574502,0 105.021964,20.574189,0 105.021827,20.574101,0 105.021528,20.573897,0 105.021268,20.573725,0 105.021013,20.573591,0 105.020769,20.573506,0 105.02066,20.573489,0 105.020537,20.573483,0 105.020407,20.573493,0 105.020279,20.573489,0 105.02021,20.573476,0 105.020157,20.573449,0 105.020114,20.573415,0 105.020074,20.573368,0 105.020057,20.573306,0 105.020049,20.573223,0 105.020048,20.573137,0 105.020047,20.573004,0 105.02005,20.572909,0 105.020044,20.57285,0 105.020029,20.572808,0 105.019983,20.572731,0 105.01994,20.572677,0 105.019909,20.57265,0 105.019851,20.572618,0 105.01977,20.572577,0 105.019704,20.572526,0 105.019646,20.572464,0 105.019601,20.572402,0 105.019562,20.572333,0 105.01948,20.572214,0 105.019406,20.572125,0 105.019339,20.572083,0 105.019275,20.57206,0 105.019133,20.572024,0 105.019041,20.571987,0 105.018946,20.571931,0 105.018859,20.571864,0 105.018755,20.571754,0 105.018615,20.571629,0 105.01847,20.571496,0 105.018406,20.571459,0 105.018213,20.571346,0 105.017997,20.571235,0 105.017627,20.571048,0 105.017498,20.571,0 105.017216,20.570933,0 105.017034,20.570911,0 105.01687,20.570902,0 105.016759,20.570869,0 105.016676,20.570842,0 105.01655,20.570773,0 105.016389,20.570624,0 105.016153,20.570438,0 105.015876,20.570221,0 105.015611,20.570082,0 105.015427,20.570012,0 105.015158,20.569936,0 105.014995,20.569883,0 105.014956,20.56988,0 105.014733,20.569878,0 105.014502,20.569873,0 105.014366,20.56986,0 105.014271,20.56983,0 105.014205,20.569792,0 105.014144,20.569752,0 105.014029,20.569659,0 105.013954,20.56957,0 105.013919,20.569523,0 105.013719,20.569184,0 105.013657,20.56905,0 105.013613,20.568928,0 105.013579,20.568849,0 105.013562,20.56878,0 105.013568,20.568664,0 105.01359,20.568539,0 105.013666,20.568264,0 105.013697,20.568179,0 105.01376,20.568067,0 105.014191,20.567607,0 105.014415,20.567389,0 105.014562,20.567298,0 105.01486,20.567128,0 105.014923,20.567105,0 105.014964,20.5671,0 105.015012,20.567101,0 105.015062,20.5671,0 105.015108,20.56709,0 105.015158,20.567056,0 105.015195,20.567026,0 105.015221,20.566974,0 105.015231,20.5669,0 105.015214,20.566807,0 105.015198,20.566751,0 105.015155,20.566674,0 105.015129,20.56662,0 105.015116,20.566591,0 105.015113,20.56656,0 105.015119,20.566501,0 105.015147,20.566434,0 105.015193,20.566358,0 105.015297,20.566205,0 105.01549,20.565973,0 105.01573,20.565757,0 105.016044,20.565484,0 105.016256,20.565281,0 105.016404,20.565113,0 105.016712,20.564767,0 105.016778,20.564717,0 105.016972,20.5646,0 105.017073,20.564555,0 105.017561,20.564431,0 105.017811,20.564342,0 105.018934,20.563794,0 105.019184,20.563699,0 105.019633,20.563579,0 105.020408,20.56343,0 105.020805,20.563295,0 105.021178,20.563097,0 105.021406,20.562933,0 105.021496,20.562836,0 105.021634,20.562687,0 105.021765,20.562504,0 105.021901,20.562229,0 105.021937,20.562127,0 105.021987,20.561997,0 105.022179,20.56141,0 105.022382,20.560894,0 105.022467,20.560761,0 105.023124,20.559976,0 105.023349,20.559707,0 105.023491,20.559452,0 105.023555,20.559266,0 105.023765,20.558027,0 105.023789,20.557722,0 105.023781,20.557403,0 105.023719,20.556863,0 105.023434,20.555535,0 105.023399,20.555138,0 105.023416,20.554874,0 105.023466,20.554613,0 105.023905,20.552963,0 105.023889,20.552656,0 105.024552,20.552157,0 105.025285,20.551326,0 105.025612,20.550914,0 105.025664,20.550488,0 105.025933,20.55005,0 105.026064,20.549814,0 105.026057,20.549238,0 105.026293,20.549133,0 105.026999,20.54929,0 105.02742,20.549238,0 105.02734,20.548852,0 105.027425,20.548616,0 105.02768,20.548518,0 105.027922,20.548269,0 105.028132,20.547981,0 105.027981,20.547693,0 105.027667,20.54751,0 105.027628,20.547268,0 105.027746,20.547006,0 105.027811,20.546797,0 105.027746,20.546574,0 105.027582,20.546325,0 105.027693,20.545926,0 105.02787,20.545494,0 105.027935,20.545154,0 105.028407,20.544787,0 105.029408,20.544244,0 105.030429,20.543884,0 105.030678,20.543878,0 105.031031,20.544218,0 105.031378,20.544584,0 105.031732,20.544689,0 105.032196,20.544565,0 105.032897,20.544447,0 105.03342,20.544552,0 105.034075,20.544598,0 105.034801,20.54443,0 105.034899,20.544382,0 105.034994,20.544289,0 105.035039,20.544145,0 105.035034,20.544008,0 105.035067,20.543843,0 105.035119,20.54376,0 105.035241,20.543663,0 105.035402,20.543645,0 105.035529,20.543701,0 105.035661,20.543872,0 105.035869,20.544243,0 105.036071,20.544388,0 105.036318,20.544444,0 105.03642,20.544405,0 105.036492,20.544318,0 105.036588,20.544015,0 105.036714,20.543686,0 105.036797,20.543603,0 105.036886,20.543525,0 105.037033,20.543498,0 105.037338,20.543624,0 105.037467,20.543603,0 105.037562,20.543496,0 105.03757,20.543371,0 105.037546,20.543248,0 105.037527,20.54307,0 105.037622,20.542863,0 105.037745,20.542645,0 105.03774,20.542333,0 105.037734,20.541946,0 105.037635,20.541659,0 105.037498,20.541227,0 105.037517,20.541057,0 105.037542,20.540946,0 105.037595,20.540907,0 105.037641,20.540885,0 105.037722,20.540858,0 105.037833,20.540878,0 105.038067,20.541122,0 105.038578,20.541685,0 105.038997,20.541921,0 105.039402,20.54213,0 105.039664,20.541993,0 105.039651,20.541659,0 105.039586,20.541299,0 105.039592,20.541004,0 105.039926,20.54071,0 105.040574,20.540481,0 105.041294,20.540448,0 105.041883,20.540297,0 105.042106,20.540068,0 105.042354,20.539918,0 105.04274,20.540121,0 105.04314,20.540062,0 105.043827,20.539911,0 105.044233,20.539721,0 105.044566,20.539322,0 105.044658,20.539087,0 105.044619,20.538825,0 105.044619,20.538615,0 105.0449,20.53821,0 105.045031,20.537961,0 105.044933,20.537588,0 105.044926,20.537306,0 105.04526,20.537149,0 105.046078,20.537136,0 105.046451,20.537077,0 105.046563,20.536796,0 105.046451,20.536344,0 105.04639,20.536086,0 105.046301,20.535781,0 105.046353,20.535369,0 105.046615,20.535311,0 105.047217,20.535179,0 105.048232,20.535199,0 105.048552,20.535487,0 105.048827,20.535729,0 105.049403,20.535539,0 105.049717,20.535487,0 105.050163,20.535565,0 105.050581,20.535454,0 105.050752,20.535205,0 105.050752,20.534656,0 105.050686,20.534165,0 105.050738,20.533707,0 105.051013,20.533648,0 105.051125,20.533792,0 105.051223,20.534125,0 105.0514,20.534361,0 105.051786,20.534309,0 105.052198,20.53423,0 105.05261,20.534282,0 105.052951,20.534289,0 105.053147,20.534165,0 105.053559,20.53387,0 105.054031,20.533615,0 105.054423,20.53353,0 105.054986,20.533582,0 105.055353,20.533733,0 105.056007,20.534106,0 105.0564,20.533929,0 105.056662,20.533674,0 105.056969,20.533549,0 105.057146,20.533517,0 105.057276,20.533337,0 105.057349,20.533235,0 105.057598,20.533032,0 105.058043,20.533242,0 105.05839,20.533432,0 105.058717,20.533582,0 105.05928,20.533811,0 105.05943,20.534026,0 105.059509,20.534138,0 105.059725,20.534276,0 105.060019,20.534282,0 105.060301,20.534106,0 105.060425,20.533903,0 105.060444,20.533704,0 105.060487,20.533142,0 105.060798,20.532458,0 105.060809,20.531856,0 105.060392,20.531253,0 105.060274,20.530605,0 105.060583,20.530489,0 105.061109,20.530831,0 105.061656,20.53128,0 105.061967,20.531293,0 105.062665,20.531313,0 105.062857,20.53115,0 105.062504,20.530479,0 105.062346,20.529032,0 105.06208,20.527706,0 105.061683,20.527445,0 105.061072,20.527364,0 105.061029,20.527083,0 105.061318,20.526731,0 105.061737,20.526621,0 105.062295,20.525958,0 105.062568,20.525556,0 105.06282,20.525606,0 105.063089,20.526219,0 105.063244,20.52634,0 105.063622,20.526155,0 105.064049,20.525681,0 105.064242,20.525646,0 105.064403,20.526028,0 105.064998,20.526129,0 105.065084,20.526445,0 105.064043,20.526988,0 105.064215,20.527686,0 105.064529,20.527909,0 105.064929,20.527972,0 105.065352,20.528158,0 105.065712,20.528409,0 105.066028,20.528313,0 105.066731,20.527385,0 105.067321,20.527337,0 105.067713,20.527646,0 105.067922,20.52759,0 105.068195,20.525978,0 105.068249,20.525445,0 105.068217,20.524852,0 105.06782,20.524491,0 105.068464,20.523687,0 105.068077,20.522662,0 105.068185,20.522451,0 105.068775,20.522632,0 105.06915,20.52231,0 105.069182,20.521798,0 105.069644,20.521637,0 105.070985,20.522461,0 105.071629,20.52221,0 105.071875,20.521396,0 105.072165,20.521557,0 105.072079,20.522873,0 105.073495,20.522682,0 105.074171,20.522994,0 105.074343,20.523516,0 105.072938,20.524189,0 105.073141,20.524641,0 105.07356,20.524722,0 105.074064,20.524641,0 105.074418,20.524893,0 105.075083,20.524621,0 105.075631,20.524682,0 105.075856,20.52423,0 105.076285,20.524079,0 105.076854,20.524209,0 105.077208,20.524109,0 105.07769,20.523546,0 105.077933,20.5234,0 105.078165,20.523357,0 105.078336,20.523305,0 105.078439,20.523199,0 105.078484,20.523071,0 105.078445,20.522713,0 105.078559,20.522264,0 105.078494,20.522139,0 105.078381,20.52204,0 105.077982,20.522028,0 105.077889,20.521968,0 105.07786,20.521791,0 105.07791,20.521372,0 105.077865,20.521221,0 105.07763,20.52104,0 105.07757,20.520918,0 105.077548,20.520818,0 105.077627,20.52056,0 105.077631,20.520346,0 105.07736,20.519693,0 105.077347,20.519547,0 105.0776,20.519397,0 105.077719,20.519231,0 105.07785,20.518568,0 105.07776,20.518155,0 105.077637,20.517935,0 105.077427,20.517779,0 105.077293,20.517664,0 105.077247,20.517536,0 105.077337,20.516956,0 105.077218,20.516628,0 105.0771,20.516311,0 105.0769,20.516078,0 105.076912,20.515956,0 105.077058,20.515834,0 105.077333,20.515713,0 105.077538,20.515716,0 105.078035,20.515964,0 105.078216,20.51598,0 105.078449,20.515915,0 105.078679,20.515813,0 105.07879,20.515707,0 105.078892,20.515659,0 105.079043,20.515653,0 105.079173,20.515725,0 105.07945,20.515996,0 105.079594,20.516103,0 105.079732,20.516135,0 105.079858,20.516131,0 105.079997,20.516063,0 105.080104,20.515921,0 105.080169,20.515704,0 105.080298,20.515528,0 105.080627,20.515445,0 105.081025,20.515489,0 105.081413,20.515468,0 105.081485,20.515386,0 105.081571,20.515289,0 105.081808,20.514563,0 105.08181,20.514443,0 105.081679,20.514185,0 105.081481,20.513958,0 105.081427,20.513817,0 105.081574,20.513004,0 105.081681,20.512866,0 105.081754,20.512854,0 105.081865,20.512843,0 105.081965,20.512907,0 105.08213,20.51306,0 105.082315,20.513275,0 105.082531,20.513424,0 105.082719,20.513434,0 105.083173,20.513274,0 105.083286,20.513187,0 105.083334,20.513033,0 105.083328,20.512824,0 105.083247,20.512205,0 105.083541,20.511129,0 105.083569,20.510957,0 105.08349,20.510765,0 105.083295,20.510555,0 105.083145,20.510475,0 105.082859,20.51039,0 105.082727,20.510318,0 105.082653,20.510184,0 105.082644,20.510057,0 105.082741,20.509871,0 105.082971,20.509651,0 105.08301,20.509536,0 105.08299,20.509374,0 105.08279,20.509075,0 105.082768,20.508944,0 105.082879,20.508757,0 105.083151,20.508524,0 105.083336,20.508441,0 105.083605,20.508459,0 105.084064,20.508555,0 105.084677,20.508744,0 105.084837,20.508716,0 105.084934,20.508625,0 105.085288,20.508014,0 105.085392,20.507826,0 105.085475,20.507537,0 105.085631,20.507276,0 105.085722,20.507197,0 105.086088,20.507006,0 105.086324,20.50693,0 105.086963,20.506844,0 105.087119,20.506704,0 105.0872,20.506488,0 105.087204,20.506186,0 105.087094,20.50596,0 105.086856,20.505704,0 105.086747,20.505487,0 105.086832,20.505281,0 105.086971,20.505093,0 105.087296,20.504746,0 105.087647,20.504203,0 105.088827,20.504434,0 105.08976,20.504293,0 105.090093,20.503891,0 105.092046,20.504545,0 105.093022,20.504685,0 105.093719,20.504273,0 105.09395,20.503987,0 105.093695,20.503463,0 105.093548,20.502977,0 105.093623,20.502404,0 105.093934,20.502183,0 105.093955,20.501771,0 105.094824,20.501339,0 105.095127,20.501189,0 105.095842,20.501412,0 105.096165,20.501471,0 105.097281,20.501259,0 105.097925,20.500756,0 105.098107,20.49951,0 105.09785,20.498475,0 105.099277,20.498425,0 105.100393,20.499007,0 105.100629,20.498696,0 105.100393,20.497741,0 105.099888,20.497098,0 105.100017,20.495932,0 105.100457,20.49548,0 105.100429,20.494974,0 105.101079,20.494686,0 105.101498,20.493721,0 105.102077,20.494043,0 105.102463,20.495068,0 105.103162,20.495689,0 105.103521,20.495601,0 105.103525,20.495038,0 105.104137,20.494465,0 105.104319,20.49342,0 105.104985,20.492998,0 105.105317,20.493209,0 105.105188,20.493601,0 105.105789,20.494927,0 105.10624,20.494867,0 105.106787,20.494284,0 105.107205,20.493249,0 105.10713,20.492187,0 105.107181,20.491965,0 105.107266,20.491812,0 105.107387,20.491592,0 105.107529,20.491557,0 105.107756,20.491683,0 105.108024,20.492264,0 105.10814,20.492714,0 105.108364,20.492904,0 105.108966,20.493287,0 105.108975,20.493397,0 105.108859,20.49362,0 105.108859,20.493715,0 105.108933,20.493892,0 105.109013,20.493973,0 105.109148,20.494005,0 105.109585,20.493928,0 105.109844,20.493938,0 105.11052,20.494043,0 105.110748,20.493937,0 105.110887,20.493624,0 105.111076,20.49283,0 105.111084,20.492606,0 105.111163,20.492415,0 105.111755,20.491762,0 105.111941,20.491749,0 105.112239,20.491789,0 105.112707,20.491712,0 105.112847,20.491633,0 105.112903,20.49155,0 105.11289,20.491448,0 105.112771,20.49117,0 105.112494,20.490901,0 105.112059,20.490701,0 105.111976,20.490573,0 105.112005,20.490343,0 105.112062,20.490114,0 105.112236,20.489942,0 105.112447,20.489887,0 105.112619,20.489892,0 105.112792,20.489982,0 105.113108,20.490189,0 105.11341,20.490502,0 105.113628,20.490623,0 105.114127,20.490732,0 105.114272,20.490726,0 105.114367,20.490674,0 105.114435,20.490579,0 105.114494,20.490445,0 105.114462,20.490215,0 105.11436,20.489978,0 105.114061,20.489682,0 105.114008,20.48952,0 105.114056,20.489245,0 105.114231,20.488816,0 105.114252,20.488665,0 105.114224,20.488442,0 105.114194,20.488189,0 105.114219,20.48789,0 105.114166,20.487732,0 105.114059,20.487657,0 105.113535,20.487488,0 105.113241,20.487363,0 105.113079,20.487339,0 105.112933,20.487384,0 105.112799,20.487436,0 105.112684,20.487556,0 105.112471,20.487818,0 105.112392,20.487836,0 105.112199,20.487795,0 105.112021,20.487819,0 105.111879,20.487887,0 105.111768,20.488004,0 105.111673,20.488145,0 105.111599,20.488314,0 105.111511,20.488348,0 105.111391,20.488316,0 105.111315,20.488194,0 105.1112,20.487964,0 105.11114,20.487718,0 105.111232,20.487501,0 105.111691,20.487011,0 105.111717,20.486799,0 105.111629,20.486623,0 105.111036,20.486033,0 105.111015,20.485704,0 105.111131,20.485528,0 105.111248,20.485459,0 105.111421,20.485504,0 105.112301,20.485975,0 105.112487,20.485973,0 105.112578,20.485903,0 105.112624,20.485801,0 105.112671,20.485481,0 105.112833,20.48523,0 105.114321,20.484539,0 105.11454,20.48435,0 105.114641,20.484164,0 105.114569,20.483961,0 105.114111,20.483397,0 105.113816,20.482994,0 105.113576,20.482531,0 105.113512,20.482143,0 105.113466,20.481463,0 105.113554,20.481138,0 105.113677,20.480908,0 105.113902,20.480625,0 105.11418,20.480172,0 105.114407,20.480014,0 105.114783,20.479941,0 105.115316,20.479952,0 105.116697,20.479637,0 105.116979,20.47947,0 105.117246,20.479241,0 105.117503,20.479048,0 105.117773,20.478948,0 105.118058,20.478935,0 105.118203,20.478833,0 105.11854,20.478389,0 105.118389,20.477673,0 105.118297,20.477489,0 105.118159,20.477339,0 105.117785,20.477098,0 105.117743,20.476997,0 105.117767,20.476865,0 105.118078,20.476481,0 105.118102,20.476325,0 105.118031,20.476092,0 105.11787,20.475847,0 105.117838,20.475725,0 105.117856,20.475547,0 105.117971,20.47541,0 105.118298,20.475195,0 105.118962,20.474867,0 105.119077,20.474743,0 105.119112,20.474544,0 105.118664,20.472733,0 105.118679,20.472573,0 105.118775,20.472461,0 105.119507,20.471937,0 105.1196,20.471798,0 105.119549,20.470408,0 105.11945,20.470246,0 105.119025,20.469893,0 105.118954,20.469749,0 105.118959,20.469594,0 105.119066,20.469488,0 105.11958,20.469252,0 105.120133,20.468884,0 105.120724,20.46854,0 105.121065,20.468322,0 105.121216,20.468188,0 105.122034,20.467088,0 105.122765,20.466592,0 105.123158,20.466517,0 105.123659,20.466436,0 105.12556,20.46613,0 105.12615,20.465556,0 105.126687,20.464952,0 105.127696,20.463943,0 105.128114,20.46352,0 105.128508,20.463255,0 105.129398,20.462843,0 105.129577,20.462854,0 105.129707,20.462946,0 105.129941,20.463474,0 105.130295,20.463661,0 105.130954,20.46391,0 105.131279,20.463852,0 105.131474,20.463731,0 105.131629,20.463506,0 105.131655,20.462525,0 105.131807,20.462272,0 105.132176,20.461878,0 105.132519,20.461673,0 105.132593,20.46152,0 105.132555,20.46136,0 105.132412,20.461149,0 105.132131,20.460723,0 105.132114,20.46046,0 105.13228,20.460274,0 105.133172,20.459897,0 105.133669,20.459448,0 105.134067,20.459391,0 105.134258,20.459288,0 105.134413,20.459091,0 105.134633,20.459003,0 105.135204,20.458943,0 105.135676,20.45872,0 105.13583,20.458543,0 105.1359,20.457503,0 105.13612,20.457116,0 105.136556,20.456375,0 105.136636,20.455939,0 105.136703,20.455497,0 105.137194,20.454834,0 105.137342,20.45472,0 105.138892,20.454506,0 105.139786,20.454146,0 105.140466,20.454301,0 105.140725,20.454278,0 105.141342,20.454148,0 105.141354,20.45414,0 105.141409,20.454043,0 105.141622,20.453668,0 105.141786,20.453282,0 105.14199,20.452992,0 105.142349,20.452854,0 105.143025,20.452759,0 105.143137,20.452721,0 105.143555,20.452481,0 105.144064,20.452426,0 105.144108,20.452421,0 105.144466,20.452479,0 105.144994,20.452409,0 105.145431,20.45219,0 105.145716,20.451898,0 105.145859,20.45167,0 105.146382,20.450701,0 105.146429,20.450442,0 105.146457,20.44979,0 105.146626,20.449144,0 105.146478,20.448163,0 105.146531,20.447952,0 105.146983,20.447636,0 105.147196,20.447434,0 105.147383,20.447187,0 105.147516,20.446961,0 105.147741,20.446765,0 105.148245,20.446614,0 105.148444,20.446298,0 105.148564,20.44595,0 105.148616,20.4458,0 105.148836,20.445609,0 105.149361,20.445287,0 105.149544,20.445071,0 105.14956,20.445014,0 105.149668,20.445072,0 105.14975,20.445238,0 105.149653,20.445554,0 105.149505,20.445837,0 105.149605,20.446165,0 105.149608,20.446198,0 105.149624,20.446467,0 105.149856,20.446705,0 105.149838,20.447167,0 105.149601,20.447723,0 105.150002,20.447702,0 105.150261,20.447572,0 105.15053,20.447456,0 105.150752,20.447515,0 105.150847,20.447596,0 105.151,20.447659,0 105.151119,20.447678,0 105.151314,20.44771,0 105.151529,20.448088,0 105.151499,20.448224,0 105.151624,20.448261,0 105.151768,20.448244,0 105.151977,20.448199,0 105.152225,20.448314,0 105.152377,20.448378,0 105.15246,20.44842,0 105.152596,20.448364,0 105.152686,20.44834,0 105.152821,20.448356,0 105.153027,20.448379,0 105.153096,20.448355,0 105.153176,20.448327,0 105.153298,20.448313,0 105.153515,20.448384,0 105.153656,20.448405,0 105.15377,20.448399,0 105.153909,20.448334,0 105.15412,20.448261,0 105.154306,20.448213,0 105.154554,20.448204,0 105.154853,20.448213,0 105.155082,20.448174,0 105.155236,20.448174,0 105.155493,20.448239,0 105.155838,20.448292,0 105.155988,20.448217,0 105.156156,20.448147,0 105.156361,20.448038,0 105.156459,20.447907,0 105.156721,20.447777,0 105.156858,20.44774,0 105.157002,20.447746,0 105.157259,20.447642,0 105.157373,20.447662,0 105.157909,20.447469,0 105.15823,20.4476,0 105.158311,20.447819,0 105.158386,20.447964,0 105.158413,20.448154,0 105.158481,20.448319,0 105.158575,20.448427,0 105.158715,20.448501,0 105.158802,20.448731,0 105.158895,20.44892,0 105.159109,20.448979,0 105.159312,20.448987,0 105.159551,20.448894,0 105.159805,20.44886,0 105.159987,20.448877,0 105.160234,20.448982,0 105.16032,20.449065,0 105.160336,20.449123,0 105.160481,20.449284,0 105.160513,20.449342,0 105.160497,20.449409,0 105.160535,20.449457,0 105.160666,20.449482,0 105.160787,20.449543,0 105.160865,20.449621,0 105.16095,20.44961,0 105.161068,20.449575,0 105.16113,20.449505,0 105.161372,20.449384,0 105.161449,20.449387,0 105.16149,20.449455,0 105.161583,20.449507,0 105.161747,20.44953,0 105.161892,20.449507,0 105.16197,20.449533,0 105.162082,20.449563,0 105.162271,20.449514,0 105.16241,20.449582,0 105.162448,20.449627,0 105.162537,20.449661,0 105.162666,20.44981,0 105.162742,20.450085,0 105.162772,20.450142,0 105.162776,20.450246,0 105.162935,20.450308,0 105.163094,20.450266,0 105.163263,20.45033,0 105.16341,20.450386,0 105.163928,20.450597,0 105.164417,20.450695,0 105.164453,20.451056,0 105.164491,20.451176,0 105.164582,20.451322,0 105.164657,20.451357,0 105.164791,20.451312,0 105.164999,20.451242,0 105.165238,20.451303,0 105.165388,20.451416,0 105.165494,20.45158,0 105.165658,20.451585,0 105.1658,20.451517,0 105.165902,20.451407,0 105.16613,20.451309,0 105.166265,20.451121,0 105.166506,20.450786,0 105.166764,20.450817,0 105.167053,20.450532,0 105.167361,20.450356,0 105.167755,20.450322,0 105.168183,20.450594,0 105.168499,20.450712,0 105.168737,20.45092,0 105.168911,20.451172,0 105.169053,20.451172,0 105.169274,20.451616,0 105.169318,20.451796,0 105.169319,20.4518,0 105.169527,20.451942,0 105.169923,20.45209,0 105.170086,20.452007,0 105.170301,20.451817,0 105.170555,20.451705,0 105.170856,20.45173,0 105.171093,20.451868,0 105.171777,20.452061,0 105.172594,20.452025,0 105.173114,20.452004,0 105.173452,20.45199,0 105.173622,20.45197,0 105.173765,20.451935,0 105.174447,20.451735,0 105.175079,20.451557,0 105.175306,20.451444,0 105.175538,20.451409,0 105.176025,20.451153,0 105.176322,20.450813,0 105.176803,20.450505,0 105.177361,20.449983,0 105.177474,20.449496,0 105.177879,20.449097,0 105.178326,20.448147,0 105.178383,20.448096,0 105.178923,20.447615,0 105.179072,20.447451,0 105.179313,20.446963,0 105.179686,20.446659,0 105.180728,20.446071,0 105.182499,20.446973,0 105.182696,20.447289,0 105.182758,20.447404,0 105.18284,20.447673,0 105.183667,20.449641,0 105.184451,20.450156,0 105.18521,20.450369,0 105.185698,20.450141,0 105.186772,20.450066,0 105.187419,20.450605,0 105.187877,20.451567,0 105.187347,20.452474,0 105.186739,20.452947,0 105.185296,20.4545,0 105.185253,20.455054,0 105.18515,20.456362,0 105.184904,20.456744,0 105.184687,20.457563,0 105.184672,20.457587,0 105.184644,20.457616,0 105.184621,20.457632,0 105.18382,20.458138,0 105.183674,20.458225,0 105.183454,20.458528,0 105.182849,20.459159,0 105.18279,20.459453,0 105.182774,20.45963,0 105.182904,20.460141,0 105.182922,20.46049,0 105.182867,20.460844,0 105.182434,20.461233,0 105.182217,20.461615,0 105.18222,20.462085,0 105.1821,20.462435,0 105.181612,20.462895,0 105.181463,20.463069,0 105.181245,20.463651,0 105.18126,20.463878,0 105.181321,20.464027,0 105.181465,20.464302,0 105.181492,20.46452,0 105.181359,20.464987,0 105.181257,20.4654,0 105.181221,20.465587,0 105.181083,20.466077,0 105.18106,20.466253,0 105.181104,20.46645,0 105.181129,20.466522,0 105.18117,20.46658,0 105.181209,20.466615,0 105.181433,20.466752,0 105.181487,20.466803,0 105.181535,20.466863,0 105.181586,20.466944,0 105.181605,20.466985,0 105.18165,20.467144,0 105.181655,20.467212,0 105.181655,20.467541,0 105.181651,20.467604,0 105.181659,20.467653,0 105.18168,20.467704,0 105.18187,20.468084,0 105.181982,20.468282,0 105.182006,20.46835,0 105.182021,20.468413,0 105.182024,20.468436,0 105.182028,20.468502,0 105.181996,20.468752,0 105.181899,20.468998,0 105.181802,20.4691,0 105.181292,20.469323,0 105.180976,20.469501,0 105.180621,20.469622,0 105.180439,20.469776,0 105.18012,20.47008,0 105.179998,20.470264,0 105.179671,20.470981,0 105.179397,20.471549,0 105.179368,20.471607,0 105.17936,20.471665,0 105.179006,20.47229,0 105.178797,20.472995,0 105.178781,20.473034,0 105.17879,20.473103,0 105.17888,20.473612,0 105.178888,20.473647,0 105.17894,20.474003,0 105.179118,20.474671,0 105.1791,20.474815,0 105.178813,20.475133,0 105.178647,20.475371,0 105.178536,20.475577,0 105.178127,20.47612,0 105.177503,20.476799,0 105.177182,20.47715,0 105.176998,20.477336,0 105.176893,20.477545,0 105.176801,20.477909,0 105.176728,20.478072,0 105.176362,20.478301,0 105.176066,20.478392,0 105.175797,20.478569,0 105.175718,20.478899,0 105.175658,20.479209,0 105.175696,20.479371,0 105.175904,20.479626,0 105.175981,20.479914,0 105.176013,20.480147,0 105.176002,20.480253,0 105.175873,20.480512,0 105.175809,20.480657,0 105.175717,20.480714,0 105.175599,20.480724,0 105.175096,20.480679,0 105.174844,20.481029,0 105.174689,20.48133,0 105.174617,20.48167,0 105.174672,20.48197,0 105.174707,20.482223,0 105.174597,20.482847,0 105.174498,20.483074,0 105.174312,20.48319,0 105.173919,20.483281,0 105.173529,20.483632,0 105.173233,20.483766,0 105.173136,20.483985,0 105.173095,20.484262,0 105.172904,20.484565,0 105.172816,20.484909,0 105.172859,20.48541,0 105.172742,20.485773,0 105.172621,20.486097,0 105.172407,20.486321,0 105.172188,20.486482,0 105.172113,20.486875,0 105.172037,20.487326,0 105.17192,20.487542,0 105.171625,20.487857,0 105.171562,20.487935,0 105.171291,20.488304,0 105.171121,20.488572,0 105.171079,20.488618,0 105.17095,20.488765,0 105.170836,20.488821,0 105.170794,20.488761,0 105.170726,20.488669,0 105.170577,20.488428,0 105.170445,20.488124,0 105.170364,20.48797,0 105.170297,20.487875,0 105.170201,20.487798,0 105.170095,20.48772,0 105.169902,20.487593,0 105.169668,20.487412,0 105.169484,20.48726,0 105.169311,20.487116,0 105.169117,20.486964,0 105.169025,20.486895,0</coordinates></LineString></Placemark>
  <Placemark><name>1. Hà Nội → Tourism Hub Đồi Dùng &amp; Bữa trưa Cỗ Lá Mường</name><description>Ngày 1 — Sáng/Trưa — Xe xuất phát từ Hà Nội, đến Tourism Hub Đồi Dùng ~1,5 – 2 tiếng. HDV bản địa đón bằng ly trà thảo dược. Mâm Cỗ Lá Mường bày trên lá chuối tươi, nguyên liệu 100% địa phương.</description><styleUrl>#stop</styleUrl><Point><coordinates>105.6897842,20.6224767,0</coordinates></Point></Placemark>
  <Placemark><name>2. Trải nghiệm văn hoá Mường</name><description>Ngày 1 — Chiều — Đạp xe bản Mường; Chùa Phú Cốc (cây đa hơn 400 năm); Hồ Baibóo (bè tre, trang phục Mường); vườn sim cổ &amp; rượu sim OCOP; Thung Cánh (mô hình 5 KHÔNG, trồng một cây nhỏ làm kỷ niệm, nhận Chứng nhận trồng cây).</description><styleUrl>#stopact</styleUrl><Point><coordinates>105.6897842,20.6224767,0</coordinates></Point></Placemark>
  <Placemark><name>3. Lửa trại &amp; nghỉ homestay cộng đồng</name><description>Ngày 1 — Tối — Bữa tối tại nhà dân, quây quần bên lửa trại — tiếng cồng chiêng Mường vang lên trong đêm, giao lưu văn nghệ. Nghỉ đêm tại homestay cộng đồng Mường Cốc.</description><styleUrl>#stop</styleUrl><Point><coordinates>105.6897842,20.6224767,0</coordinates></Point></Placemark>
  <Placemark><name>4. Mường Cốc → Mai Châu (Hoà Bình ~70 km)</name><description>Ngày 2 — Sau bữa sáng, xe đưa bạn lên Mai Châu — thung lũng Thái trắng. Khám phá Bản Lác (nhà sàn cổ truyền, dệt thổ cẩm), ruộng bậc thang đổi màu theo mùa, văn hoá Thái trắng. Bữa trưa cơm lam, gà đồi, rau rừng tại nhà dân bản Lác. Tối nghỉ nhà sàn bản Lác, giao lưu văn nghệ Thái (theo yêu cầu).</description><styleUrl>#stop</styleUrl><Point><coordinates>105.0903,20.6618,0</coordinates></Point></Placemark>
  <Placemark><name>5. Mai Châu → Pù Luông (Thanh Hoá ~80 km)</name><description>Ngày 3 — Xe vượt đèo sang Khu Bảo tồn Thiên nhiên Pù Luông. Trekking ruộng bậc thang (dễ đến trung bình), ngắm guồng nước truyền thống, dạo bản làng người Thái. Tối nghỉ dưỡng resort / nhà sàn sinh thái Pù Luông với view ruộng bậc thang.</description><styleUrl>#stop</styleUrl><Point><coordinates>105.0903,20.6618,0</coordinates></Point></Placemark>
  <Placemark><name>6. Pù Luông → Hà Nội</name><description>Ngày 4 (tùy chọn) — Phương án A (4 ngày): sáng trekking thêm, tắm suối tự nhiên, chiều tối về Hà Nội. Phương án B (3 ngày): sáng sớm Ngày 3 ở Pù Luông, khởi hành về Hà Nội trưa – chiều. Về theo đường Hồ Chí Minh qua Hoà Bình.</description><styleUrl>#stop</styleUrl><Point><coordinates>105.1658,20.4839,0</coordinates></Point></Placemark>
 </Document>
</kml>