<?xml version="1.0" encoding="UTF-8"?>
<kml xmlns="http://www.opengis.net/kml/2.2">
 <Document>
  <name>Hà Nội · Mường Cốc · Rừng Cúc Phương</name>
  <description>Tuyến tự động dựng bằng OSRM (cycling). 7 điểm dừng. Mường Cốc → Cúc Phương ~55 km. CẢNH BÁO: route có thể bám đường lớn (Hồ Chí Minh) — kiểm tra và chỉnh trong My Maps để bám đường dân sinh.</description>
  <Style id="stop"><IconStyle><color>ff3ba300</color><scale>1.1</scale><Icon><href>http://maps.google.com/mapfiles/kml/paddle/grn-blank.png</href></Icon></IconStyle></Style>
  <Style id="stopact"><IconStyle><color>ff0a78ff</color><scale>1.0</scale><Icon><href>http://maps.google.com/mapfiles/kml/paddle/orange-blank.png</href></Icon></IconStyle></Style>
  <Style id="route"><LineStyle><color>ff2f6a0a</color><width>5</width></LineStyle></Style>
  <Placemark><name>Tuyến Hà Nội · Mường Cốc · Rừng Cúc Phương (OSRM cycling — kiểm tra tránh đường HCM)</name><styleUrl>#route</styleUrl><LineString><tessellate>1</tessellate><coordinates>105.690182,20.622672,0 105.690351,20.62237,0 105.6913,20.620788,0 105.69203,20.619564,0 105.692877,20.618093,0 105.693337,20.617288,0 105.693515,20.616965,0 105.693562,20.61688,0 105.693791,20.616401,0 105.694075,20.61556,0 105.694322,20.61453,0 105.694793,20.612205,0 105.695046,20.610921,0 105.695344,20.6095,0 105.695965,20.606561,0 105.696448,20.604131,0 105.69647,20.604021,0 105.696969,20.601577,0 105.696971,20.60146,0 105.697041,20.600895,0 105.697068,20.599836,0 105.696992,20.599108,0 105.696725,20.59738,0 105.696355,20.595247,0 105.69635,20.595216,0 105.696244,20.594629,0 105.69595,20.59282,0 105.695656,20.591177,0 105.695587,20.590706,0 105.695382,20.589401,0 105.695444,20.588449,0 105.695678,20.58763,0 105.695999,20.587014,0 105.696442,20.586361,0 105.696985,20.585763,0 105.697066,20.58568,0 105.69723,20.585507,0 105.698195,20.584515,0 105.699851,20.582794,0 105.701476,20.581132,0 105.703755,20.578805,0 105.704155,20.578156,0 105.704362,20.577706,0 105.704536,20.57719,0 105.704624,20.576694,0 105.704648,20.57611,0 105.704638,20.575714,0 105.704623,20.575408,0 105.704623,20.575386,0 105.704629,20.573745,0 105.704592,20.571986,0 105.704583,20.571252,0 105.704598,20.570654,0 105.704592,20.570564,0 105.704548,20.569549,0 105.704547,20.569436,0 105.704482,20.564396,0 105.704478,20.564025,0 105.704471,20.563501,0 105.704452,20.563252,0 105.70436,20.562052,0 105.704151,20.56105,0 105.703973,20.560416,0 105.703932,20.560268,0 105.702602,20.555523,0 105.702257,20.554104,0 105.701841,20.551946,0 105.701739,20.55146,0 105.701211,20.548952,0 105.700869,20.547266,0 105.700289,20.544406,0 105.700108,20.543514,0 105.699576,20.540895,0 105.699554,20.540822,0 105.69934,20.540113,0 105.699294,20.54002,0 105.699133,20.539696,0 105.698782,20.539205,0 105.698163,20.538741,0 105.697089,20.538112,0 105.696294,20.537482,0 105.696103,20.537261,0 105.695576,20.536649,0 105.694038,20.534057,0 105.693349,20.532897,0 105.692954,20.532231,0 105.692248,20.531173,0 105.691494,20.530023,0 105.691463,20.529978,0 105.691452,20.529962,0 105.690666,20.528731,0 105.689718,20.527273,0 105.689508,20.526954,0 105.688427,20.525332,0 105.688013,20.524917,0 105.687866,20.524771,0 105.687182,20.52426,0 105.686578,20.523808,0 105.684643,20.522414,0 105.684221,20.522093,0 105.683707,20.521563,0 105.683436,20.52111,0 105.683262,20.520517,0 105.683212,20.520118,0 105.68325,20.519612,0 105.68344,20.519097,0 105.683685,20.518428,0 105.683831,20.517942,0 105.683909,20.517419,0 105.683843,20.516913,0 105.683716,20.516543,0 105.683543,20.51624,0 105.683204,20.515871,0 105.682605,20.515395,0 105.681756,20.514834,0 105.680585,20.514064,0 105.680105,20.513737,0 105.679899,20.513604,0 105.67935,20.513251,0 105.679309,20.513226,0 105.679232,20.513172,0 105.679153,20.513126,0 105.678679,20.512834,0 105.678303,20.512593,0 105.677925,20.512348,0 105.677598,20.512129,0 105.677093,20.511609,0 105.676803,20.511091,0 105.676656,20.510652,0 105.676603,20.510165,0 105.67671,20.509472,0 105.676718,20.508918,0 105.676703,20.508487,0 105.676611,20.507924,0 105.676522,20.507526,0 105.676353,20.507145,0 105.676193,20.506785,0 105.675852,20.506293,0 105.675538,20.505919,0 105.675365,20.505777,0 105.674698,20.505229,0 105.674427,20.505051,0 105.674264,20.504945,0 105.673623,20.504548,0 105.672993,20.504159,0 105.672693,20.503972,0 105.672317,20.503641,0 105.672092,20.503335,0 105.671925,20.502925,0 105.671839,20.502508,0 105.671837,20.502101,0 105.671892,20.501343,0 105.671942,20.500803,0 105.671969,20.500308,0 105.671983,20.49986,0 105.671999,20.49958,0 105.672076,20.498329,0 105.672079,20.497543,0 105.672043,20.497147,0 105.672021,20.497077,0 105.671975,20.496848,0 105.671817,20.496348,0 105.671491,20.495502,0 105.671277,20.494967,0 105.671241,20.494859,0 105.671017,20.493964,0 105.670959,20.492998,0 105.670946,20.49229,0 105.670938,20.491875,0 105.670875,20.491335,0 105.67077,20.490965,0 105.670576,20.490585,0 105.670407,20.490359,0 105.670141,20.490175,0 105.669082,20.489642,0 105.668951,20.489587,0 105.668823,20.489531,0 105.66857,20.489424,0 105.667909,20.489155,0 105.667565,20.489014,0 105.667279,20.488892,0 105.666799,20.488682,0 105.666232,20.488492,0 105.665858,20.488305,0 105.665281,20.487876,0 105.664516,20.487144,0 105.664124,20.486309,0 105.663966,20.48533,0 105.663697,20.484303,0 105.663627,20.48415,0 105.663414,20.483805,0 105.663177,20.483527,0 105.663148,20.483494,0 105.662601,20.483002,0 105.662143,20.482701,0 105.661801,20.48246,0 105.661651,20.482347,0 105.661414,20.482178,0 105.661189,20.481999,0 105.660725,20.48164,0 105.660291,20.481285,0 105.659965,20.481038,0 105.659659,20.480785,0 105.65951,20.480662,0 105.658943,20.480008,0 105.658511,20.479298,0 105.658352,20.479024,0 105.657987,20.478431,0 105.65778,20.47803,0 105.657489,20.477618,0 105.657151,20.476924,0 105.656951,20.476522,0 105.656736,20.47611,0 105.656563,20.475708,0 105.656376,20.475376,0 105.656116,20.475106,0 105.655741,20.474797,0 105.655391,20.474533,0 105.655099,20.474317,0 105.654793,20.474083,0 105.654613,20.473906,0 105.654528,20.473778,0 105.654456,20.473615,0 105.654394,20.473428,0 105.654392,20.4732,0 105.65445,20.472934,0 105.654587,20.472712,0 105.655074,20.471912,0 105.655575,20.471305,0 105.655786,20.470957,0 105.655896,20.470634,0 105.655881,20.470224,0 105.65574,20.469962,0 105.655505,20.46972,0 105.655085,20.469457,0 105.654639,20.469245,0 105.65435,20.46903,0 105.654071,20.468601,0 105.65385,20.468165,0 105.653495,20.467667,0 105.653238,20.467196,0 105.653071,20.466727,0 105.652967,20.466405,0 105.65276,20.465696,0 105.652716,20.465468,0 105.652703,20.465234,0 105.652767,20.464922,0 105.652937,20.464517,0 105.65318,20.464135,0 105.653267,20.464003,0 105.6535,20.46367,0 105.653892,20.463162,0 105.653992,20.462979,0 105.654413,20.462334,0 105.654574,20.462125,0 105.654969,20.461482,0 105.655404,20.460882,0 105.655604,20.460532,0 105.655693,20.460282,0 105.655684,20.459978,0 105.655415,20.459381,0 105.655325,20.459287,0 105.65525,20.45919,0 105.65494,20.45894,0 105.654447,20.458749,0 105.653808,20.458649,0 105.653617,20.458617,0 105.653154,20.45854,0 105.652997,20.458519,0 105.652269,20.458393,0 105.651769,20.458226,0 105.651744,20.458218,0 105.651457,20.45807,0 105.651345,20.457964,0 105.651199,20.457785,0 105.650903,20.457407,0 105.650686,20.457135,0 105.650388,20.456807,0 105.650074,20.456444,0 105.649878,20.456174,0 105.649176,20.455421,0 105.648791,20.455091,0 105.648749,20.455056,0 105.648192,20.45467,0 105.648093,20.454587,0 105.647423,20.454146,0 105.647304,20.454064,0 105.64616,20.453284,0 105.643864,20.4517,0 105.643225,20.45126,0 105.641691,20.450221,0 105.641458,20.45006,0 105.640673,20.449553,0 105.640274,20.449335,0 105.639832,20.449151,0 105.639368,20.449013,0 105.638639,20.448885,0 105.637914,20.448836,0 105.637514,20.448799,0 105.637147,20.448757,0 105.636616,20.448716,0 105.636258,20.44869,0 105.635694,20.448638,0 105.63484,20.44857,0 105.634491,20.448537,0 105.633326,20.448432,0 105.632217,20.448342,0 105.631352,20.448162,0 105.630952,20.448006,0 105.630922,20.447987,0 105.630789,20.447913,0 105.630661,20.447843,0 105.630516,20.44774,0 105.630244,20.447526,0 105.629887,20.447109,0 105.629588,20.446617,0 105.62937,20.446029,0 105.629206,20.445578,0 105.629155,20.44541,0 105.627726,20.441081,0 105.627532,20.440456,0 105.627465,20.440265,0 105.627015,20.438865,0 105.626607,20.437741,0 105.626293,20.436773,0 105.625967,20.435845,0 105.625788,20.435262,0 105.625415,20.434184,0 105.624773,20.432169,0 105.6247,20.431957,0 105.624617,20.431695,0 105.624245,20.430686,0 105.623805,20.429919,0 105.623376,20.429213,0 105.623056,20.428732,0 105.622627,20.428062,0 105.622573,20.427967,0 105.622512,20.427876,0 105.622105,20.427281,0 105.621677,20.426644,0 105.621592,20.426524,0 105.620923,20.425543,0 105.620296,20.424516,0 105.620175,20.42426,0 105.619978,20.423702,0 105.619919,20.423515,0 105.619851,20.423186,0 105.619839,20.423108,0 105.619807,20.422521,0 105.619798,20.422343,0 105.619816,20.421925,0 105.619878,20.421526,0 105.619996,20.421072,0 105.62021,20.420402,0 105.620659,20.419009,0 105.621144,20.417551,0 105.621146,20.417525,0 105.621342,20.416873,0 105.6217,20.415709,0 105.622213,20.414129,0 105.622708,20.412603,0 105.623161,20.411173,0 105.623437,20.410334,0 105.623671,20.409649,0 105.623736,20.40934,0 105.623768,20.409039,0 105.623752,20.408485,0 105.623724,20.408293,0 105.623615,20.407906,0 105.623445,20.407516,0 105.623379,20.407397,0 105.623064,20.406986,0 105.62296,20.406874,0 105.622722,20.406634,0 105.622508,20.406449,0 105.622289,20.406271,0 105.621987,20.406027,0 105.621944,20.405988,0 105.621655,20.405725,0 105.621425,20.405525,0 105.621193,20.405331,0 105.621057,20.405224,0 105.620372,20.404634,0 105.620341,20.404609,0 105.619686,20.404082,0 105.619336,20.403777,0 105.61875,20.403275,0 105.618003,20.402652,0 105.617967,20.402624,0 105.617228,20.401978,0 105.615705,20.400721,0 105.615553,20.400602,0 105.615021,20.400295,0 105.6144,20.400047,0 105.613939,20.39991,0 105.613437,20.399818,0 105.612526,20.39982,0 105.61008,20.400148,0 105.60845,20.400372,0 105.606374,20.400656,0 105.605345,20.400796,0 105.603062,20.401103,0 105.601798,20.401268,0 105.597141,20.401896,0 105.596418,20.401994,0 105.591597,20.402649,0 105.590369,20.402901,0 105.58949,20.403133,0 105.588843,20.403312,0 105.58852,20.403402,0 105.585834,20.40412,0 105.583457,20.404738,0 105.581132,20.40535,0 105.580568,20.405529,0 105.579753,20.40584,0 105.579218,20.406093,0 105.5775,20.40684,0 105.576899,20.407055,0 105.576797,20.40709,0 105.576369,20.4072,0 105.576009,20.407256,0 105.575154,20.40724,0 105.57446,20.40713,0 105.573968,20.407025,0 105.573502,20.406899,0 105.573203,20.406829,0 105.571598,20.406425,0 105.571244,20.406336,0 105.570448,20.406135,0 105.56851,20.405668,0 105.565623,20.404972,0 105.564657,20.404835,0 105.564082,20.40483,0 105.563459,20.404885,0 105.562337,20.405049,0 105.561357,20.405254,0 105.560406,20.405532,0 105.55968,20.405852,0 105.557419,20.407004,0 105.556906,20.407259,0 105.555462,20.407989,0 105.554668,20.408385,0 105.554381,20.408533,0 105.553898,20.408738,0 105.553422,20.408881,0 105.552901,20.408961,0 105.55253,20.408936,0 105.551807,20.408764,0 105.547343,20.407055,0 105.546752,20.406852,0 105.545936,20.406631,0 105.5452,20.406471,0 105.543596,20.406265,0 105.543409,20.406257,0 105.542028,20.406233,0 105.541723,20.406247,0 105.539338,20.406368,0 105.53831,20.40638,0 105.536824,20.406109,0 105.535438,20.4056,0 105.534767,20.405214,0 105.534089,20.404769,0 105.533465,20.40425,0 105.532893,20.403709,0 105.531404,20.402144,0 105.530456,20.401162,0 105.530143,20.400831,0 105.527734,20.398299,0 105.527273,20.397814,0 105.526656,20.397236,0 105.525941,20.396711,0 105.525687,20.396573,0 105.525562,20.396501,0 105.525195,20.396368,0 105.524779,20.396259,0 105.52375,20.39607,0 105.523306,20.395993,0 105.521804,20.395731,0 105.520305,20.395451,0 105.519907,20.395355,0 105.519649,20.395264,0 105.519374,20.395149,0 105.519128,20.395011,0 105.518911,20.394837,0 105.518705,20.394624,0 105.518483,20.39432,0 105.518319,20.393969,0 105.518149,20.393606,0 105.517845,20.392934,0 105.517527,20.392115,0 105.517364,20.391665,0 105.517131,20.391103,0 105.516827,20.390374,0 105.516567,20.389552,0 105.516107,20.388268,0 105.516032,20.388061,0 105.515866,20.387637,0 105.515661,20.38698,0 105.515514,20.386332,0 105.515434,20.38578,0 105.515317,20.385315,0 105.515258,20.384832,0 105.515242,20.383978,0 105.515354,20.382466,0 105.515454,20.381379,0 105.515512,20.381012,0 105.515595,20.380498,0 105.515723,20.380062,0 105.515822,20.379745,0 105.516007,20.379291,0 105.516243,20.378791,0 105.516643,20.378202,0 105.516917,20.377806,0 105.517111,20.377527,0 105.517806,20.376637,0 105.518261,20.376043,0 105.518651,20.37553,0 105.518781,20.375306,0 105.518896,20.37508,0 105.519027,20.374809,0 105.519107,20.374545,0 105.519156,20.374279,0 105.519191,20.374019,0 105.519188,20.373694,0 105.519111,20.373369,0 105.518978,20.372939,0 105.518814,20.372511,0 105.518693,20.372152,0 105.518357,20.371335,0 105.517992,20.370345,0 105.517798,20.369791,0 105.517681,20.369374,0 105.517628,20.36905,0 105.517602,20.368741,0 105.517618,20.368449,0 105.517663,20.368167,0 105.517729,20.367918,0 105.517864,20.367547,0 105.518041,20.367276,0 105.518205,20.367049,0 105.518339,20.366884,0 105.518491,20.366705,0 105.518693,20.366549,0 105.518942,20.366377,0 105.51922,20.36622,0 105.519526,20.366097,0 105.519846,20.366004,0 105.520258,20.365923,0 105.520607,20.365895,0 105.521014,20.365864,0 105.521365,20.36585,0 105.522989,20.365778,0 105.523558,20.365749,0 105.52401,20.365724,0 105.524298,20.365697,0 105.524827,20.365616,0 105.525259,20.365505,0 105.525716,20.365338,0 105.526113,20.365116,0 105.526455,20.364925,0 105.526736,20.364718,0 105.527095,20.364412,0 105.527458,20.364033,0 105.528004,20.363283,0 105.528293,20.362872,0 105.528563,20.362466,0 105.528791,20.3621,0 105.529003,20.361706,0 105.529232,20.361231,0 105.529334,20.360869,0 105.529391,20.360545,0 105.5294,20.360226,0 105.529392,20.359926,0 105.529343,20.359615,0 105.52927,20.359338,0 105.529091,20.35896,0 105.528901,20.358639,0 105.528726,20.358347,0 105.528219,20.357701,0 105.527742,20.357185,0 105.52585,20.355153,0 105.525082,20.354337,0 105.524357,20.353561,0 105.524137,20.353284,0 105.523947,20.353007,0 105.523783,20.352679,0 105.523696,20.352351,0 105.523657,20.352037,0 105.523656,20.35182,0 105.523664,20.351491,0 105.523774,20.351052,0 105.523936,20.350671,0 105.52413,20.35025,0 105.524315,20.349859,0 105.52445,20.349551,0 105.524549,20.349256,0 105.524674,20.348806,0 105.52473,20.348507,0 105.524712,20.348165,0 105.524675,20.347934,0 105.524587,20.347627,0 105.524494,20.347427,0 105.524355,20.347208,0 105.524173,20.34699,0 105.523902,20.346708,0 105.523653,20.346523,0 105.523243,20.346217,0 105.52213,20.345473,0 105.521737,20.345193,0 105.521403,20.344896,0 105.5211,20.344597,0 105.520819,20.344308,0 105.520579,20.344002,0 105.520314,20.343628,0 105.520104,20.343206,0 105.519924,20.342828,0 105.519765,20.342438,0 105.519616,20.34203,0 105.519491,20.341565,0 105.519427,20.341117,0 105.519427,20.340675,0 105.519435,20.340476,0 105.519444,20.340104,0 105.519457,20.339822,0 105.519487,20.339342,0 105.519702,20.337874,0 105.519781,20.337254,0 105.519783,20.336708,0 105.519731,20.336215,0 105.519633,20.335781,0 105.519504,20.33535,0 105.519337,20.334903,0 105.518583,20.332938,0 105.518444,20.332608,0 105.518056,20.3316,0 105.517965,20.331252,0 105.517837,20.330802,0 105.517787,20.330462,0 105.517779,20.330078,0 105.517799,20.329726,0 105.517851,20.329497,0 105.517914,20.329231,0 105.518008,20.328959,0 105.51811,20.328652,0 105.51824,20.328313,0 105.518394,20.328016,0 105.518627,20.327701,0 105.518921,20.327385,0 105.519252,20.327044,0 105.519613,20.326744,0 105.52009,20.326318,0 105.520296,20.326132,0 105.520483,20.325949,0 105.520708,20.325682,0 105.520824,20.325484,0 105.520924,20.325284,0 105.520971,20.325178,0 105.521082,20.324814,0 105.521086,20.324436,0 105.521069,20.324216,0 105.521033,20.323995,0 105.520973,20.323697,0 105.520938,20.323509,0 105.520851,20.323191,0 105.520755,20.32287,0 105.520387,20.321652,0 105.520309,20.321296,0 105.520279,20.320913,0 105.520285,20.320653,0 105.520304,20.320389,0 105.52035,20.32011,0 105.520424,20.319834,0 105.520652,20.319317,0 105.521004,20.318674,0 105.521791,20.317169,0 105.522323,20.316112,0 105.522518,20.315626,0 105.522653,20.315241,0 105.522769,20.314827,0 105.522831,20.314375,0 105.522847,20.313972,0 105.522859,20.313571,0 105.52284,20.31311,0 105.522775,20.31269,0 105.522661,20.312184,0 105.522521,20.311724,0 105.522386,20.311371,0 105.521972,20.310502,0 105.521473,20.309454,0 105.521055,20.308531,0 105.520912,20.308134,0 105.520796,20.307716,0 105.521598,20.307402,0 105.524097,20.306326,0 105.524411,20.306182,0 105.524819,20.306006,0 105.525755,20.305611,0 105.527002,20.305053,0 105.5276,20.304796,0 105.528011,20.304635,0 105.528791,20.304286,0 105.529529,20.303953,0 105.529699,20.303871,0 105.530253,20.303785,0 105.531629,20.303664,0 105.53341,20.30346,0 105.533598,20.303395,0 105.533779,20.303171,0 105.534569,20.301921,0 105.534966,20.301375,0 105.535617,20.300419,0 105.536006,20.299986,0 105.536062,20.299959,0 105.536366,20.299808,0 105.537016,20.299515,0 105.538085,20.29901,0 105.538925,20.29859,0 105.539111,20.298459,0 105.53941,20.298248,0 105.539868,20.297722,0 105.540424,20.297038,0 105.541192,20.296179,0 105.542001,20.295292,0 105.542487,20.294729,0 105.542669,20.294543,0 105.542892,20.294444,0 105.543133,20.294437,0 105.543484,20.294465,0 105.543881,20.29446,0 105.543993,20.294438,0 105.54408,20.294392,0 105.544183,20.294282,0 105.544282,20.294141,0 105.544825,20.29335,0 105.545255,20.292727,0 105.545445,20.292452,0 105.545686,20.292153,0 105.546697,20.290737,0 105.546922,20.290422,0 105.547681,20.289342,0 105.548204,20.288648,0 105.548666,20.287989,0 105.549022,20.287491,0 105.549202,20.287251,0 105.549711,20.286568,0 105.549752,20.286464,0 105.549822,20.285649,0 105.549827,20.285524,0 105.549836,20.285322,0 105.549881,20.284582,0 105.549886,20.284004,0 105.549924,20.283591,0 105.550024,20.28338,0 105.550461,20.282852,0 105.550753,20.282489,0 105.550988,20.282215,0 105.551212,20.281953,0 105.551995,20.281025,0 105.55203,20.280984,0 105.552633,20.280275,0 105.553068,20.279787,0 105.553583,20.279146,0 105.554192,20.278406,0 105.554656,20.27787,0 105.55501,20.277517,0 105.555137,20.27737,0 105.555201,20.277258,0 105.555396,20.276732,0 105.557626,20.270797,0 105.557435,20.270249,0 105.557107,20.26928,0 105.556646,20.267901,0 105.556507,20.267459,0 105.556474,20.267315,0 105.556182,20.266452,0 105.555852,20.265496,0 105.55569,20.264988,0 105.555621,20.264424,0 105.555525,20.263548,0 105.555436,20.263231,0 105.555287,20.262971,0 105.555224,20.262861,0 105.554599,20.261857,0 105.554321,20.261387,0 105.554207,20.261032,0 105.554256,20.260811,0 105.554428,20.260627,0 105.554841,20.260328,0 105.555353,20.260016,0 105.556046,20.259662,0 105.556649,20.259286,0 105.557086,20.259002,0 105.557645,20.258653,0 105.557979,20.258408,0 105.558858,20.258003,0 105.559403,20.257706,0 105.559881,20.257454,0 105.560534,20.256951,0 105.561093,20.256415,0 105.561466,20.256251,0 105.56222,20.255987,0 105.563113,20.255607,0 105.563633,20.255391,0 105.564303,20.255159,0 105.565889,20.254623,0 105.566785,20.254271,0 105.567769,20.253916,0 105.568214,20.253783,0 105.568681,20.253612,0 105.568885,20.253456,0 105.569542,20.252882,0 105.569623,20.252809,0 105.56984,20.252613,0 105.570612,20.251916,0 105.571449,20.251216,0 105.571983,20.250756,0 105.572541,20.250371,0 105.573547,20.249779,0 105.573917,20.250217,0 105.573989,20.250278,0 105.574062,20.250328,0 105.574684,20.250605,0 105.575015,20.250739,0 105.576629,20.251669,0 105.576984,20.251887,0 105.577466,20.252192,0 105.57778,20.252461,0 105.578223,20.252889,0 105.5785,20.253135,0 105.57907,20.253626,0 105.579485,20.253948,0 105.579689,20.254145,0 105.579977,20.254426,0 105.58005,20.254544,0 105.58009,20.254662,0 105.580129,20.254782,0 105.580146,20.254915,0 105.580167,20.255266,0 105.580186,20.255405,0 105.580245,20.255648,0 105.580283,20.255765,0 105.580754,20.255602,0 105.58088,20.255585,0 105.581009,20.255581,0 105.581291,20.255614,0 105.581481,20.255716,0 105.58165,20.255836,0 105.582063,20.256231,0 105.582134,20.256261,0 105.582218,20.256279,0 105.582302,20.256273,0 105.582368,20.256252,0 105.58268,20.256075,0 105.582746,20.256058,0 105.582821,20.256064,0 105.58298,20.256109,0 105.583033,20.256119,0 105.583367,20.256117,0 105.583435,20.256108,0 105.583736,20.256023,0 105.583968,20.255925,0 105.584152,20.255819,0 105.584347,20.255673,0 105.584437,20.255662,0 105.585131,20.255521,0 105.58551,20.25546,0 105.585847,20.255369,0 105.586123,20.255316,0 105.586363,20.255311,0 105.587145,20.255349,0 105.587218,20.255362,0 105.587296,20.255394,0 105.587571,20.255569,0 105.587644,20.255607,0 105.587729,20.25564,0 105.587978,20.255665,0 105.588962,20.25593,0 105.589677,20.25603,0 105.590273,20.256152,0 105.590552,20.256184,0 105.590771,20.256187,0 105.59098,20.256232,0 105.591124,20.256296,0 105.591239,20.256331,0 105.591377,20.256339,0 105.591499,20.256329,0 105.591598,20.256299,0 105.59161,20.256196,0 105.591629,20.256091,0 105.591666,20.255983,0 105.591736,20.255693,0 105.591776,20.255259,0 105.591792,20.255133,0 105.591825,20.255007,0 105.591832,20.254935,0 105.59183,20.254823,0 105.591396,20.25449,0 105.591363,20.25445,0 105.591329,20.254405,0 105.591068,20.253915,0 105.591049,20.25387,0 105.591043,20.253814,0 105.591068,20.25363,0 105.59078,20.253104,0 105.590716,20.253011,0 105.590257,20.252471,0 105.590152,20.252396,0 105.590076,20.252488,0 105.590017,20.252544,0 105.589584,20.252833,0 105.58952,20.25289,0 105.589131,20.253357,0 105.588946,20.253514,0 105.588731,20.253729,0 105.588668,20.253801,0 105.588454,20.254044,0 105.587855,20.254625,0 105.587145,20.255349,0 105.586363,20.255311,0 105.586123,20.255316,0 105.585847,20.255369,0 105.58551,20.25546,0 105.585131,20.255521,0 105.584437,20.255662,0 105.584347,20.255673,0 105.584152,20.255819,0 105.583968,20.255925,0 105.583736,20.256023,0 105.583435,20.256108,0 105.583367,20.256117,0 105.583033,20.256119,0 105.58298,20.256109,0 105.582821,20.256064,0 105.582746,20.256058,0 105.58268,20.256075,0 105.582368,20.256252,0 105.582302,20.256273,0 105.582218,20.256279,0 105.582134,20.256261,0 105.582063,20.256231,0 105.58165,20.255836,0 105.581481,20.255716,0 105.581291,20.255614,0 105.581009,20.255581,0 105.58088,20.255585,0 105.580754,20.255602,0 105.580283,20.255765,0 105.580245,20.255648,0 105.580186,20.255405,0 105.580167,20.255266,0 105.580146,20.254915,0 105.580129,20.254782,0 105.58009,20.254662,0 105.58005,20.254544,0 105.579977,20.254426,0 105.579689,20.254145,0 105.579485,20.253948,0 105.57907,20.253626,0 105.5785,20.253135,0 105.578223,20.252889,0 105.57778,20.252461,0 105.577466,20.252192,0 105.576984,20.251887,0 105.576629,20.251669,0 105.575015,20.250739,0 105.574684,20.250605,0 105.574062,20.250328,0 105.573989,20.250278,0 105.573917,20.250217,0 105.573547,20.249779,0 105.572541,20.250371,0 105.571983,20.250756,0 105.571449,20.251216,0 105.570612,20.251916,0 105.56984,20.252613,0 105.569623,20.252809,0 105.569542,20.252882,0 105.568885,20.253456,0 105.568681,20.253612,0 105.568214,20.253783,0 105.567769,20.253916,0 105.566785,20.254271,0 105.565889,20.254623,0 105.564303,20.255159,0 105.563633,20.255391,0 105.563113,20.255607,0 105.56222,20.255987,0 105.561466,20.256251,0 105.561093,20.256415,0 105.560534,20.256951,0 105.559881,20.257454,0 105.559403,20.257706,0 105.558858,20.258003,0 105.557979,20.258408,0 105.557645,20.258653,0 105.557086,20.259002,0 105.556649,20.259286,0 105.556046,20.259662,0 105.555353,20.260016,0 105.554841,20.260328,0 105.554428,20.260627,0 105.554256,20.260811,0 105.554207,20.261032,0 105.554321,20.261387,0 105.554599,20.261857,0 105.555224,20.262861,0 105.555287,20.262971,0 105.555436,20.263231,0 105.555525,20.263548,0 105.555621,20.264424,0 105.55569,20.264988,0 105.555852,20.265496,0 105.556182,20.266452,0 105.556474,20.267315,0 105.556507,20.267459,0 105.556646,20.267901,0 105.557107,20.26928,0 105.557435,20.270249,0 105.557626,20.270797,0 105.555396,20.276732,0 105.555201,20.277258,0 105.555137,20.27737,0 105.55501,20.277517,0 105.554656,20.27787,0 105.554192,20.278406,0 105.553583,20.279146,0 105.553068,20.279787,0 105.552633,20.280275,0 105.55203,20.280984,0 105.551995,20.281025,0 105.551212,20.281953,0 105.550988,20.282215,0 105.550753,20.282489,0 105.550461,20.282852,0 105.550024,20.28338,0 105.549924,20.283591,0 105.549886,20.284004,0 105.549881,20.284582,0 105.549836,20.285322,0 105.549827,20.285524,0 105.549822,20.285649,0 105.549752,20.286464,0 105.549711,20.286568,0 105.549202,20.287251,0 105.549022,20.287491,0 105.548666,20.287989,0 105.548204,20.288648,0 105.547681,20.289342,0 105.546922,20.290422,0 105.546697,20.290737,0 105.545686,20.292153,0 105.545445,20.292452,0 105.545255,20.292727,0 105.544825,20.29335,0 105.544282,20.294141,0 105.544183,20.294282,0 105.54408,20.294392,0 105.543993,20.294438,0 105.543881,20.29446,0 105.543484,20.294465,0 105.543133,20.294437,0 105.542892,20.294444,0 105.542669,20.294543,0 105.542487,20.294729,0 105.542001,20.295292,0 105.541192,20.296179,0 105.540424,20.297038,0 105.539868,20.297722,0 105.53941,20.298248,0 105.539111,20.298459,0 105.538925,20.29859,0 105.538085,20.29901,0 105.537016,20.299515,0 105.536366,20.299808,0 105.536062,20.299959,0 105.536006,20.299986,0 105.535617,20.300419,0 105.534966,20.301375,0 105.534569,20.301921,0 105.533779,20.303171,0 105.533598,20.303395,0 105.53341,20.30346,0 105.531629,20.303664,0 105.530253,20.303785,0 105.529699,20.303871,0 105.529529,20.303953,0 105.528791,20.304286,0 105.528011,20.304635,0 105.5276,20.304796,0 105.527002,20.305053,0 105.525755,20.305611,0 105.524819,20.306006,0 105.524411,20.306182,0 105.524097,20.306326,0 105.521598,20.307402,0 105.520796,20.307716,0 105.520912,20.308134,0 105.521055,20.308531,0 105.521473,20.309454,0 105.521972,20.310502,0 105.522386,20.311371,0 105.522521,20.311724,0 105.522661,20.312184,0 105.522775,20.31269,0 105.52284,20.31311,0 105.522859,20.313571,0 105.522847,20.313972,0 105.522831,20.314375,0 105.522769,20.314827,0 105.522653,20.315241,0 105.522518,20.315626,0 105.522323,20.316112,0 105.521791,20.317169,0 105.521004,20.318674,0 105.520652,20.319317,0 105.520424,20.319834,0 105.52035,20.32011,0 105.520304,20.320389,0 105.520285,20.320653,0 105.520279,20.320913,0 105.520309,20.321296,0 105.520387,20.321652,0 105.520755,20.32287,0 105.520851,20.323191,0 105.520938,20.323509,0 105.520973,20.323697,0 105.521033,20.323995,0 105.521069,20.324216,0 105.521086,20.324436,0 105.521082,20.324814,0 105.520971,20.325178,0 105.520924,20.325284,0 105.520824,20.325484,0 105.520708,20.325682,0 105.520483,20.325949,0 105.520296,20.326132,0 105.52009,20.326318,0 105.519613,20.326744,0 105.519252,20.327044,0 105.518921,20.327385,0 105.518627,20.327701,0 105.518394,20.328016,0 105.51824,20.328313,0 105.51811,20.328652,0 105.518008,20.328959,0 105.517914,20.329231,0 105.517851,20.329497,0 105.517799,20.329726,0 105.517779,20.330078,0 105.517787,20.330462,0 105.517837,20.330802,0 105.517965,20.331252,0 105.518056,20.3316,0 105.518444,20.332608,0 105.518583,20.332938,0 105.519337,20.334903,0 105.519504,20.33535,0 105.519633,20.335781,0 105.519731,20.336215,0 105.519783,20.336708,0 105.519781,20.337254,0 105.519702,20.337874,0 105.519487,20.339342,0 105.519457,20.339822,0 105.519444,20.340104,0 105.519435,20.340476,0 105.519427,20.340675,0 105.519427,20.341117,0 105.519491,20.341565,0 105.519616,20.34203,0 105.519765,20.342438,0 105.519924,20.342828,0 105.520104,20.343206,0 105.520314,20.343628,0 105.520579,20.344002,0 105.520819,20.344308,0 105.5211,20.344597,0 105.521403,20.344896,0 105.521737,20.345193,0 105.52213,20.345473,0 105.523243,20.346217,0 105.523653,20.346523,0 105.523902,20.346708,0 105.524173,20.34699,0 105.524355,20.347208,0 105.524494,20.347427,0 105.524587,20.347627,0 105.524675,20.347934,0 105.524712,20.348165,0 105.52473,20.348507,0 105.524674,20.348806,0 105.524549,20.349256,0 105.52445,20.349551,0 105.524315,20.349859,0 105.52413,20.35025,0 105.523936,20.350671,0 105.523774,20.351052,0 105.523664,20.351491,0 105.523656,20.35182,0 105.523657,20.352037,0 105.523696,20.352351,0 105.523783,20.352679,0 105.523947,20.353007,0 105.524137,20.353284,0 105.524357,20.353561,0 105.525082,20.354337,0 105.52585,20.355153,0 105.527742,20.357185,0 105.528219,20.357701,0 105.528726,20.358347,0 105.528901,20.358639,0 105.529091,20.35896,0 105.52927,20.359338,0 105.529343,20.359615,0 105.529392,20.359926,0 105.5294,20.360226,0 105.529391,20.360545,0 105.529334,20.360869,0 105.529232,20.361231,0 105.529003,20.361706,0 105.528791,20.3621,0 105.528563,20.362466,0 105.528293,20.362872,0 105.528004,20.363283,0 105.527458,20.364033,0 105.527095,20.364412,0 105.526736,20.364718,0 105.526455,20.364925,0 105.526113,20.365116,0 105.525716,20.365338,0 105.525259,20.365505,0 105.524827,20.365616,0 105.524298,20.365697,0 105.52401,20.365724,0 105.523558,20.365749,0 105.522989,20.365778,0 105.521365,20.36585,0 105.521014,20.365864,0 105.520607,20.365895,0 105.520258,20.365923,0 105.519846,20.366004,0 105.519526,20.366097,0 105.51922,20.36622,0 105.518942,20.366377,0 105.518693,20.366549,0 105.518491,20.366705,0 105.518339,20.366884,0 105.518205,20.367049,0 105.518041,20.367276,0 105.517864,20.367547,0 105.517729,20.367918,0 105.517663,20.368167,0 105.517618,20.368449,0 105.517602,20.368741,0 105.517628,20.36905,0 105.517681,20.369374,0 105.517798,20.369791,0 105.517992,20.370345,0 105.518357,20.371335,0 105.518693,20.372152,0 105.518814,20.372511,0 105.518978,20.372939,0 105.519111,20.373369,0 105.519188,20.373694,0 105.519191,20.374019,0 105.519156,20.374279,0 105.519107,20.374545,0 105.519027,20.374809,0 105.518896,20.37508,0 105.518781,20.375306,0 105.518651,20.37553,0 105.518261,20.376043,0 105.517806,20.376637,0 105.517111,20.377527,0 105.516917,20.377806,0 105.516643,20.378202,0 105.516243,20.378791,0 105.516007,20.379291,0 105.515822,20.379745,0 105.515723,20.380062,0 105.515595,20.380498,0 105.515512,20.381012,0 105.515454,20.381379,0 105.515354,20.382466,0 105.515242,20.383978,0 105.515258,20.384832,0 105.515317,20.385315,0 105.515434,20.38578,0 105.515514,20.386332,0 105.515661,20.38698,0 105.515866,20.387637,0 105.516032,20.388061,0 105.516107,20.388268,0 105.516567,20.389552,0 105.516827,20.390374,0 105.517131,20.391103,0 105.517364,20.391665,0 105.517527,20.392115,0 105.517845,20.392934,0 105.518149,20.393606,0 105.518319,20.393969,0 105.518483,20.39432,0 105.518705,20.394624,0 105.518911,20.394837,0 105.519128,20.395011,0 105.519374,20.395149,0 105.519649,20.395264,0 105.519907,20.395355,0 105.520305,20.395451,0 105.521804,20.395731,0 105.523306,20.395993,0 105.52375,20.39607,0 105.524779,20.396259,0 105.525195,20.396368,0 105.525562,20.396501,0 105.525687,20.396573,0 105.525941,20.396711,0 105.526656,20.397236,0 105.527273,20.397814,0 105.527734,20.398299,0 105.530143,20.400831,0 105.530456,20.401162,0 105.531404,20.402144,0 105.532893,20.403709,0 105.533465,20.40425,0 105.534089,20.404769,0 105.534767,20.405214,0 105.535438,20.4056,0 105.536824,20.406109,0 105.53831,20.40638,0 105.539338,20.406368,0 105.541723,20.406247,0 105.542028,20.406233,0 105.543409,20.406257,0 105.543596,20.406265,0 105.5452,20.406471,0 105.545936,20.406631,0 105.546752,20.406852,0 105.547343,20.407055,0 105.551807,20.408764,0 105.55253,20.408936,0 105.552901,20.408961,0 105.553422,20.408881,0 105.553898,20.408738,0 105.554381,20.408533,0 105.554668,20.408385,0 105.555462,20.407989,0 105.556906,20.407259,0 105.557419,20.407004,0 105.55968,20.405852,0 105.560406,20.405532,0 105.561357,20.405254,0 105.562337,20.405049,0 105.563459,20.404885,0 105.564082,20.40483,0 105.564657,20.404835,0 105.565623,20.404972,0 105.56851,20.405668,0 105.570448,20.406135,0 105.571244,20.406336,0 105.571598,20.406425,0 105.573203,20.406829,0 105.573502,20.406899,0 105.573968,20.407025,0 105.57446,20.40713,0 105.575154,20.40724,0 105.576009,20.407256,0 105.576369,20.4072,0 105.576797,20.40709,0 105.576899,20.407055,0 105.5775,20.40684,0 105.579218,20.406093,0 105.579753,20.40584,0 105.580568,20.405529,0 105.581132,20.40535,0 105.583457,20.404738,0 105.585834,20.40412,0 105.58852,20.403402,0 105.588843,20.403312,0 105.58949,20.403133,0 105.590369,20.402901,0 105.591597,20.402649,0 105.596418,20.401994,0 105.597141,20.401896,0 105.601798,20.401268,0 105.603062,20.401103,0 105.605345,20.400796,0 105.606374,20.400656,0 105.60845,20.400372,0 105.61008,20.400148,0 105.612526,20.39982,0 105.613437,20.399818,0 105.613939,20.39991,0 105.6144,20.400047,0 105.615021,20.400295,0 105.615553,20.400602,0 105.615705,20.400721,0 105.617228,20.401978,0 105.617967,20.402624,0 105.618003,20.402652,0 105.61875,20.403275,0 105.619336,20.403777,0 105.619686,20.404082,0 105.620341,20.404609,0 105.620372,20.404634,0 105.621057,20.405224,0 105.621193,20.405331,0 105.621425,20.405525,0 105.621655,20.405725,0 105.621944,20.405988,0 105.621987,20.406027,0 105.622289,20.406271,0 105.622508,20.406449,0 105.622722,20.406634,0 105.62296,20.406874,0 105.623064,20.406986,0 105.623379,20.407397,0 105.623445,20.407516,0 105.623615,20.407906,0 105.623724,20.408293,0 105.623752,20.408485,0 105.623768,20.409039,0 105.623736,20.40934,0 105.623671,20.409649,0 105.623437,20.410334,0 105.623161,20.411173,0 105.622708,20.412603,0 105.622213,20.414129,0 105.6217,20.415709,0 105.621342,20.416873,0 105.621146,20.417525,0 105.621144,20.417551,0 105.620659,20.419009,0 105.62021,20.420402,0 105.619996,20.421072,0 105.619878,20.421526,0 105.619816,20.421925,0 105.619798,20.422343,0 105.619807,20.422521,0 105.619839,20.423108,0 105.619851,20.423186,0 105.619919,20.423515,0 105.619978,20.423702,0 105.620175,20.42426,0 105.620296,20.424516,0 105.620923,20.425543,0 105.621592,20.426524,0 105.621677,20.426644,0 105.622105,20.427281,0 105.622512,20.427876,0 105.622573,20.427967,0 105.622627,20.428062,0 105.623056,20.428732,0 105.623376,20.429213,0 105.623805,20.429919,0 105.624245,20.430686,0 105.624617,20.431695,0 105.6247,20.431957,0 105.624773,20.432169,0 105.625415,20.434184,0 105.625788,20.435262,0 105.625967,20.435845,0 105.626293,20.436773,0 105.626607,20.437741,0 105.627015,20.438865,0 105.627465,20.440265,0 105.627532,20.440456,0 105.627726,20.441081,0 105.629155,20.44541,0 105.629206,20.445578,0 105.62937,20.446029,0 105.629588,20.446617,0 105.629887,20.447109,0 105.630244,20.447526,0 105.630516,20.44774,0 105.630661,20.447843,0 105.630789,20.447913,0 105.630922,20.447987,0 105.630952,20.448006,0 105.631352,20.448162,0 105.632217,20.448342,0 105.633326,20.448432,0 105.634491,20.448537,0 105.63484,20.44857,0 105.635694,20.448638,0 105.636258,20.44869,0 105.636616,20.448716,0 105.637147,20.448757,0 105.637514,20.448799,0 105.637914,20.448836,0 105.638639,20.448885,0 105.639368,20.449013,0 105.639832,20.449151,0 105.640274,20.449335,0 105.640673,20.449553,0 105.641458,20.45006,0 105.641691,20.450221,0 105.643225,20.45126,0 105.643864,20.4517,0 105.64616,20.453284,0 105.647304,20.454064,0 105.647423,20.454146,0 105.648093,20.454587,0 105.648192,20.45467,0 105.648749,20.455056,0 105.648791,20.455091,0 105.649176,20.455421,0 105.649878,20.456174,0 105.650074,20.456444,0 105.650388,20.456807,0 105.650686,20.457135,0 105.650903,20.457407,0 105.651199,20.457785,0 105.651345,20.457964,0 105.651457,20.45807,0 105.651744,20.458218,0 105.651769,20.458226,0 105.652269,20.458393,0 105.652997,20.458519,0 105.653154,20.45854,0 105.653617,20.458617,0 105.653808,20.458649,0 105.654447,20.458749,0 105.65494,20.45894,0 105.65525,20.45919,0 105.655325,20.459287,0 105.655415,20.459381,0 105.655684,20.459978,0 105.655693,20.460282,0 105.655604,20.460532,0 105.655404,20.460882,0 105.654969,20.461482,0 105.654574,20.462125,0 105.654413,20.462334,0 105.653992,20.462979,0 105.653892,20.463162,0 105.6535,20.46367,0 105.653267,20.464003,0 105.65318,20.464135,0 105.652937,20.464517,0 105.652767,20.464922,0 105.652703,20.465234,0 105.652716,20.465468,0 105.65276,20.465696,0 105.652967,20.466405,0 105.653071,20.466727,0 105.653238,20.467196,0 105.653495,20.467667,0 105.65385,20.468165,0 105.654071,20.468601,0 105.65435,20.46903,0 105.654639,20.469245,0 105.655085,20.469457,0 105.655505,20.46972,0 105.65574,20.469962,0 105.655881,20.470224,0 105.655896,20.470634,0 105.655786,20.470957,0 105.655575,20.471305,0 105.655074,20.471912,0 105.654587,20.472712,0 105.65445,20.472934,0 105.654392,20.4732,0 105.654394,20.473428,0 105.654456,20.473615,0 105.654528,20.473778,0 105.654613,20.473906,0 105.654793,20.474083,0 105.655099,20.474317,0 105.655391,20.474533,0 105.655741,20.474797,0 105.656116,20.475106,0 105.656376,20.475376,0 105.656563,20.475708,0 105.656736,20.47611,0 105.656951,20.476522,0 105.657151,20.476924,0 105.657489,20.477618,0 105.65778,20.47803,0 105.657987,20.478431,0 105.658352,20.479024,0 105.658511,20.479298,0 105.658943,20.480008,0 105.65951,20.480662,0 105.659659,20.480785,0 105.659965,20.481038,0 105.660291,20.481285,0 105.660725,20.48164,0 105.661189,20.481999,0 105.661414,20.482178,0 105.661651,20.482347,0 105.661801,20.48246,0 105.662143,20.482701,0 105.662601,20.483002,0 105.663148,20.483494,0 105.663177,20.483527,0 105.663414,20.483805,0 105.663627,20.48415,0 105.663697,20.484303,0 105.663966,20.48533,0 105.664124,20.486309,0 105.664516,20.487144,0 105.665281,20.487876,0 105.665858,20.488305,0 105.666232,20.488492,0 105.666799,20.488682,0 105.667279,20.488892,0 105.667565,20.489014,0 105.667909,20.489155,0 105.66857,20.489424,0 105.668823,20.489531,0 105.668951,20.489587,0 105.669082,20.489642,0 105.670141,20.490175,0 105.670407,20.490359,0 105.670576,20.490585,0 105.67077,20.490965,0 105.670875,20.491335,0 105.670938,20.491875,0 105.670946,20.49229,0 105.670959,20.492998,0 105.671017,20.493964,0 105.671241,20.494859,0 105.671277,20.494967,0 105.671491,20.495502,0 105.671817,20.496348,0 105.671975,20.496848,0 105.672021,20.497077,0 105.672043,20.497147,0 105.672079,20.497543,0 105.672076,20.498329,0 105.671999,20.49958,0 105.671983,20.49986,0 105.671969,20.500308,0 105.671942,20.500803,0 105.671892,20.501343,0 105.671837,20.502101,0 105.671839,20.502508,0 105.671925,20.502925,0 105.672092,20.503335,0 105.672317,20.503641,0 105.672693,20.503972,0 105.672993,20.504159,0 105.673623,20.504548,0 105.674264,20.504945,0 105.674427,20.505051,0 105.674698,20.505229,0 105.675365,20.505777,0 105.675538,20.505919,0 105.675852,20.506293,0 105.676193,20.506785,0 105.676353,20.507145,0 105.676522,20.507526,0 105.676611,20.507924,0 105.676703,20.508487,0 105.676718,20.508918,0 105.67671,20.509472,0 105.676603,20.510165,0 105.676656,20.510652,0 105.676803,20.511091,0 105.677093,20.511609,0 105.677598,20.512129,0 105.677925,20.512348,0 105.678303,20.512593,0 105.678679,20.512834,0 105.679153,20.513126,0 105.679232,20.513172,0 105.679309,20.513226,0 105.67935,20.513251,0 105.679899,20.513604,0 105.680105,20.513737,0 105.680585,20.514064,0 105.681756,20.514834,0 105.682605,20.515395,0 105.683204,20.515871,0 105.683543,20.51624,0 105.683716,20.516543,0 105.683843,20.516913,0 105.683909,20.517419,0 105.683831,20.517942,0 105.683685,20.518428,0 105.68344,20.519097,0 105.68325,20.519612,0 105.683212,20.520118,0 105.683262,20.520517,0 105.683436,20.52111,0 105.683707,20.521563,0 105.684221,20.522093,0 105.684643,20.522414,0 105.686578,20.523808,0 105.687182,20.52426,0 105.687866,20.524771,0 105.688013,20.524917,0 105.688427,20.525332,0 105.689508,20.526954,0 105.689718,20.527273,0 105.690666,20.528731,0 105.691452,20.529962,0 105.691463,20.529978,0 105.691494,20.530023,0 105.692248,20.531173,0 105.692954,20.532231,0 105.693349,20.532897,0 105.694038,20.534057,0 105.695576,20.536649,0 105.696103,20.537261,0 105.696294,20.537482,0 105.697089,20.538112,0 105.698163,20.538741,0 105.698782,20.539205,0 105.699133,20.539696,0 105.699294,20.54002,0 105.69934,20.540113,0 105.699554,20.540822,0 105.699576,20.540895,0 105.700108,20.543514,0 105.700289,20.544406,0 105.700869,20.547266,0 105.701211,20.548952,0 105.701739,20.55146,0 105.701841,20.551946,0 105.702257,20.554104,0 105.702602,20.555523,0 105.703932,20.560268,0 105.703973,20.560416,0 105.704151,20.56105,0 105.70436,20.562052,0 105.704452,20.563252,0 105.704471,20.563501,0 105.704478,20.564025,0 105.704482,20.564396,0 105.704547,20.569436,0 105.704548,20.569549,0 105.704592,20.570564,0 105.704598,20.570654,0 105.704583,20.571252,0 105.704592,20.571986,0 105.704629,20.573745,0 105.704623,20.575386,0 105.704623,20.575408,0 105.704638,20.575714,0 105.704648,20.57611,0 105.704624,20.576694,0 105.704536,20.57719,0 105.704362,20.577706,0 105.704155,20.578156,0 105.703755,20.578805,0 105.701476,20.581132,0 105.699851,20.582794,0 105.698195,20.584515,0 105.69723,20.585507,0 105.697066,20.58568,0 105.696985,20.585763,0 105.696442,20.586361,0 105.695999,20.587014,0 105.695678,20.58763,0 105.695444,20.588449,0 105.695382,20.589401,0 105.695587,20.590706,0 105.695656,20.591177,0 105.69595,20.59282,0 105.696244,20.594629,0 105.69635,20.595216,0 105.696355,20.595247,0 105.696725,20.59738,0 105.696992,20.599108,0 105.697068,20.599836,0 105.697041,20.600895,0 105.696971,20.60146,0 105.696969,20.601577,0 105.69647,20.604021,0 105.696448,20.604131,0 105.695965,20.606561,0 105.695344,20.6095,0 105.695046,20.610921,0 105.694793,20.612205,0 105.694322,20.61453,0 105.694075,20.61556,0 105.693791,20.616401,0 105.693562,20.61688,0 105.693515,20.616965,0 105.693337,20.617288,0 105.692877,20.618093,0 105.69203,20.619564,0 105.6913,20.620788,0 105.690351,20.62237,0 105.690182,20.622672,0</coordinates></LineString></Placemark>
  <Placemark><name>1. Hà Nội → Tourism Hub Đồi Dùng &amp; văn hoá Mường</name><description>Ngày 1 — Sáng — Xe xuất phát từ Hà Nội, đến Tourism Hub Đồi Dùng ~1,5 – 2 tiếng. HDV bản địa đón bằng ly trà thảo dược, nhận xe đạp. Khám phá Chùa Phú Cốc (cây đa hơn 400 năm), Hồ Baibóo (bè tre, trang phục Mường), Đền Cây Thợi (cây thị 400 năm), vườn sim cổ (rượu sim OCOP).</description><styleUrl>#stop</styleUrl><Point><coordinates>105.6897842,20.6224767,0</coordinates></Point></Placemark>
  <Placemark><name>2. Bữa trưa Cỗ Lá Mường</name><description>Ngày 1 — Trưa — Mâm Cỗ Lá Mường bày trên lá chuối tươi — nguyên liệu 100% địa phương, không một chiếc đĩa nhựa.</description><styleUrl>#stop</styleUrl><Point><coordinates>105.6897842,20.6224767,0</coordinates></Point></Placemark>
  <Placemark><name>3. Tiếp tục khám phá bản Mường</name><description>Ngày 1 — Chiều — Đạp xe dạo quanh Thung Cánh (mô hình 5 KHÔNG); trồng một cây nhỏ làm kỷ niệm, nhận Chứng nhận trồng cây. Thăm Trạm Chill Thung Cánh Farmstay (vườn dược liệu, hái hoa quả theo mùa) và Gió Núi Farmstay (Vườn — Ao — Chuồng, dụng cụ nông — ngư nghiệp cổ).</description><styleUrl>#stop</styleUrl><Point><coordinates>105.6897842,20.6224767,0</coordinates></Point></Placemark>
  <Placemark><name>4. Lửa trại &amp; nghỉ homestay cộng đồng</name><description>Ngày 1 — Tối — Sau bữa tối tại nhà dân, cả đoàn quây quần bên lửa trại — tiếng cồng chiêng Mường vang lên trong đêm, giao lưu văn nghệ. Nghỉ đêm tại homestay cộng đồng Mường Cốc — không gian nhà sàn truyền thống.</description><styleUrl>#stop</styleUrl><Point><coordinates>105.6897842,20.6224767,0</coordinates></Point></Placemark>
  <Placemark><name>5. Mường Cốc → Vườn Quốc gia Cúc Phương (Ninh Bình ~55 km)</name><description>Ngày 2 — Sáng — Sau bữa sáng tại homestay, xe đưa bạn đến Cúc Phương — khu rừng nguyên sinh lớn nhất miền Bắc (thành lập 1962). Khám phá rừng nguyên sinh, Cây Chò ngàn năm, Trung tâm Cứu hộ Động vật hoang dã (linh trưởng, rùa quý hiếm).</description><styleUrl>#stop</styleUrl><Point><coordinates>105.5897,20.2546,0</coordinates></Point></Placemark>
  <Placemark><name>6. Bữa trưa tại Cúc Phương</name><description>Ngày 2 — Trưa — Bữa trưa tại khu nhà ăn trong vườn quốc gia.</description><styleUrl>#stop</styleUrl><Point><coordinates>105.5897,20.2546,0</coordinates></Point></Placemark>
  <Placemark><name>7. Trở về Hà Nội</name><description>Ngày 2 — Chiều — Xe đưa bạn trở về Hà Nội theo đường Hồ Chí Minh. Bạn mang theo tiếng cồng chiêng đêm đầu ở bản Mường, và màu xanh thẳm của rừng nguyên sinh.</description><styleUrl>#stop</styleUrl><Point><coordinates>105.6897842,20.6224767,0</coordinates></Point></Placemark>
 </Document>
</kml>