<?xml version="1.0" encoding="UTF-8"?>
<kml xmlns="http://www.opengis.net/kml/2.2">
 <Document>
  <name>Mường Cốc — Hai ngày giữ lửa bản Mường (Phương án B: Văn hoá sen &amp; Lễ Mo Mường)</name>
  <description>Tuyến tự động dựng bằng OSRM (cycling). 8 điểm dừng. . CẢNH BÁO: route có thể bám đường lớn (Hồ Chí Minh) — kiểm tra và chỉnh trong My Maps để bám đường dân sinh.</description>
  <Style id="stop"><IconStyle><color>ff3ba300</color><scale>1.1</scale><Icon><href>http://maps.google.com/mapfiles/kml/paddle/grn-blank.png</href></Icon></IconStyle></Style>
  <Style id="stopact"><IconStyle><color>ff0a78ff</color><scale>1.0</scale><Icon><href>http://maps.google.com/mapfiles/kml/paddle/orange-blank.png</href></Icon></IconStyle></Style>
  <Style id="route"><LineStyle><color>ff2f6a0a</color><width>5</width></LineStyle></Style>
  <Placemark><name>Tuyến Mường Cốc — Hai ngày giữ lửa bản Mường (Phương án B: Văn hoá sen &amp; Lễ Mo Mường) (OSRM cycling — kiểm tra tránh đường HCM)</name><styleUrl>#route</styleUrl><LineString><tessellate>1</tessellate><coordinates>105.689021,20.623598,0 105.689698,20.623238,0 105.689739,20.623223,0 105.689867,20.62321,0 105.689547,20.623793,0 105.689263,20.624422,0 105.689131,20.624812,0 105.689099,20.624889,0 105.688862,20.625535,0 105.688624,20.626025,0 105.688446,20.626281,0 105.688246,20.626486,0 105.687964,20.626705,0 105.68768,20.626879,0 105.68735,20.627,0 105.687076,20.627066,0 105.686759,20.62713,0 105.686177,20.627161,0 105.685781,20.627231,0 105.68541,20.627346,0 105.684744,20.626255,0 105.684578,20.625934,0 105.684448,20.625653,0 105.684317,20.625302,0 105.684286,20.625187,0 105.684197,20.624777,0 105.684154,20.62458,0 105.684106,20.624302,0 105.684097,20.624246,0 105.68405,20.623897,0 105.68392,20.622913,0 105.683889,20.622543,0 105.683876,20.622466,0 105.683854,20.622414,0 105.683823,20.622362,0 105.683682,20.622188,0 105.684325,20.622214,0 105.684848,20.621577,0 105.684876,20.621524,0 105.684881,20.621465,0 105.684874,20.621405,0 105.684846,20.62136,0 105.684801,20.621327,0 105.684747,20.621302,0 105.684549,20.621243,0 105.684525,20.621224,0 105.684508,20.62119,0 105.684472,20.620851,0 105.684484,20.620804,0 105.684529,20.620743,0 105.684742,20.620557,0 105.684529,20.620743,0 105.684484,20.620804,0 105.684472,20.620851,0 105.684508,20.62119,0 105.684525,20.621224,0 105.684549,20.621243,0 105.684747,20.621302,0 105.684801,20.621327,0 105.684846,20.62136,0 105.684874,20.621405,0 105.684877,20.621427,0 105.684881,20.621465,0 105.684876,20.621524,0 105.684848,20.621577,0 105.684325,20.622214,0 105.683682,20.622188,0 105.683144,20.62172,0 105.682897,20.621501,0 105.682738,20.621383,0 105.682685,20.621377,0 105.682627,20.621378,0 105.682352,20.62149,0 105.682152,20.621571,0 105.682071,20.621592,0 105.681915,20.621615,0 105.681711,20.62163,0 105.681565,20.62163,0 105.681391,20.621618,0 105.681234,20.621592,0 105.680888,20.621506,0 105.680254,20.621433,0 105.680177,20.621418,0 105.680106,20.6214,0 105.678532,20.62101,0 105.678703,20.62079,0 105.678762,20.620712,0 105.678798,20.620675,0 105.678909,20.620607,0 105.678992,20.620562,0 105.679126,20.620509,0 105.679263,20.620484,0 105.679207,20.620494,0 105.679126,20.620509,0 105.678992,20.620562,0 105.678909,20.620607,0 105.678798,20.620675,0 105.678762,20.620712,0 105.678703,20.62079,0 105.678532,20.62101,0 105.680106,20.6214,0 105.680177,20.621418,0 105.680254,20.621433,0 105.680888,20.621506,0 105.681234,20.621592,0 105.681391,20.621618,0 105.681565,20.62163,0 105.681711,20.62163,0 105.681915,20.621615,0 105.682071,20.621592,0 105.682152,20.621571,0 105.682352,20.62149,0 105.682627,20.621378,0 105.682685,20.621377,0 105.682738,20.621383,0 105.682897,20.621501,0 105.683144,20.62172,0 105.683682,20.622188,0 105.683823,20.622362,0 105.683854,20.622414,0 105.683876,20.622466,0 105.683889,20.622543,0 105.68392,20.622913,0 105.68405,20.623897,0 105.684097,20.624246,0 105.684106,20.624302,0 105.684154,20.62458,0 105.684197,20.624777,0 105.684286,20.625187,0 105.684317,20.625302,0 105.684448,20.625653,0 105.684578,20.625934,0 105.684744,20.626255,0 105.68541,20.627346,0 105.685781,20.627231,0 105.686177,20.627161,0 105.686759,20.62713,0 105.687076,20.627066,0 105.68735,20.627,0 105.68768,20.626879,0 105.687964,20.626705,0 105.688246,20.626486,0 105.688446,20.626281,0 105.688624,20.626025,0 105.688862,20.625535,0 105.689099,20.624889,0 105.689131,20.624812,0 105.689263,20.624422,0 105.689547,20.623793,0 105.689867,20.62321,0 105.689987,20.623021,0 105.690182,20.622672,0 105.690351,20.62237,0 105.6913,20.620788,0 105.69117,20.62071,0 105.691078,20.620687,0 105.690875,20.620667,0 105.690802,20.620642,0 105.690738,20.620602,0 105.690644,20.620502,0 105.690392,20.620243,0 105.690644,20.620502,0 105.690738,20.620602,0 105.690802,20.620642,0 105.690875,20.620667,0 105.691078,20.620687,0 105.69117,20.62071,0 105.6913,20.620788,0 105.690351,20.62237,0 105.689987,20.623021,0 105.689867,20.62321,0 105.689547,20.623793,0 105.689263,20.624422,0 105.689131,20.624812,0 105.689322,20.625171,0 105.689431,20.625397,0 105.689575,20.625707,0 105.689765,20.626118,0 105.689794,20.626184,0 105.691108,20.62569,0 105.692511,20.625198,0 105.69261,20.625171,0 105.692771,20.625111,0 105.69442,20.624536,0 105.69626,20.623873,0 105.69442,20.624536,0 105.692771,20.625111,0 105.69261,20.625171,0 105.69256,20.625185,0 105.692511,20.625198,0 105.691108,20.62569,0 105.689794,20.626184,0 105.689855,20.626324,0 105.690058,20.626765,0 105.69028,20.627256,0 105.690503,20.627753,0 105.690794,20.628384,0 105.690902,20.628619,0 105.691019,20.628876,0 105.691392,20.629702,0 105.691843,20.630656,0 105.69203,20.631089,0 105.692095,20.631241,0 105.692629,20.63241,0 105.693012,20.633259,0 105.693283,20.633864,0 105.693358,20.634055,0 105.694682,20.634279,0 105.695525,20.634431,0 105.695922,20.634677,0 105.698181,20.637569,0 105.698047,20.638038,0 105.698046,20.638063,0 105.698041,20.638357,0 105.69819,20.63873,0 105.698385,20.639155,0 105.701595,20.644768,0 105.70185,20.645227,0 105.702045,20.645568,0 105.701327,20.645564,0 105.700496,20.645559,0 105.700398,20.645577,0 105.700099,20.645674,0 105.700057,20.645682,0 105.700015,20.645678,0 105.699705,20.645573,0 105.699643,20.645557,0 105.699569,20.645557,0 105.698289,20.645762,0 105.697875,20.645852,0 105.69761,20.645888,0 105.696573,20.646029,0 105.696197,20.64608,0 105.696089,20.646086,0 105.695999,20.646078,0 105.695999,20.646078,0 105.695791,20.646022,0 105.695455,20.64593,0 105.695348,20.645881,0 105.695273,20.645819,0 105.69523,20.645761,0 105.694933,20.645366,0 105.69451,20.64482,0 105.694435,20.644729,0 105.69433,20.644543,0 105.694297,20.644475,0 105.694242,20.644161,0 105.694238,20.644048,0 105.694251,20.64396,0 105.694378,20.643685,0 105.694625,20.643122,0 105.694662,20.643011,0 105.694675,20.642908,0 105.694679,20.642768,0 105.694643,20.642374,0 105.694631,20.64231,0 105.694602,20.64213,0 105.6946,20.641984,0 105.69461,20.641789,0 105.694661,20.641421,0 105.69467,20.641353,0 105.694689,20.641296,0 105.694718,20.641243,0 105.694929,20.64085,0 105.695072,20.640639,0 105.695143,20.640557,0 105.695316,20.640409,0 105.696226,20.639712,0 105.696481,20.639536,0 105.697364,20.638929,0 105.697487,20.638892,0 105.697801,20.638926,0 105.697906,20.63888,0 105.69819,20.63873,0 105.698041,20.638357,0 105.698046,20.638063,0 105.698047,20.638038,0 105.698181,20.637569,0 105.695922,20.634677,0 105.695525,20.634431,0 105.694682,20.634279,0 105.693358,20.634055,0 105.689549,20.633394,0 105.689509,20.633387,0 105.689,20.633214,0 105.688713,20.633055,0 105.688415,20.632774,0 105.688084,20.632174,0 105.687674,20.631432,0 105.686801,20.629851,0 105.68541,20.627346,0 105.685781,20.627231,0 105.686177,20.627161,0 105.686759,20.62713,0 105.687076,20.627066,0 105.68735,20.627,0 105.68768,20.626879,0 105.687964,20.626705,0 105.688246,20.626486,0 105.688446,20.626281,0 105.688624,20.626025,0 105.688862,20.625535,0 105.689099,20.624889,0 105.689131,20.624812,0 105.689263,20.624422,0 105.689547,20.623793,0 105.689867,20.62321,0 105.689987,20.623021,0 105.690182,20.622672,0</coordinates></LineString></Placemark>
  <Placemark><name>1. Đón khách &amp; Chùa Phú Cốc, Đền Cây Thợi</name><description>Ngày 1 — Sáng — HDV đón bạn tại Tourism Hub Đồi Dùng bằng ly trà thảo dược. Thăm Chùa Phú Cốc (cây đa hơn 400 năm tuổi) và Đền Cây Thợi (Nhị vị Thánh Mẫu, sắc Khải Định 1924, cây thị một gốc ba loại quả).</description><styleUrl>#stop</styleUrl><Point><coordinates>105.68909,20.6237117,0</coordinates></Point></Placemark>
  <Placemark><name>2. Hồ Baibóo &amp; Bữa trưa Cỗ Lá Mường</name><description>Ngày 1 — Trưa — Hồ ngọc bích, đường vòng 4 km; ngắm cảnh, khoác trang phục Mường, đi bè tre và ghé homestay ven hồ. Bữa trưa Cỗ Lá Mường trên lá chuối, 100% nguyên liệu địa phương, cùng văn nghệ truyền thống cộng đồng.</description><styleUrl>#stop</styleUrl><Point><coordinates>105.6860667,20.621305,0</coordinates></Point></Placemark>
  <Placemark><name>3. Lễ Mo Mường tại Đình Phú Cốc &amp; Đầm sen</name><description>Ngày 1 — Chiều — Tại đại đình chung của các thôn người Mường, bạn dự lễ Mo Mường do nghệ nhân thực hiện. Sau đó lội đầm hái sen, lẩy hạt sen, học ướp trà sen và làm trà sen, chọn quà tại nhà Niệm Nga (trà sen, mật ong An Phú).</description><styleUrl>#stop</styleUrl><Point><coordinates>105.6791833,20.6203792,0</coordinates></Point></Placemark>
  <Placemark><name>4. Nhận phòng homestay</name><description>Ngày 1 — Chiều muộn — Bạn nhận phòng tại homestay cộng đồng ven hồ Baibóo, nghỉ ngơi và dạo bản lúc hoàng hôn buông trên mặt nước.</description><styleUrl>#stop</styleUrl><Point><coordinates>105.6897842,20.6224767,0</coordinates></Point></Placemark>
  <Placemark><name>5. Đêm lửa trại bản Mường</name><description>Ngày 1 — Tối — Bên ánh lửa bập bùng: chương trình văn nghệ Mường (cồng chiêng, hát đối, hát thường rang), trò chơi dân gian Mường (ném còn, đánh mảng, đẩy gậy), thư giãn với chậu ngâm chân lá thuốc Mường. Nghỉ đêm tại homestay cộng đồng.</description><styleUrl>#stop</styleUrl><Point><coordinates>105.6897842,20.6224767,0</coordinates></Point></Placemark>
  <Placemark><name>6. Vườn Sim Cổ, Chùa Đinh Long &amp; Con đường Tràm</name><description>Ngày 2 — Sáng — Thăm vườn sim cổ, mua rượu sim OCOP. Chiêm bái Chùa Đinh Long (dấu vua Đinh Bộ Lĩnh, dấu ấn kháng chiến), đi qua Con đường Tràm 800 m khép tán xanh mát.</description><styleUrl>#stop</styleUrl><Point><coordinates>105.6927417,20.62577,0</coordinates></Point></Placemark>
  <Placemark><name>7. Chùa Tiên &amp; Đền Mẫu Thượng Thiên</name><description>Ngày 2 — Trưa — Chùa Tiên (thôn Ái Nàng) phát hiện 1958, nhũ đá thiên nhiên giữa rừng núi. Đền Mẫu Thượng Thiên toạ trên núi Đền, thờ Mẫu Quế Anh phu nhân, bốn đạo sắc Nguyễn từ Tự Đức đến Khải Định.</description><styleUrl>#stop</styleUrl><Point><coordinates>105.6946117,20.6506333,0</coordinates></Point></Placemark>
  <Placemark><name>8. Trở về</name><description>Ngày 2 — Chiều — Bạn chia tay bản Mường, khép lại hành trình hai ngày đầy đặn.</description><styleUrl>#stop</styleUrl><Point><coordinates>105.6897842,20.6224767,0</coordinates></Point></Placemark>
 </Document>
</kml>