<?xml version="1.0" encoding="UTF-8"?>
<kml xmlns="http://www.opengis.net/kml/2.2">
 <Document>
  <name>Đường Mòn Rộc Éo</name>
  <description>Tuyến tự động dựng bằng OSRM (cycling). 5 điểm dừng. ~5 km · cấp độ dễ. CẢNH BÁO: route có thể bám đường lớn (Hồ Chí Minh) — kiểm tra và chỉnh trong My Maps để bám đường dân sinh.</description>
  <Style id="stop"><IconStyle><color>ff3ba300</color><scale>1.1</scale><Icon><href>http://maps.google.com/mapfiles/kml/paddle/grn-blank.png</href></Icon></IconStyle></Style>
  <Style id="stopact"><IconStyle><color>ff0a78ff</color><scale>1.0</scale><Icon><href>http://maps.google.com/mapfiles/kml/paddle/orange-blank.png</href></Icon></IconStyle></Style>
  <Style id="route"><LineStyle><color>ff2f6a0a</color><width>5</width></LineStyle></Style>
  <Placemark><name>Tuyến Đường Mòn Rộc Éo (OSRM cycling — kiểm tra tránh đường HCM)</name><styleUrl>#route</styleUrl><LineString><tessellate>1</tessellate><coordinates>105.690182,20.622672,0 105.689987,20.623021,0 105.689867,20.62321,0 105.689547,20.623793,0 105.689263,20.624422,0 105.689131,20.624812,0 105.689099,20.624889,0 105.688862,20.625535,0 105.688624,20.626025,0 105.688446,20.626281,0 105.688246,20.626486,0 105.687964,20.626705,0 105.68768,20.626879,0 105.68735,20.627,0 105.687076,20.627066,0 105.686759,20.62713,0 105.686177,20.627161,0 105.685781,20.627231,0 105.68541,20.627346,0 105.684744,20.626255,0 105.684578,20.625934,0 105.684448,20.625653,0 105.684317,20.625302,0 105.684286,20.625187,0 105.684197,20.624777,0 105.684154,20.62458,0 105.684106,20.624302,0 105.684097,20.624246,0 105.68405,20.623897,0 105.68392,20.622913,0 105.683889,20.622543,0 105.683876,20.622466,0 105.683854,20.622414,0 105.683823,20.622362,0 105.683682,20.622188,0 105.684325,20.622214,0 105.684848,20.621577,0 105.684876,20.621524,0 105.684881,20.621465,0 105.684874,20.621405,0 105.684846,20.62136,0 105.684801,20.621327,0 105.684747,20.621302,0 105.684549,20.621243,0 105.684525,20.621224,0 105.684508,20.62119,0 105.684472,20.620851,0 105.684484,20.620804,0 105.684529,20.620743,0 105.684742,20.620557,0 105.684529,20.620743,0 105.684484,20.620804,0 105.684472,20.620851,0 105.684508,20.62119,0 105.684525,20.621224,0 105.684549,20.621243,0 105.684747,20.621302,0 105.684801,20.621327,0 105.684846,20.62136,0 105.684874,20.621405,0 105.684877,20.621427,0 105.684881,20.621465,0 105.684876,20.621524,0 105.684848,20.621577,0 105.684325,20.622214,0 105.683682,20.622188,0 105.683823,20.622362,0 105.683854,20.622414,0 105.683876,20.622466,0 105.683889,20.622543,0 105.68392,20.622913,0 105.68405,20.623897,0 105.684097,20.624246,0 105.684106,20.624302,0 105.684154,20.62458,0 105.684197,20.624777,0 105.684286,20.625187,0 105.684317,20.625302,0 105.684448,20.625653,0 105.684578,20.625934,0 105.684744,20.626255,0 105.68541,20.627346,0 105.686801,20.629851,0 105.687674,20.631432,0 105.688084,20.632174,0 105.688415,20.632774,0 105.688713,20.633055,0 105.689,20.633214,0 105.689509,20.633387,0 105.689549,20.633394,0 105.693358,20.634055,0 105.694682,20.634279,0 105.695525,20.634431,0 105.695525,20.634431,0 105.695922,20.634677,0 105.698181,20.637569,0 105.698198,20.637538,0 105.698221,20.637515,0 105.698561,20.637319,0 105.699301,20.636996,0 105.69936,20.636967,0 105.699668,20.636817,0 105.700496,20.636456,0 105.7006,20.636409,0 105.700982,20.636217,0 105.70103,20.636187,0 105.701136,20.63611,0 105.7012,20.636051,0 105.701296,20.635936,0 105.701322,20.635917,0 105.701367,20.635896,0 105.701387,20.635881,0 105.701493,20.635697,0 105.701498,20.635674,0 105.7015,20.63564,0 105.701449,20.635183,0 105.701447,20.63514,0 105.701456,20.635032,0 105.701508,20.634741,0 105.701518,20.634659,0 105.701521,20.634578,0 105.701515,20.634496,0 105.701422,20.633885,0 105.701364,20.633539,0 105.701341,20.63347,0 105.7013,20.633387,0 105.700924,20.632841,0 105.701325,20.632565,0 105.701453,20.632472,0 105.70158,20.632361,0 105.701337,20.632113,0 105.701315,20.632077,0 105.701271,20.631921,0 105.70124,20.631848,0 105.701196,20.631767,0 105.700888,20.631332,0 105.700867,20.631285,0 105.700709,20.630785,0 105.700522,20.630257,0 105.700311,20.62954,0 105.70014,20.628867,0 105.700127,20.62878,0 105.700106,20.628434,0 105.700064,20.627972,0 105.70006,20.627569,0 105.700003,20.626835,0 105.699956,20.626404,0 105.699959,20.626002,0 105.699954,20.625937,0 105.699904,20.6257,0 105.699892,20.62563,0 105.699821,20.624736,0 105.699726,20.623514,0 105.699669,20.622925,0 105.699617,20.622157,0 105.69962,20.622111,0 105.699632,20.622065,0 105.699687,20.621957,0 105.699731,20.621903,0 105.699791,20.62187,0 105.699858,20.62185,0 105.699935,20.621845,0 105.700879,20.621803,0 105.701218,20.621151,0 105.701886,20.619898,0 105.702858,20.618089,0 105.703893,20.616142,0 105.704863,20.614294,0 105.704891,20.614217,0 105.704913,20.614127,0 105.705788,20.614474,0 105.706544,20.61477,0 105.707933,20.615323,0 105.708033,20.615363,0 105.708113,20.615373,0 105.708196,20.615333,0 105.708628,20.614814,0 105.708698,20.614738,0 105.708757,20.614696,0 105.708825,20.614662,0 105.708916,20.614633,0 105.709207,20.614534,0 105.709709,20.614384,0 105.710253,20.614143,0 105.710817,20.613972,0 105.711308,20.613835,0 105.71143,20.613804,0 105.71151,20.613782,0 105.711548,20.613749,0 105.711605,20.613696,0 105.711656,20.613661,0 105.711718,20.613641,0 105.71184,20.613603,0 105.711986,20.61356,0 105.712154,20.613516,0 105.712354,20.613442,0 105.712423,20.61342,0 105.7125,20.613382,0 105.712592,20.613314,0 105.712662,20.613282,0 105.712761,20.613244,0 105.71283,20.613226,0 105.712958,20.613208,0 105.713091,20.613179,0 105.713204,20.613143,0 105.713331,20.6131,0 105.713422,20.613082,0 105.713526,20.613074,0 105.71368,20.613057,0 105.713861,20.612983,0 105.714022,20.612923,0 105.714238,20.612795,0 105.714379,20.612689,0 105.714542,20.612546,0 105.714725,20.612418,0 105.714878,20.612368,0 105.715005,20.612336,0 105.715143,20.612328,0 105.715272,20.612343,0 105.715421,20.612364,0 105.715621,20.612363,0 105.715934,20.612302,0 105.716227,20.612265,0 105.716522,20.612262,0 105.716736,20.612257,0 105.717168,20.612215,0 105.717718,20.612132,0 105.718088,20.612107,0 105.718434,20.612092,0 105.718088,20.612107,0 105.717718,20.612132,0 105.717168,20.612215,0 105.716736,20.612257,0 105.716522,20.612262,0 105.716227,20.612265,0 105.715934,20.612302,0 105.715621,20.612363,0 105.715421,20.612364,0 105.7154,20.612361,0 105.715272,20.612343,0 105.715143,20.612328,0 105.715005,20.612336,0 105.714878,20.612368,0 105.714725,20.612418,0 105.714542,20.612546,0 105.714379,20.612689,0 105.714238,20.612795,0 105.714022,20.612923,0 105.713861,20.612983,0 105.71368,20.613057,0 105.713526,20.613074,0 105.713422,20.613082,0 105.713331,20.6131,0 105.713204,20.613143,0 105.713091,20.613179,0 105.712958,20.613208,0 105.71283,20.613226,0 105.712761,20.613244,0 105.712662,20.613282,0 105.712592,20.613314,0 105.7125,20.613382,0 105.712423,20.61342,0 105.712354,20.613442,0 105.712154,20.613516,0 105.711986,20.61356,0 105.71184,20.613603,0 105.711718,20.613641,0 105.711656,20.613661,0 105.711605,20.613696,0 105.711548,20.613749,0 105.71151,20.613782,0 105.71143,20.613804,0 105.711308,20.613835,0 105.710817,20.613972,0 105.710253,20.614143,0 105.709709,20.614384,0 105.709207,20.614534,0 105.708916,20.614633,0 105.708825,20.614662,0 105.708757,20.614696,0 105.708698,20.614738,0 105.708628,20.614814,0 105.708196,20.615333,0 105.708113,20.615373,0 105.708033,20.615363,0 105.707933,20.615323,0 105.706544,20.61477,0 105.705788,20.614474,0 105.704913,20.614127,0 105.704807,20.614105,0 105.704189,20.613917,0 105.703899,20.613872,0 105.703634,20.613869,0 105.703266,20.613912,0 105.702757,20.614002,0 105.702212,20.614138,0 105.701815,20.614243,0 105.701646,20.614321,0 105.700563,20.614891,0 105.700176,20.615107,0 105.699892,20.615251,0 105.699779,20.615314,0 105.699669,20.615414,0 105.699425,20.615644,0 105.699003,20.616034,0 105.698678,20.616313,0 105.698548,20.616432,0 105.698412,20.616588,0 105.698086,20.61709,0 105.697964,20.617315,0 105.697875,20.617399,0 105.69782,20.617426,0 105.697746,20.617434,0 105.697606,20.617379,0 105.697443,20.617276,0 105.697164,20.617081,0 105.697084,20.617047,0 105.697033,20.61704,0 105.696975,20.617052,0 105.696479,20.617204,0 105.696416,20.617209,0 105.696319,20.617199,0 105.695727,20.61701,0 105.695523,20.616938,0 105.695398,20.616873,0 105.695374,20.616854,0 105.695355,20.616777,0 105.695362,20.616415,0 105.695354,20.616259,0 105.69533,20.616182,0 105.695306,20.616146,0 105.695177,20.616078,0 105.6943,20.615629,0 105.694075,20.61556,0 105.693791,20.616401,0 105.693562,20.61688,0 105.693515,20.616965,0 105.693337,20.617288,0 105.692877,20.618093,0 105.69203,20.619564,0 105.6913,20.620788,0 105.690351,20.62237,0 105.690182,20.622672,0</coordinates></LineString></Placemark>
  <Placemark><name>1. Tourism Hub Đồi Dùng</name><description>07:30 — Hướng dẫn viên người Mường đón bạn bằng một ly trà thảo dược. Giới thiệu ngắn về Mường Cốc, cam kết 5 KHÔNG, mạng lưới Refill Station. Bạn nhận một đôi gậy trek và bản đồ đường mòn.</description><styleUrl>#stop</styleUrl><Point><coordinates>105.6897842,20.6224767,0</coordinates></Point></Placemark>
  <Placemark><name>2. Đi bộ vòng hồ Baibóo</name><description>07:50 — Bạn men theo bờ hồ Baibóo — hồ điều hoà sinh thái khơi nguồn từ núi đá vôi, vòng quanh chừng 4 km. Mặt nước trong xanh soi bóng cây dổi và các cung đường hoa. Bạn đi chậm, dừng lại bất cứ đâu thấy đẹp.</description><styleUrl>#stop</styleUrl><Point><coordinates>105.6860667,20.621305,0</coordinates></Point></Placemark>
  <Placemark><name>3. Đồi dược liệu thôn Rộc Éo — Nhà bà Châm, bà Phận</name><description>09:00 — Bạn ngược lên đồi dược liệu thôn Rộc Éo, nơi hai lương y người Mường còn gìn giữ nghề thuốc Nam gia truyền. Bạn ngồi bên các bà, được chỉ từng loại lá, tự tay hái một nắm thảo dược và nghe kể những bài thuốc theo người Mường qua bao đời. Cùng các bà, bạn ươm xuống đất một cây thuốc nhỏ.</description><styleUrl>#stop</styleUrl><Point><coordinates>105.6956717,20.6341967,0</coordinates></Point></Placemark>
  <Placemark><name>4. Thung Cánh</name><description>10:15 — Bạn đi tiếp vào Thung Cánh — thung lũng hoang sơ áp dụng mô hình 5 KHÔNG. Đứng giữa thung không bê tông, không công trình giả tạo, chỉ có gió núi và tiếng chim. Bạn có thể pha một ấm trà từ nắm thảo dược vừa hái, ngồi nghỉ và để buổi sáng chậm lại trọn vẹn.</description><styleUrl>#stop</styleUrl><Point><coordinates>105.7154,20.6123583,0</coordinates></Point></Placemark>
  <Placemark><name>5. Trở về Tourism Hub Đồi Dùng</name><description>11:30 — Bạn thong dong đi bộ trở về NVH Đồi Dùng. Mường Cốc gửi tặng quà lưu niệm cộng đồng — có thể là một gói trà thảo dược nhỏ tự tay bạn góp hái.</description><styleUrl>#stop</styleUrl><Point><coordinates>105.6897842,20.6224767,0</coordinates></Point></Placemark>
 </Document>
</kml>