<?xml version="1.0" encoding="UTF-8"?>
<kml xmlns="http://www.opengis.net/kml/2.2">
 <Document>
  <name>Cung đạp xe số 1 — Vòng Xe Xanh Mường Cốc</name>
  <description>Tuyến bám đường dân sinh (theo bản vẽ Ban điều phối). Đi: Hub→cụm Đông→Nhà thờ Bắc Sơn; Về theo đường làng (đường đỏ), KHÔNG đi đường Hồ Chí Minh. Dài ~12.4 km. 8 điểm dừng + lời giới thiệu.</description>
  <Style id="stop"><IconStyle><color>ff3ba300</color><scale>1.1</scale><Icon><href>http://maps.google.com/mapfiles/kml/paddle/grn-blank.png</href></Icon></IconStyle></Style>
  <Style id="route"><LineStyle><color>ff2f6a0a</color><width>5</width></LineStyle></Style>
  <Placemark><name>Tuyến đạp xe Cung 1 (đường dân sinh)</name><styleUrl>#route</styleUrl>
    <LineString><tessellate>1</tessellate><coordinates>105.6891178,20.6226476,0 105.6887531,20.6229187,0 105.6888389,20.6235011,0 105.6882595,20.6235412,0 105.6885814,20.6240333,0 105.6886697,20.6239984,0 105.6885599,20.6236115,0 105.6954049,20.6204184,0 105.6974649,20.6209606,0 105.6983597,20.6223352,0 105.6995772,20.6221444,0 105.6997489,20.6218833,0 105.7008647,20.6217829,0 105.7067521,20.6214058,0 105.7088978,20.6180117,0 105.7080395,20.615441,0 105.7085116,20.6147984,0 105.7135756,20.6131716,0 105.7147558,20.6123682,0 105.7194121,20.6120469,0 105.721236,20.6117657,0 105.7211317,20.6115692,0 105.7147159,20.6121316,0 105.7132997,20.6130153,0 105.7084717,20.6145216,0 105.7078709,20.6152245,0 105.7049702,20.6140828,0 105.7050775,20.6123154,0 105.705571,20.6111304,0 105.7077597,20.6098249,0 105.7120083,20.6085395,0 105.712172,20.608454,0 105.711232,20.608734,0 105.710272,20.60919,0 105.709635,20.60946,0 105.709589,20.609479,0 105.70816,20.609818,0 105.70786,20.609804,0 105.707816,20.609795,0 105.706992,20.610121,0 105.706748,20.610236,0 105.706643,20.610294,0 105.706106,20.610639,0 105.705842,20.610857,0 105.705832,20.610882,0 105.705751,20.611005,0 105.705417,20.611394,0 105.705352,20.6115,0 105.705316,20.611582,0 105.705297,20.611651,0 105.705163,20.612292,0 105.705078,20.612866,0 105.705069,20.612907,0 105.705063,20.612936,0 105.70504,20.613012,0 105.704877,20.613404,0 105.704862,20.613462,0 105.704858,20.613522,0 105.704908,20.613993,0 105.704913,20.61406,0 105.704913,20.614127,0 105.704807,20.614105,0 105.704189,20.613917,0 105.703899,20.613872,0 105.703634,20.613869,0 105.703266,20.613912,0 105.702757,20.614002,0 105.702212,20.614138,0 105.701815,20.614243,0 105.701646,20.614321,0 105.700563,20.614891,0 105.700176,20.615107,0 105.699892,20.615251,0 105.699779,20.615314,0 105.699669,20.615414,0 105.699425,20.615644,0 105.699003,20.616034,0 105.698678,20.616313,0 105.698548,20.616432,0 105.698412,20.616588,0 105.698086,20.61709,0 105.697964,20.617315,0 105.697875,20.617399,0 105.69782,20.617426,0 105.697746,20.617434,0 105.697606,20.617379,0 105.697593,20.617371,0 105.697443,20.617276,0 105.697164,20.617081,0 105.697084,20.617047,0 105.697033,20.61704,0 105.696975,20.617052,0 105.696479,20.617204,0 105.696416,20.617209,0 105.696319,20.617199,0 105.695727,20.61701,0 105.695523,20.616938,0 105.695398,20.616873,0 105.695374,20.616854,0 105.695355,20.616777,0 105.695362,20.616415,0 105.695354,20.616259,0 105.69533,20.616182,0 105.695306,20.616146,0 105.695177,20.616078,0 105.6943,20.615629,0 105.694075,20.61556,0 105.693791,20.616401,0 105.693562,20.61688,0 105.693515,20.616965,0 105.693337,20.617288,0 105.692877,20.618093,0 105.69203,20.619564,0 105.6913,20.620788,0 105.690351,20.62237,0 105.689987,20.623021,0 105.69014,20.622999,0 105.690236,20.622967,0 105.690397,20.622901,0 105.691014,20.622603,0 105.692326,20.621948,0 105.692434,20.622,0 105.69259,20.622054,0 105.692713,20.622083,0 105.693118,20.622141,0 105.693468,20.622212,0 105.694175,20.622343,0 105.694237,20.622359,0 105.694286,20.622362,0 105.694325,20.622338,0 105.694286,20.622362,0 105.694237,20.622359,0 105.694175,20.622343,0 105.693468,20.622212,0 105.693118,20.622141,0 105.692713,20.622083,0 105.69259,20.622054,0 105.692434,20.622,0 105.692326,20.621948,0 105.691305,20.622458,0 105.691014,20.622603,0 105.690397,20.622901,0 105.690236,20.622967,0 105.69014,20.622999,0 105.689987,20.623021,0 105.689867,20.62321,0 105.689547,20.623793,0 105.689263,20.624422,0 105.689131,20.624812,0 105.688645,20.624656,0 105.688696,20.62451,0 105.688804,20.624153,0 105.688815,20.624078,0 105.688818,20.624002,0 105.688828,20.623692,0 105.688836,20.62357,0 105.688856,20.623266,0 105.688854,20.623213,0 105.688841,20.623159,0 105.688748,20.622915,0 105.688633,20.622679,0</coordinates></LineString></Placemark>
    <Placemark><name>1. Tourism Hub Đồi Dùng</name>
      <description>07:30 · Xuất phát / Kết thúc — Điểm xuất phát và kết thúc tại Nhà Văn hoá thôn Đồi Dùng. Nhận xe đạp, mũ bảo hiểm, bản đồ tour; nhấp ly trà thảo dược và nghe giới thiệu cam kết 5 KHÔNG cùng mạng lưới Refill Station.</description>
      <styleUrl>#stop</styleUrl><Point><coordinates>105.6890814,20.6224869,0</coordinates></Point></Placemark>
    <Placemark><name>2. Chùa Phú Cốc</name>
      <description>08:00 · Di tích — Ngôi chùa cổ ẩn sau bóng cây đa, do người Mường gốc Hoà Bình dựng từ thuở khai khẩn vùng &quot;chín mươi chín quả đồi&quot;. Thắp một nén nhang, nghe chuyện tín ngưỡng của làng.</description>
      <styleUrl>#stop</styleUrl><Point><coordinates>105.6886697,20.6239984,0</coordinates></Point></Placemark>
    <Placemark><name>3. Bà Là Homestay</name>
      <description>08:30 · Giếng cổ · chuyện đời Mường — Nếp nhà hai ông bà người Mường với chiếc giếng gia đình nước lạnh buốt tay cả tháng Sáu. Bên ấm trà bếp củi, hai ông bà kể chuyện tuổi thơ, đám cưới Mường, ngày dựng nhà sàn đầu tiên.</description>
      <styleUrl>#stop</styleUrl><Point><coordinates>105.6885307,20.6245723,0</coordinates></Point></Placemark>
    <Placemark><name>4. Vườn Sim Cổ &amp; Rượu Sim</name>
      <description>09:30 · Sản phẩm OCOP — Vườn sim cổ còn chăm bằng tay. Tự tay hái sim tím mọng và thưởng thức rượu sim OCOP ủ từ chính nắng và gió của khu vườn nhà — sản vật đặc trưng Mường Cốc.</description>
      <styleUrl>#stop</styleUrl><Point><coordinates>105.692628,20.625145,0</coordinates></Point></Placemark>
    <Placemark><name>5. Gió Núi Farmstay</name>
      <description>10:30 · Vườn–Ao–Chuồng · Cỗ Lá 12:00 — Không gian Vườn – Ao – Chuồng: cho cá ăn, hái rau, thăm chuồng gà–vịt, xem dụng cụ nông–ngư nghiệp cổ. Trưa dùng bữa &quot;Cỗ Lá Mường&quot; farm-to-table trên lá chuối, không đĩa nhựa.</description>
      <styleUrl>#stop</styleUrl><Point><coordinates>105.698203,20.624187,0</coordinates></Point></Placemark>
    <Placemark><name>6. Thung Cánh</name>
      <description>13:30 · 5 KHÔNG · trồng cây — Thung lũng hoang sơ, không một mảnh bê tông — nơi áp dụng mô hình 5 KHÔNG. Mỗi vị khách trồng một cây xanh làm kỷ niệm và nhận Chứng nhận trồng cây.</description>
      <styleUrl>#stop</styleUrl><Point><coordinates>105.7138011,20.613597,0</coordinates></Point></Placemark>
    <Placemark><name>7. Trạm Chill Thung Cánh Farmstay</name>
      <description>14:30 · Massage lá thuốc Mường — Điểm dừng để chậm lại: massage chân lá thuốc Mường (ngải cứu, sả, lá lốt, gừng tươi), dạo vườn dược liệu, trà thảo dược tự hái pha ngay uống ngay.</description>
      <styleUrl>#stop</styleUrl><Point><coordinates>105.7214373,20.6116632,0</coordinates></Point></Placemark>
    <Placemark><name>8. Nhà Thờ Giáo Xứ Bắc Sơn</name>
      <description>15:30 · Tín ngưỡng — Thánh đường Công giáo tôn nhận Thánh Maria Mađalêna làm Đấng quan thầy; khởi nguồn từ cộng đồng chài lưới dựng nhà nguyện tre nứa 1951, khánh thành 2011, thành Giáo xứ 2021. Sáng chùa Phật giáo, chiều thánh đường Công giáo — dung hợp văn hoá hài hoà.</description>
      <styleUrl>#stop</styleUrl><Point><coordinates>105.7122936,20.608813,0</coordinates></Point></Placemark>
 </Document>
</kml>