<?xml version="1.0" encoding="UTF-8"?>
<kml xmlns="http://www.opengis.net/kml/2.2">
 <Document>
  <name>Xanh Giữa Lòng Mường Cốc</name>
  <description>Tuyến tự động dựng bằng OSRM (cycling). 8 điểm dừng. ~12 – 14 km. CẢNH BÁO: route có thể bám đường lớn (Hồ Chí Minh) — kiểm tra và chỉnh trong My Maps để bám đường dân sinh.</description>
  <Style id="stop"><IconStyle><color>ff3ba300</color><scale>1.1</scale><Icon><href>http://maps.google.com/mapfiles/kml/paddle/grn-blank.png</href></Icon></IconStyle></Style>
  <Style id="stopact"><IconStyle><color>ff0a78ff</color><scale>1.0</scale><Icon><href>http://maps.google.com/mapfiles/kml/paddle/orange-blank.png</href></Icon></IconStyle></Style>
  <Style id="route"><LineStyle><color>ff2f6a0a</color><width>5</width></LineStyle></Style>
  <Placemark><name>Tuyến Xanh Giữa Lòng Mường Cốc (OSRM cycling — kiểm tra tránh đường HCM)</name><styleUrl>#route</styleUrl><LineString><tessellate>1</tessellate><coordinates>105.690182,20.622672,0 105.689987,20.623021,0 105.689867,20.62321,0 105.689547,20.623793,0 105.689263,20.624422,0 105.689131,20.624812,0 105.689099,20.624889,0 105.688862,20.625535,0 105.688624,20.626025,0 105.688446,20.626281,0 105.688246,20.626486,0 105.687964,20.626705,0 105.68768,20.626879,0 105.68735,20.627,0 105.687076,20.627066,0 105.686759,20.62713,0 105.686177,20.627161,0 105.685781,20.627231,0 105.68541,20.627346,0 105.684744,20.626255,0 105.684578,20.625934,0 105.684448,20.625653,0 105.684317,20.625302,0 105.684286,20.625187,0 105.684197,20.624777,0 105.684154,20.62458,0 105.684106,20.624302,0 105.684097,20.624246,0 105.68405,20.623897,0 105.68392,20.622913,0 105.683889,20.622543,0 105.683876,20.622466,0 105.683854,20.622414,0 105.683823,20.622362,0 105.683682,20.622188,0 105.684325,20.622214,0 105.684848,20.621577,0 105.684876,20.621524,0 105.684881,20.621465,0 105.684874,20.621405,0 105.684846,20.62136,0 105.684801,20.621327,0 105.684747,20.621302,0 105.684549,20.621243,0 105.684525,20.621224,0 105.684508,20.62119,0 105.684472,20.620851,0 105.684484,20.620804,0 105.684529,20.620743,0 105.684742,20.620557,0 105.684529,20.620743,0 105.684484,20.620804,0 105.684472,20.620851,0 105.684508,20.62119,0 105.684525,20.621224,0 105.684549,20.621243,0 105.684747,20.621302,0 105.684801,20.621327,0 105.684846,20.62136,0 105.684874,20.621405,0 105.684877,20.621427,0 105.684881,20.621465,0 105.684876,20.621524,0 105.684848,20.621577,0 105.684325,20.622214,0 105.683682,20.622188,0 105.683823,20.622362,0 105.683854,20.622414,0 105.683876,20.622466,0 105.683889,20.622543,0 105.68392,20.622913,0 105.68405,20.623897,0 105.684097,20.624246,0 105.684106,20.624302,0 105.684154,20.62458,0 105.684197,20.624777,0 105.684286,20.625187,0 105.684317,20.625302,0 105.684448,20.625653,0 105.684578,20.625934,0 105.684744,20.626255,0 105.68541,20.627346,0 105.686801,20.629851,0 105.687068,20.629745,0 105.687543,20.629598,0 105.688269,20.629382,0 105.689836,20.628919,0 105.690902,20.628619,0 105.690794,20.628384,0 105.690503,20.627753,0 105.69028,20.627256,0 105.690058,20.626765,0 105.689855,20.626324,0 105.689794,20.626184,0 105.689765,20.626118,0 105.689575,20.625707,0 105.689431,20.625397,0 105.689322,20.625171,0 105.689271,20.625075,0 105.689131,20.624812,0 105.689099,20.624889,0 105.688862,20.625535,0 105.688624,20.626025,0 105.688446,20.626281,0 105.688246,20.626486,0 105.687964,20.626705,0 105.68768,20.626879,0 105.68735,20.627,0 105.687076,20.627066,0 105.686759,20.62713,0 105.686177,20.627161,0 105.685781,20.627231,0 105.68541,20.627346,0 105.684744,20.626255,0 105.684578,20.625934,0 105.684448,20.625653,0 105.684317,20.625302,0 105.684286,20.625187,0 105.684197,20.624777,0 105.684154,20.62458,0 105.684106,20.624302,0 105.684097,20.624246,0 105.68405,20.623897,0 105.68392,20.622913,0 105.683889,20.622543,0 105.683876,20.622466,0 105.683854,20.622414,0 105.683823,20.622362,0 105.683682,20.622188,0 105.683144,20.62172,0 105.682897,20.621501,0 105.682738,20.621383,0 105.682685,20.621377,0 105.682627,20.621378,0 105.682352,20.62149,0 105.682152,20.621571,0 105.682071,20.621592,0 105.681915,20.621615,0 105.681711,20.62163,0 105.681565,20.62163,0 105.681391,20.621618,0 105.681234,20.621592,0 105.680888,20.621506,0 105.680254,20.621433,0 105.680177,20.621418,0 105.680106,20.6214,0 105.678532,20.62101,0 105.678703,20.62079,0 105.678762,20.620712,0 105.678798,20.620675,0 105.678909,20.620607,0 105.678992,20.620562,0 105.679126,20.620509,0 105.679263,20.620484,0 105.679207,20.620494,0 105.679126,20.620509,0 105.678992,20.620562,0 105.678909,20.620607,0 105.678798,20.620675,0 105.678762,20.620712,0 105.678703,20.62079,0 105.678532,20.62101,0 105.680106,20.6214,0 105.680177,20.621418,0 105.680254,20.621433,0 105.680888,20.621506,0 105.681234,20.621592,0 105.681391,20.621618,0 105.681565,20.62163,0 105.681711,20.62163,0 105.681915,20.621615,0 105.682071,20.621592,0 105.682152,20.621571,0 105.682352,20.62149,0 105.682627,20.621378,0 105.682685,20.621377,0 105.682738,20.621383,0 105.682897,20.621501,0 105.683144,20.62172,0 105.683682,20.622188,0 105.683823,20.622362,0 105.683854,20.622414,0 105.683876,20.622466,0 105.683889,20.622543,0 105.68392,20.622913,0 105.68405,20.623897,0 105.684097,20.624246,0 105.684106,20.624302,0 105.684154,20.62458,0 105.684197,20.624777,0 105.684286,20.625187,0 105.684317,20.625302,0 105.684448,20.625653,0 105.684578,20.625934,0 105.684744,20.626255,0 105.68541,20.627346,0 105.685781,20.627231,0 105.686177,20.627161,0 105.686759,20.62713,0 105.687076,20.627066,0 105.68735,20.627,0 105.68768,20.626879,0 105.687964,20.626705,0 105.688246,20.626486,0 105.688446,20.626281,0 105.688624,20.626025,0 105.688862,20.625535,0 105.689099,20.624889,0 105.689131,20.624812,0 105.689322,20.625171,0 105.689431,20.625397,0 105.689575,20.625707,0 105.689765,20.626118,0 105.689794,20.626184,0 105.689855,20.626324,0 105.690058,20.626765,0 105.69028,20.627256,0 105.690503,20.627753,0 105.690794,20.628384,0 105.690902,20.628619,0 105.691019,20.628876,0 105.692242,20.628434,0 105.693698,20.627902,0 105.694066,20.62778,0 105.694884,20.62754,0 105.696022,20.627203,0 105.697011,20.626924,0 105.697562,20.626776,0 105.698507,20.626515,0 105.699264,20.626311,0 105.699244,20.626083,0 105.699175,20.625505,0 105.699063,20.624804,0 105.698999,20.624576,0 105.698948,20.624398,0 105.698851,20.624085,0 105.698763,20.623799,0 105.698755,20.623765,0 105.698735,20.623627,0 105.698703,20.623468,0 105.698668,20.623289,0 105.698638,20.623132,0 105.698597,20.622983,0 105.698253,20.62214,0 105.697934,20.621518,0 105.697742,20.621172,0 105.697678,20.621089,0 105.697632,20.621033,0 105.697567,20.620981,0 105.697471,20.620935,0 105.69736,20.620918,0 105.696814,20.620809,0 105.696432,20.620725,0 105.696327,20.620697,0 105.696193,20.620653,0 105.695937,20.620557,0 105.695708,20.620453,0 105.695646,20.62043,0 105.695598,20.620412,0 105.695542,20.620405,0 105.695466,20.620407,0 105.695377,20.620436,0 105.695069,20.620588,0 105.692358,20.621932,0 105.692326,20.621948,0 105.691014,20.622603,0 105.690397,20.622901,0 105.690236,20.622967,0 105.69014,20.622999,0 105.689987,20.623021,0 105.690182,20.622672,0 105.690351,20.62237,0 105.6913,20.620788,0 105.69203,20.619564,0 105.692877,20.618093,0 105.693337,20.617288,0 105.693515,20.616965,0 105.693562,20.61688,0 105.693791,20.616401,0 105.694075,20.61556,0 105.6943,20.615629,0 105.695177,20.616078,0 105.695306,20.616146,0 105.69533,20.616182,0 105.695354,20.616259,0 105.695362,20.616415,0 105.695355,20.616777,0 105.695374,20.616854,0 105.695398,20.616873,0 105.695523,20.616938,0 105.695727,20.61701,0 105.696319,20.617199,0 105.696416,20.617209,0 105.696479,20.617204,0 105.696975,20.617052,0 105.697033,20.61704,0 105.697084,20.617047,0 105.697164,20.617081,0 105.697443,20.617276,0 105.697606,20.617379,0 105.697746,20.617434,0 105.69782,20.617426,0 105.697875,20.617399,0 105.697964,20.617315,0 105.698086,20.61709,0 105.698412,20.616588,0 105.698548,20.616432,0 105.698678,20.616313,0 105.699003,20.616034,0 105.699425,20.615644,0 105.699669,20.615414,0 105.699779,20.615314,0 105.699892,20.615251,0 105.700176,20.615107,0 105.700563,20.614891,0 105.701646,20.614321,0 105.701815,20.614243,0 105.702212,20.614138,0 105.702757,20.614002,0 105.703266,20.613912,0 105.703634,20.613869,0 105.703899,20.613872,0 105.704189,20.613917,0 105.704807,20.614105,0 105.704913,20.614127,0 105.705788,20.614474,0 105.706544,20.61477,0 105.707933,20.615323,0 105.708033,20.615363,0 105.708113,20.615373,0 105.708196,20.615333,0 105.708628,20.614814,0 105.708698,20.614738,0 105.708757,20.614696,0 105.708825,20.614662,0 105.708916,20.614633,0 105.709207,20.614534,0 105.709709,20.614384,0 105.710253,20.614143,0 105.710817,20.613972,0 105.711308,20.613835,0 105.71143,20.613804,0 105.71151,20.613782,0 105.711548,20.613749,0 105.711605,20.613696,0 105.711656,20.613661,0 105.711718,20.613641,0 105.71184,20.613603,0 105.711986,20.61356,0 105.712154,20.613516,0 105.712354,20.613442,0 105.712423,20.61342,0 105.7125,20.613382,0 105.712592,20.613314,0 105.712662,20.613282,0 105.712761,20.613244,0 105.71283,20.613226,0 105.712958,20.613208,0 105.713091,20.613179,0 105.713204,20.613143,0 105.713331,20.6131,0 105.713422,20.613082,0 105.713526,20.613074,0 105.71368,20.613057,0 105.713861,20.612983,0 105.714022,20.612923,0 105.714238,20.612795,0 105.714379,20.612689,0 105.714542,20.612546,0 105.714725,20.612418,0 105.714878,20.612368,0 105.715005,20.612336,0 105.715143,20.612328,0 105.715272,20.612343,0 105.715421,20.612364,0 105.715621,20.612363,0 105.715934,20.612302,0 105.716227,20.612265,0 105.716522,20.612262,0 105.716736,20.612257,0 105.717168,20.612215,0 105.717718,20.612132,0 105.718088,20.612107,0 105.718434,20.612092,0 105.718088,20.612107,0 105.717718,20.612132,0 105.717168,20.612215,0 105.716736,20.612257,0 105.716522,20.612262,0 105.716227,20.612265,0 105.715934,20.612302,0 105.715621,20.612363,0 105.715421,20.612364,0 105.7154,20.612361,0 105.715272,20.612343,0 105.715143,20.612328,0 105.715005,20.612336,0 105.714878,20.612368,0 105.714725,20.612418,0 105.714542,20.612546,0 105.714379,20.612689,0 105.714238,20.612795,0 105.714022,20.612923,0 105.713861,20.612983,0 105.71368,20.613057,0 105.713526,20.613074,0 105.713422,20.613082,0 105.713331,20.6131,0 105.713204,20.613143,0 105.713091,20.613179,0 105.712958,20.613208,0 105.71283,20.613226,0 105.712761,20.613244,0 105.712662,20.613282,0 105.712592,20.613314,0 105.7125,20.613382,0 105.712423,20.61342,0 105.712354,20.613442,0 105.712154,20.613516,0 105.711986,20.61356,0 105.71184,20.613603,0 105.711718,20.613641,0 105.711656,20.613661,0 105.711605,20.613696,0 105.711548,20.613749,0 105.71151,20.613782,0 105.71143,20.613804,0 105.711308,20.613835,0 105.710817,20.613972,0 105.710253,20.614143,0 105.709709,20.614384,0 105.709207,20.614534,0 105.708916,20.614633,0 105.708825,20.614662,0 105.708757,20.614696,0 105.708698,20.614738,0 105.708628,20.614814,0 105.708196,20.615333,0 105.708113,20.615373,0 105.708033,20.615363,0 105.707933,20.615323,0 105.706544,20.61477,0 105.705788,20.614474,0 105.704913,20.614127,0 105.704807,20.614105,0 105.704189,20.613917,0 105.703899,20.613872,0 105.703634,20.613869,0 105.703266,20.613912,0 105.702757,20.614002,0 105.702212,20.614138,0 105.701815,20.614243,0 105.701646,20.614321,0 105.700563,20.614891,0 105.700176,20.615107,0 105.699892,20.615251,0 105.699779,20.615314,0 105.699669,20.615414,0 105.699425,20.615644,0 105.699003,20.616034,0 105.698678,20.616313,0 105.698548,20.616432,0 105.698412,20.616588,0 105.698086,20.61709,0 105.697964,20.617315,0 105.697875,20.617399,0 105.69782,20.617426,0 105.697746,20.617434,0 105.697606,20.617379,0 105.697443,20.617276,0 105.697164,20.617081,0 105.697084,20.617047,0 105.697033,20.61704,0 105.696975,20.617052,0 105.696479,20.617204,0 105.696416,20.617209,0 105.696319,20.617199,0 105.695727,20.61701,0 105.695523,20.616938,0 105.695398,20.616873,0 105.695374,20.616854,0 105.695355,20.616777,0 105.695362,20.616415,0 105.695354,20.616259,0 105.69533,20.616182,0 105.695306,20.616146,0 105.695177,20.616078,0 105.6943,20.615629,0 105.694075,20.61556,0 105.693791,20.616401,0 105.693562,20.61688,0 105.693515,20.616965,0 105.693337,20.617288,0 105.692877,20.618093,0 105.69203,20.619564,0 105.6913,20.620788,0 105.690351,20.62237,0 105.690182,20.622672,0</coordinates></LineString></Placemark>
  <Placemark><name>1. Tourism Hub Đồi Dùng</name><description>08:00 — Hướng dẫn viên người Mường đón bạn bằng một ly trà thảo dược. Giới thiệu ngắn về Mường Cốc, cam kết 5 KHÔNG, mạng lưới Refill Station. Bạn nhận xe đạp, mũ bảo hiểm và bản đồ tour.</description><styleUrl>#stop</styleUrl><Point><coordinates>105.6897842,20.6224767,0</coordinates></Point></Placemark>
  <Placemark><name>2. Đạp xe quanh hồ Baibóo</name><description>08:20 — Hồ Baibóo nằm giữa thôn Đồi Dùng và Gốc Báng, như một viên ngọc bích — vòng hồ chừng 4 km, mặt nước soi bóng cây dổi và các cung đường hoa. Bạn có thể câu cá, liên hoan ẩm thực Mường trên bè nổi, hay cắm trại trong vườn dổi ven bờ. Hôm nay, bạn thong dong đạp xe men theo bờ hồ.</description><styleUrl>#stop</styleUrl><Point><coordinates>105.6860667,20.621305,0</coordinates></Point></Placemark>
  <Placemark><name>3. Vườn Hoa Núi</name><description>09:00 — Bạn ghé Vườn Hoa Núi rợp sắc hoa, chiêm ngưỡng cảnh quan và lưu lại những khung hình giữa vườn — một điểm check-in dịu dàng của vùng, có thể kết hợp thưởng thức đôi món ẩm thực dân tộc.</description><styleUrl>#stop</styleUrl><Point><coordinates>105.6891633,20.625125,0</coordinates></Point></Placemark>
  <Placemark><name>4. Đình Phú Cốc &amp; Nhà văn hoá dân tộc</name><description>09:45 — Đình Phú Cốc — đại đình chung của các thôn người Mường, thờ Nhị vị Thánh Mẫu Từ Quang – Từ Minh. Bên cạnh, Nhà văn hoá dân tộc (thôn Đình) mở các lớp truyền dạy cồng chiêng, hát dân ca và nhạc cụ dân tộc, đồng thời là điểm kết nối văn nghệ, ẩm thực dân tộc.</description><styleUrl>#stop</styleUrl><Point><coordinates>105.6791833,20.6203792,0</coordinates></Point></Placemark>
  <Placemark><name>5. Gió Núi Farmstay</name><description>10:30 — Không gian nông nghiệp tổng hợp Vườn — Ao — Chuồng. Bạn cho cá ăn, hái rau, thăm chuồng gà — vịt và xem khu trưng bày những dụng cụ nông — ngư nghiệp cổ của người Mường.</description><styleUrl>#stop</styleUrl><Point><coordinates>105.6982,20.623555,0</coordinates></Point></Placemark>
  <Placemark><name>6. Bữa trưa Cỗ Lá Mường</name><description>12:00 — Trên bàn tre, mâm Cỗ Lá Mường bày trên lá chuối tươi, không một chiếc đĩa nhựa. Nguyên liệu 100% địa phương, vừa hái sáng nay — bữa ăn farm-to-table đúng nghĩa.</description><styleUrl>#stop</styleUrl><Point><coordinates>105.6897842,20.6224767,0</coordinates></Point></Placemark>
  <Placemark><name>7. Thung Cánh</name><description>13:30 — Thung lũng hoang sơ giữa lòng Mường Cốc, nơi áp dụng mô hình 5 KHÔNG. Mỗi vị khách trồng một cây nhỏ làm kỷ niệm — một khóm hoa bản địa hoặc cây dược liệu — nhận Chứng nhận trồng cây. Giữa thung chỉ có gió núi và tiếng chim.</description><styleUrl>#stop</styleUrl><Point><coordinates>105.7154,20.6123583,0</coordinates></Point></Placemark>
  <Placemark><name>8. Trở về Tourism Hub Đồi Dùng</name><description>~15:00 — Bạn đạp xe trở về NVH Đồi Dùng, trả xe và mũ. Mường Cốc gửi tặng quà lưu niệm cộng đồng.</description><styleUrl>#stop</styleUrl><Point><coordinates>105.6897842,20.6224767,0</coordinates></Point></Placemark>
 </Document>
</kml>