<?xml version="1.0" encoding="UTF-8"?>
<kml xmlns="http://www.opengis.net/kml/2.2"><Document>
  <name>Mường Cốc — Cảnh quan thiên nhiên</name>
  <Style id="poi"><IconStyle><color>ff00aa00</color><scale>1.0</scale><Icon><href>http://maps.google.com/mapfiles/kml/paddle/grn-blank.png</href></Icon></IconStyle><LabelStyle><scale>0.8</scale></LabelStyle></Style>
  <Placemark>
    <name>Đồi hoa kèn hồng</name>
    <styleUrl>#poi</styleUrl>
    <description><![CDATA[<p>Điểm thuộc loại <b>Hồ</b>, thôn Bơ Môi.</p>]]></description>
    <Point><coordinates>105.6705467,20.6213133,0</coordinates></Point>
  </Placemark>
  <Placemark>
    <name>Đồi Dược liệu</name>
    <styleUrl>#poi</styleUrl>
    <description><![CDATA[<p>Điểm thuộc loại <b>Đồi dược liệu</b>, thôn Bơ Môi.</p>]]></description>
    <Point><coordinates>105.6956717,20.6341967,0</coordinates></Point>
  </Placemark>
  <Placemark>
    <name>Hồ Baibóo</name>
    <styleUrl>#poi</styleUrl>
    <description><![CDATA[<p>Điểm thuộc loại <b>Hồ</b>, thôn Gốc Báng.</p>]]></description>
    <Point><coordinates>105.6860667,20.621305,0</coordinates></Point>
  </Placemark>
  <Placemark>
    <name>Thung Cánh</name>
    <styleUrl>#poi</styleUrl>
    <description><![CDATA[<p>Điểm thuộc loại <b>Thung</b>, thôn Thanh Hà.</p>]]></description>
    <Point><coordinates>105.7154,20.6123583,0</coordinates></Point>
  </Placemark>
  <Placemark>
    <name>Rừng Tràm</name>
    <styleUrl>#poi</styleUrl>
    <description><![CDATA[<p>Điểm thuộc loại <b>Rừng</b>, thôn Đồng Văn.</p><p><b>Dịch vụ:</b><br/><i>Toạ độ TẠM (tâm thôn Đồng Văn) — kéo lại đúng vị trí</i></p>]]></description>
    <Point><coordinates>105.70118666666667,20.62005,0</coordinates></Point>
  </Placemark>
  <Placemark>
    <name>Hang Hổ</name>
    <styleUrl>#poi</styleUrl>
    <description><![CDATA[<p>Điểm thuộc loại <b>Hang</b>, thôn Đức Dương.</p>]]></description>
    <Point><coordinates>105.6918717,20.64078,0</coordinates></Point>
  </Placemark>
  <Placemark>
    <name>Thung Cấm</name>
    <styleUrl>#poi</styleUrl>
    <description><![CDATA[<p>Điểm thuộc loại <b>Thung</b>, thôn Đức Dương.</p>]]></description>
    <Point><coordinates>105.7154,20.6123583,0</coordinates></Point>
  </Placemark>
</Document></kml>
