<?xml version="1.0" encoding="UTF-8"?>
<kml xmlns="http://www.opengis.net/kml/2.2"><Document>
  <name>Mường Cốc — Lưu trú (homestay / farmstay)</name>
  <Style id="poi"><IconStyle><color>ff3399ff</color><scale>1.0</scale><Icon><href>http://maps.google.com/mapfiles/kml/paddle/orange-blank.png</href></Icon></IconStyle><LabelStyle><scale>0.8</scale></LabelStyle></Style>
  <Placemark>
    <name>Bà Là Homestay</name>
    <styleUrl>#poi</styleUrl>
    <description><![CDATA[🇻🇳 Bà Là Homestay là ngôi nhà vườn của đôi vợ chồng người Mường, dựng từ thập niên 1980–1990 theo lối kiến trúc quen thuộc của bản Mường Cốc, sân vườn thoáng đãng và chiếc giếng gia đình còn dùng đến nay. Sức hút lớn nhất là chính ông bà chủ nhà — những người Mường thuần tuý nhiều câu chuyện đời sống, phong tục và ký ức Mường Cốc trước đổi mới. Bà Là am hiểu thảo dược, thường đãi khách chén trà thảo mộc tự chế.

🇬🇧 Bà Là Homestay is the garden house of a Muong couple, built in the 1980s–90s in the village's traditional style, with an airy yard and a family well still in use. Its greatest charm is the hosts themselves — genuine Muong elders full of stories about local life, customs and pre-reform memories. Bà Là knows herbal medicine and often welcomes guests with her homemade herbal tea.

🇫🇷 Bà Là Homestay est la maison-jardin d'un couple Mường, bâtie dans les années 1980–90 selon le style traditionnel du village, avec une cour aérée et un puits familial encore utilisé. Son plus grand charme, ce sont les hôtes eux-mêmes — d'authentiques anciens Mường riches d'histoires sur la vie locale, les coutumes et les souvenirs d'avant le Đổi Mới. Bà Là connaît les plantes médicinales et offre souvent aux visiteurs sa tisane maison.

📞 Chủ hộ / Host: Nguyễn Quốc Huấn]]></description>
    <Point><coordinates>105.6886883,20.6243,0</coordinates></Point>
  </Placemark>
  <Placemark>
    <name>Homestay Mường Duy</name>
    <styleUrl>#poi</styleUrl>
    <description><![CDATA[🇻🇳 Homestay Mường Duy toạ lạc trên khu đất rộng ven hồ Baibóo thôn Đồi Dùng, phong cảnh mở ra với mặt hồ yên tĩnh và vườn cây xanh mát. Điểm nhấn kiến trúc là những công trình xây bằng đá ong — vật liệu bản địa đặc trưng vùng đồi núi Mỹ Đức. Gia đình chủ hộ là người Mường nhiều thế hệ, đón khách như người thân: ngủ cùng mái nhà, ăn cùng mâm cơm, hoà vào nhịp sống chậm của bản Mường.

🇬🇧 Homestay Mường Duy sits on a wide plot by Baibóo Lake in Đồi Dùng hamlet, opening onto calm water and a cool green garden. Its architectural signature is the laterite-stone buildings — a local material typical of the Mỹ Đức hills. The Muong host family, here for generations, welcomes guests like relatives: share the roof, share the meal, slip into the village's slow rhythm.

🇫🇷 Homestay Mường Duy s'étend sur un vaste terrain au bord du lac Baibóo, dans le hameau de Đồi Dùng, ouvert sur l'eau paisible et un jardin verdoyant. Sa signature : des bâtiments en pierre de latérite, matériau local des collines de Mỹ Đức. La famille Mường, installée depuis des générations, accueille les visiteurs comme des proches : même toit, même repas, au rythme lent du village.

📞 Chủ hộ / Host: Cao Vũ Bảy — ĐT/Tel: 0972940657]]></description>
    <Point><coordinates>105.68662,20.6211,0</coordinates></Point>
  </Placemark>
  <Placemark>
    <name>Homestay Đồi Núi (ẩm thực &amp; trải nghiệm xe đạp)</name>
    <styleUrl>#poi</styleUrl>
    <description><![CDATA[🇻🇳 Homestay Đồi Núi tại thôn Đồi Dùng kết hợp lưu trú với ẩm thực dân tộc và dịch vụ cho thuê xe đạp trải nghiệm các cung quanh Mường Cốc. Vị trí thuận tiện gần hồ Baibóo và Tourism Hub, phù hợp khách muốn vừa nghỉ vừa khám phá bản làng bằng xe đạp.

🇬🇧 In Đồi Dùng hamlet, Homestay Đồi Núi combines lodging with ethnic cuisine and bicycle rental to explore the routes around Mường Cốc. Conveniently close to Baibóo Lake and the Tourism Hub, it suits guests who want to rest and discover the village by bike.

🇫🇷 Dans le hameau de Đồi Dùng, Homestay Đồi Núi associe hébergement, cuisine ethnique et location de vélos pour parcourir les itinéraires autour de Mường Cốc. Idéalement proche du lac Baibóo et du Tourism Hub, il convient à ceux qui veulent se reposer et explorer le village à vélo.

📞 Chủ hộ / Host: Chu Văn Kiền — ĐT/Tel: 0964017236]]></description>
    <Point><coordinates>105.68631,20.62209,0</coordinates></Point>
  </Placemark>
  <Placemark>
    <name>Homestay Baiboo Ông Doanh</name>
    <styleUrl>#poi</styleUrl>
    <description><![CDATA[🇻🇳 Homestay Baiboo Ông Doanh là điểm lưu trú cộng đồng mộc mạc tại thôn Đồi Dùng, cạnh hồ Baibóo. Gia đình có nghề mộc truyền thống, dấu ấn thể hiện qua chính ngôi nhà và các vật dụng. Đang hoàn thiện đường vào nhưng không gian nhà ở đã sẵn sàng đón khách muốn trải nghiệm lưu trú bản địa đích thực — chỉ có sự bình yên của làng Mường và hơi thở hồ Baibóo trước cửa.

🇬🇧 Homestay Baiboo Ông Doanh is a rustic community stay in Đồi Dùng hamlet, beside Baibóo Lake. The family keeps a traditional carpentry craft, seen in the house itself and its furnishings. The access road is being finished, but the home is ready for guests seeking an authentic local stay — only the peace of the Muong village and the breath of Baibóo Lake at the door.

🇫🇷 Homestay Baiboo Ông Doanh est un hébergement communautaire rustique dans le hameau de Đồi Dùng, au bord du lac Baibóo. La famille perpétue la menuiserie traditionnelle, visible dans la maison et son mobilier. Le chemin d'accès s'achève, mais la maison accueille déjà les visiteurs en quête d'un séjour local authentique — rien que la quiétude du village Mường et le souffle du lac devant la porte.

📞 Chủ hộ / Host: Trần Văn Doanh (Tám)]]></description>
    <Point><coordinates>105.68671,20.61913,0</coordinates></Point>
  </Placemark>
  <Placemark>
    <name>Trải nghiệm nhà sàn — nhà bà Diển</name>
    <styleUrl>#poi</styleUrl>
    <description><![CDATA[🇻🇳 Ngay đối diện Nhà văn hoá thôn Đồi Dùng, ngôi nhà sàn của bà Bạch Thị Diển đứng giữa vườn cây như một dấu tích sống của kiến trúc ở truyền thống người Mường — sàn gỗ chắc chắn, khoảng không bên dưới thông thoáng. Bà Diển tiếp đón khách, giải thích kỹ thuật dựng nhà sàn, cách chọn gỗ, sắp xếp không gian sinh hoạt theo quan niệm người Mường và những đổi thay của bản làng qua nhiều thập kỷ.

🇬🇧 Right opposite the Đồi Dùng community house, the stilt house of Mrs Bạch Thị Diển stands amid a garden as a living relic of traditional Muong dwelling — a solid timber floor with open space beneath. Mrs Diển welcomes guests and explains how stilt houses are built, how timber is chosen, how living space is arranged in the Muong worldview, and how the village has changed over decades.

🇫🇷 Juste en face de la maison communale de Đồi Dùng, la maison sur pilotis de Mme Bạch Thị Diển se dresse dans un jardin comme une relique vivante de l'habitat Mường — plancher de bois robuste, espace ouvert en dessous. Mme Diển accueille les visiteurs et explique la construction des maisons sur pilotis, le choix du bois, l'agencement de l'espace selon la pensée Mường et les mutations du village au fil des décennies.

📞 Chủ hộ / Host: Bạch Thị Diển — ĐT/Tel: 0362343659]]></description>
    <Point><coordinates>105.68161,20.62166,0</coordinates></Point>
  </Placemark>
  <Placemark>
    <name>Gió Núi Farmstay (Nhà vườn 583)</name>
    <styleUrl>#poi</styleUrl>
    <description><![CDATA[🇻🇳 Gió Núi Farmstay là điểm trải nghiệm nông nghiệp đậm nếp sống Mường tại khu Đồi Dùng/Đồng Văn, vận hành mô hình Vườn – Ao – Chuồng theo lối canh tác truyền thống. Điểm đặc trưng là không gian trưng bày ngoài trời nhiều dụng cụ nông – ngư nghiệp cổ (bừa, cày, rổ đánh cá, lờ lợp) lưu giữ qua nhiều thế hệ — một "bảo tàng sống" giản dị nơi khách cầm, ngắm và nghe kể chuyện từng hiện vật.

🇬🇧 Gió Núi Farmstay is an agricultural experience steeped in Muong life at Đồi Dùng/Đồng Văn, running a traditional Garden–Pond–Livestock model. Its highlight is an open-air display of old farming and fishing tools (harrows, ploughs, fish baskets, traps) kept over generations — a humble "living museum" where guests handle, observe and hear each piece's story.

🇫🇷 Gió Núi Farmstay est une expérience agricole imprégnée de vie Mường à Đồi Dùng/Đồng Văn, fondée sur le modèle traditionnel Jardin–Étang–Élevage. Son point fort : une exposition en plein air d'anciens outils agricoles et de pêche (herses, charrues, nasses, pièges) conservés sur plusieurs générations — un « musée vivant » où l'on touche, observe et écoute l'histoire de chaque objet.

📞 Chủ hộ / Host: Nguyễn Quốc Tuấn & Lê Thị Hải Yến — ĐT/Tel: 0373030292]]></description>
    <Point><coordinates>105.70118666666667,20.62005,0</coordinates></Point>
  </Placemark>
</Document></kml>
