<?xml version="1.0" encoding="UTF-8"?>
<kml xmlns="http://www.opengis.net/kml/2.2"><Document>
  <name>Tuyến — Tour 3N2Đ — đến Hương Tích</name>
  <Style id="route"><LineStyle><color>ffcc6633</color><width>5</width></LineStyle></Style>
  <Placemark>
    <name>Tour 3N2Đ — đến Hương Tích</name>
    <styleUrl>#route</styleUrl>
    <LineString><tessellate>1</tessellate><coordinates>105.690182,20.622672,0 105.690351,20.62237,0 105.6913,20.620788,0 105.69203,20.619564,0 105.692877,20.618093,0 105.693337,20.617288,0 105.693515,20.616965,0 105.693562,20.61688,0 105.693791,20.616401,0 105.694075,20.61556,0 105.694322,20.61453,0 105.694793,20.612205,0 105.695046,20.610921,0 105.695344,20.6095,0 105.695965,20.606561,0 105.696448,20.604131,0 105.69647,20.604021,0 105.696969,20.601577,0 105.698108,20.602462,0 105.698247,20.602603,0 105.698281,20.602647,0 105.698846,20.603492,0 105.699182,20.603848,0 105.69969,20.603633,0 105.700201,20.603022,0 105.701263,20.603969,0 105.7031,20.605793,0 105.703644,20.606331,0 105.704512,20.606612,0 105.704598,20.606651,0 105.70501,20.606836,0 105.705133,20.606892,0 105.705988,20.606917,0 105.706129,20.607005,0 105.706305,20.607201,0 105.706378,20.607468,0 105.706415,20.60773,0 105.706486,20.607807,0 105.706987,20.608307,0 105.707327,20.609365,0 105.707816,20.609795,0 105.70786,20.609804,0 105.70816,20.609818,0 105.709589,20.609479,0 105.709635,20.60946,0 105.710272,20.60919,0 105.711232,20.608734,0 105.71253,20.608348,0 105.712565,20.608338,0 105.714516,20.607288,0 105.715687,20.606953,0 105.716658,20.606573,0 105.718273,20.605983,0 105.719655,20.605537,0 105.721235,20.604457,0 105.72147,20.604605,0 105.721597,20.604741,0 105.72187,20.604992,0 105.722154,20.60522,0 105.722578,20.605604,0 105.722975,20.606003,0 105.72318,20.606252,0 105.723213,20.606287,0 105.723242,20.606307,0 105.72328,20.606307,0 105.72332,20.606273,0 105.723371,20.606207,0 105.723442,20.606098,0</coordinates></LineString>
  </Placemark>
</Document></kml>
