<?xml version="1.0" encoding="UTF-8"?>
<kml xmlns="http://www.opengis.net/kml/2.2"><Document>
  <name>Tuyến — Kết nối · Quảng Phú Cầu</name>
  <Style id="route"><LineStyle><color>ffcc6633</color><width>5</width></LineStyle></Style>
  <Placemark>
    <name>Kết nối · Quảng Phú Cầu</name>
    <styleUrl>#route</styleUrl>
    <LineString><tessellate>1</tessellate><coordinates>105.805789,20.731022,0 105.804758,20.730258,0 105.804675,20.730206,0 105.804275,20.729953,0 105.803843,20.729681,0 105.80363,20.729565,0 105.803088,20.729343,0 105.802409,20.729139,0 105.801511,20.728836,0 105.80116,20.728697,0 105.800569,20.728462,0 105.799897,20.728356,0 105.799657,20.728318,0 105.798955,20.728296,0 105.798707,20.728288,0 105.798408,20.72827,0 105.79748,20.728214,0 105.797365,20.728208,0 105.795659,20.728238,0 105.795199,20.728246,0 105.794417,20.728301,0 105.793767,20.728346,0 105.79259,20.728283,0 105.792064,20.72821,0 105.791806,20.728174,0 105.791419,20.728206,0 105.791262,20.728219,0 105.791111,20.728231,0 105.790697,20.728213,0 105.789763,20.728171,0 105.788177,20.728101,0 105.787352,20.728089,0 105.786369,20.728106,0 105.785371,20.728056,0 105.784986,20.728058,0 105.784647,20.728044,0 105.783889,20.728028,0 105.783545,20.728034,0 105.782881,20.728039,0 105.7797,20.728964,0 105.779347,20.729074,0 105.778633,20.729298,0 105.77839,20.729399,0 105.778287,20.729427,0 105.778113,20.729468,0 105.777963,20.729522,0 105.777884,20.729538,0 105.777145,20.728843,0 105.777109,20.728812,0 105.775139,20.727103,0 105.774999,20.726982,0 105.774441,20.7265,0 105.774082,20.726224,0 105.773903,20.726071,0 105.773186,20.725456,0 105.77315,20.725417,0 105.772859,20.7251,0 105.772586,20.724822,0 105.77259,20.724794,0 105.772637,20.724427,0 105.772654,20.724205,0 105.772646,20.724033,0 105.77263,20.723887,0 105.772599,20.723763,0 105.772568,20.723679,0 105.772546,20.723617,0 105.77245,20.723457,0 105.772328,20.7233,0 105.77217,20.723125,0 105.772113,20.723065,0 105.771908,20.722839,0 105.771829,20.722745,0 105.771769,20.722669,0 105.771642,20.722531,0 105.771449,20.722341,0 105.771341,20.72224,0 105.771193,20.722078,0 105.770968,20.721751,0 105.770755,20.721425,0 105.77067,20.72133,0 105.770342,20.720957,0 105.770086,20.72067,0 105.76993,20.720527,0 105.769881,20.720487,0 105.769748,20.720378,0 105.769084,20.71984,0 105.76882,20.719626,0 105.768039,20.718976,0 105.767991,20.718926,0 105.767965,20.718877,0 105.767949,20.718826,0 105.767947,20.71876,0 105.767943,20.717389,0 105.767941,20.716875,0 105.767959,20.71637,0 105.767966,20.716065,0 105.767985,20.715686,0 105.76799,20.715483,0 105.767975,20.715329,0 105.767968,20.715221,0 105.76794,20.714996,0 105.767932,20.714944,0 105.767868,20.714526,0 105.767846,20.714384,0 105.767813,20.714192,0 105.767785,20.714083,0 105.767752,20.713984,0 105.767699,20.713869,0 105.767622,20.713699,0 105.7676,20.713624,0 105.767591,20.713552,0 105.767598,20.713448,0 105.767614,20.713145,0 105.767607,20.713044,0 105.767592,20.712943,0 105.76757,20.71285,0 105.767543,20.712755,0 105.76747,20.712529,0 105.767246,20.71186,0 105.767178,20.71164,0 105.767111,20.711432,0 105.767071,20.711261,0 105.767064,20.71123,0 105.766982,20.710845,0 105.76697,20.710786,0 105.766926,20.710619,0 105.766863,20.710482,0 105.766723,20.71021,0 105.766239,20.709273,0 105.765836,20.708491,0 105.765722,20.708285,0 105.765498,20.70788,0 105.765408,20.707752,0 105.765315,20.707638,0 105.76522,20.707549,0 105.765099,20.707453,0 105.764954,20.707362,0 105.764453,20.707052,0 105.764356,20.706984,0 105.764266,20.706906,0 105.76419,20.70682,0 105.76414,20.706752,0 105.764095,20.706672,0 105.764067,20.706603,0 105.76406,20.706584,0 105.763953,20.706195,0 105.763913,20.706081,0 105.763858,20.705957,0 105.763666,20.70559,0 105.763575,20.705425,0 105.763473,20.705269,0 105.763274,20.705013,0 105.76318,20.704891,0 105.763102,20.704758,0 105.763015,20.704567,0 105.762751,20.703965,0 105.762377,20.703197,0 105.762317,20.703055,0 105.762275,20.702915,0 105.76225,20.702785,0 105.762241,20.702651,0 105.762249,20.702499,0 105.762264,20.70226,0 105.762259,20.701938,0 105.762194,20.701129,0 105.762119,20.70015,0 105.762125,20.699995,0 105.762131,20.699934,0 105.762183,20.699663,0 105.762194,20.699609,0 105.762223,20.699419,0 105.762224,20.699267,0 105.762215,20.699074,0 105.762127,20.697333,0 105.762112,20.697136,0 105.762068,20.696843,0 105.762015,20.696582,0 105.761954,20.696379,0 105.761852,20.696122,0 105.76172,20.695862,0 105.761582,20.695656,0 105.761423,20.69546,0 105.761256,20.695299,0 105.76108,20.69517,0 105.760545,20.694851,0 105.760196,20.694644,0 105.759984,20.694548,0 105.75973,20.694437,0 105.759156,20.694241,0 105.758934,20.694201,0 105.758738,20.694145,0 105.758567,20.694069,0 105.758107,20.693841,0 105.756766,20.693177,0 105.756043,20.692715,0 105.755779,20.692556,0 105.755034,20.692145,0 105.753427,20.691363,0 105.752621,20.69097,0 105.752118,20.690727,0 105.751655,20.690485,0 105.74789,20.688461,0 105.746961,20.687955,0 105.746459,20.687715,0 105.746309,20.68756,0 105.745576,20.686769,0 105.745266,20.686478,0 105.745025,20.686384,0 105.744733,20.686335,0 105.744033,20.686215,0 105.743548,20.686136,0 105.742437,20.68595,0 105.741855,20.685879,0 105.741833,20.685908,0 105.741803,20.685929,0 105.741766,20.68594,0 105.741728,20.685939,0 105.741692,20.685927,0 105.741662,20.685904,0 105.741649,20.685886,0 105.741477,20.685938,0 105.739925,20.685972,0 105.739436,20.685987,0 105.738259,20.686064,0 105.738041,20.686076,0 105.737899,20.686081,0 105.735822,20.686155,0 105.735244,20.686164,0 105.735049,20.686175,0 105.7347,20.686196,0 105.732941,20.686294,0 105.732602,20.686318,0 105.73168,20.686382,0 105.730736,20.686437,0 105.730579,20.686405,0 105.729021,20.686523,0 105.723857,20.686808,0 105.72254,20.68688,0 105.721801,20.686921,0 105.716254,20.687222,0 105.708714,20.68763,0 105.705251,20.687817,0 105.704842,20.687842,0 105.700311,20.688098,0 105.699298,20.688156,0 105.698648,20.68819,0 105.698264,20.688221,0 105.697776,20.688257,0 105.697669,20.68825,0 105.697603,20.688226,0 105.69751,20.688182,0 105.697085,20.687862,0 105.696628,20.687485,0 105.695712,20.686783,0 105.6948,20.686074,0 105.692936,20.684641,0 105.692823,20.684558,0 105.692281,20.684368,0 105.691333,20.684036,0 105.690657,20.683841,0 105.690619,20.683833,0 105.690579,20.683836,0 105.690418,20.683875,0 105.684177,20.686181,0 105.682634,20.686759,0 105.682187,20.686926,0 105.681441,20.687225,0 105.68117,20.687312,0 105.681082,20.687338,0 105.679998,20.687482,0 105.67988,20.687487,0 105.678957,20.687535,0 105.678125,20.687524,0 105.677784,20.68748,0 105.677471,20.687414,0 105.676734,20.687169,0 105.676675,20.687138,0 105.676364,20.686962,0 105.676074,20.686787,0 105.67413,20.685638,0 105.673974,20.685587,0 105.672878,20.685364,0 105.672323,20.685263,0 105.672029,20.685216,0 105.67178,20.685199,0 105.671693,20.685221,0 105.67162,20.68526,0 105.671532,20.685352,0 105.671452,20.68546,0 105.671237,20.685966,0 105.671174,20.686058,0 105.671081,20.686127,0 105.671005,20.686145,0 105.670917,20.686134,0 105.670743,20.686069,0 105.670306,20.685886,0 105.669793,20.685646,0 105.669493,20.685573,0 105.669206,20.685505,0 105.668914,20.685466,0 105.668261,20.685396,0 105.667628,20.685276,0 105.666642,20.684947,0 105.666053,20.684788,0 105.664726,20.68447,0 105.665133,20.683672,0 105.665569,20.682625,0 105.666735,20.67985,0 105.668324,20.676113,0 105.668355,20.676039,0 105.669701,20.672874,0 105.669713,20.672845,0 105.670253,20.671575,0 105.670329,20.671398,0 105.670854,20.670162,0 105.672069,20.667161,0 105.672604,20.665446,0 105.672758,20.664531,0 105.672764,20.664497,0 105.672934,20.663484,0 105.673086,20.658167,0 105.673155,20.656554,0 105.673235,20.654649,0 105.673358,20.651765,0 105.673443,20.649747,0 105.673438,20.649696,0 105.673515,20.648047,0 105.673522,20.647868,0 105.673523,20.647847,0 105.673543,20.647202,0 105.673576,20.646119,0 105.673692,20.642741,0 105.673958,20.641538,0 105.674326,20.64047,0 105.674374,20.640337,0 105.674951,20.639339,0 105.675522,20.638474,0 105.675905,20.637999,0 105.676057,20.637845,0 105.676202,20.637698,0 105.677946,20.635924,0 105.679522,20.634378,0 105.680403,20.633479,0 105.680709,20.633185,0 105.680721,20.633169,0 105.681816,20.631702,0 105.682467,20.630829,0 105.683622,20.629207,0 105.684203,20.628398,0 105.684491,20.627997,0 105.684915,20.627599,0 105.685178,20.627444,0 105.68541,20.627346,0 105.685781,20.627231,0 105.686177,20.627161,0 105.686759,20.62713,0 105.687076,20.627066,0 105.68735,20.627,0 105.68768,20.626879,0 105.687964,20.626705,0 105.688246,20.626486,0 105.688446,20.626281,0 105.688624,20.626025,0 105.688862,20.625535,0 105.689099,20.624889,0 105.689131,20.624812,0 105.689263,20.624422,0 105.689547,20.623793,0 105.689867,20.62321,0 105.689987,20.623021,0 105.690182,20.622672,0</coordinates></LineString>
  </Placemark>
</Document></kml>
