<?xml version="1.0" encoding="UTF-8"?>
<kml xmlns="http://www.opengis.net/kml/2.2"><Document>
  <name>Hương Đồng Bơ Môi — chi tiết cung</name>
  <Style id="route"><LineStyle><color>ff00aa00</color><width>5</width></LineStyle></Style>
  <Style id="m1"><IconStyle><scale>1.1</scale><Icon><href>http://maps.google.com/mapfiles/kml/paddle/1.png</href></Icon></IconStyle><LabelStyle><scale>0.85</scale></LabelStyle></Style>
  <Style id="m2"><IconStyle><scale>1.1</scale><Icon><href>http://maps.google.com/mapfiles/kml/paddle/2.png</href></Icon></IconStyle><LabelStyle><scale>0.85</scale></LabelStyle></Style>
  <Style id="m3"><IconStyle><scale>1.1</scale><Icon><href>http://maps.google.com/mapfiles/kml/paddle/3.png</href></Icon></IconStyle><LabelStyle><scale>0.85</scale></LabelStyle></Style>
  <Style id="m4"><IconStyle><scale>1.1</scale><Icon><href>http://maps.google.com/mapfiles/kml/paddle/4.png</href></Icon></IconStyle><LabelStyle><scale>0.85</scale></LabelStyle></Style>
  <Style id="m5"><IconStyle><scale>1.1</scale><Icon><href>http://maps.google.com/mapfiles/kml/paddle/5.png</href></Icon></IconStyle><LabelStyle><scale>0.85</scale></LabelStyle></Style>
  <Style id="m6"><IconStyle><scale>1.1</scale><Icon><href>http://maps.google.com/mapfiles/kml/paddle/6.png</href></Icon></IconStyle><LabelStyle><scale>0.85</scale></LabelStyle></Style>
  <Style id="m7"><IconStyle><scale>1.1</scale><Icon><href>http://maps.google.com/mapfiles/kml/paddle/7.png</href></Icon></IconStyle><LabelStyle><scale>0.85</scale></LabelStyle></Style>
  <Style id="m8"><IconStyle><scale>1.1</scale><Icon><href>http://maps.google.com/mapfiles/kml/paddle/8.png</href></Icon></IconStyle><LabelStyle><scale>0.85</scale></LabelStyle></Style>
  <Style id="m9"><IconStyle><scale>1.1</scale><Icon><href>http://maps.google.com/mapfiles/kml/paddle/9.png</href></Icon></IconStyle><LabelStyle><scale>0.85</scale></LabelStyle></Style>
  <Placemark>
    <name>Tuyến — Hương Đồng Bơ Môi</name>
    <description><![CDATA[<p><i>Tuyến bám đường dân sinh. Nếu định tuyến OSRM lệch, kéo lại theo đường thực địa.</i></p>]]></description>
    <styleUrl>#route</styleUrl>
    <LineString><tessellate>1</tessellate><coordinates>105.690182,20.622672,0 105.689987,20.623021,0 105.689867,20.62321,0 105.689547,20.623793,0 105.689263,20.624422,0 105.689131,20.624812,0 105.689099,20.624889,0 105.688862,20.625535,0 105.688624,20.626025,0 105.688446,20.626281,0 105.688246,20.626486,0 105.687964,20.626705,0 105.68768,20.626879,0 105.68735,20.627,0 105.687076,20.627066,0 105.686759,20.62713,0 105.686177,20.627161,0 105.685781,20.627231,0 105.68541,20.627346,0 105.686801,20.629851,0 105.687674,20.631432,0 105.688084,20.632174,0 105.688415,20.632774,0 105.688713,20.633055,0 105.689,20.633214,0 105.689509,20.633387,0 105.689549,20.633394,0 105.693358,20.634055,0 105.694682,20.634279,0 105.695525,20.634431,0 105.695922,20.634677,0 105.698181,20.637569,0 105.698047,20.638038,0 105.698046,20.638063,0 105.698041,20.638357,0 105.69819,20.63873,0 105.697906,20.63888,0 105.697801,20.638926,0 105.697487,20.638892,0 105.697364,20.638929,0 105.696481,20.639536,0 105.696226,20.639712,0 105.695316,20.640409,0 105.695143,20.640557,0 105.695072,20.640639,0 105.694929,20.64085,0 105.694718,20.641243,0 105.694689,20.641296,0 105.69467,20.641353,0 105.694661,20.641421,0 105.69461,20.641789,0 105.6946,20.641984,0 105.694602,20.64213,0 105.694631,20.64231,0 105.694643,20.642374,0 105.694679,20.642768,0 105.694675,20.642908,0 105.694662,20.643011,0 105.694625,20.643122,0 105.694378,20.643685,0 105.694251,20.64396,0 105.694238,20.644048,0 105.694242,20.644161,0 105.694297,20.644475,0 105.69433,20.644543,0 105.694435,20.644729,0 105.69451,20.64482,0 105.694933,20.645366,0 105.69523,20.645761,0 105.695273,20.645819,0 105.695348,20.645881,0 105.695455,20.64593,0 105.69575,20.646011,0 105.695791,20.646022,0 105.695819,20.645867,0 105.695837,20.645759,0 105.695859,20.645721,0 105.695889,20.645684,0 105.695909,20.645623,0 105.695921,20.645494,0 105.695956,20.645209,0 105.695907,20.64521,0 105.695808,20.645197,0 105.695694,20.645163,0 105.695585,20.645111,0 105.695564,20.645095,0 105.695497,20.645043,0 105.694852,20.644385,0 105.694378,20.643685,0 105.694625,20.643122,0 105.694662,20.643011,0 105.694675,20.642908,0 105.694679,20.642768,0 105.694643,20.642374,0 105.694631,20.64231,0 105.694602,20.64213,0 105.6946,20.641984,0 105.69461,20.641789,0 105.694661,20.641421,0 105.69467,20.641353,0 105.694689,20.641296,0 105.694718,20.641243,0 105.694929,20.64085,0 105.695072,20.640639,0 105.695143,20.640557,0 105.695316,20.640409,0 105.696226,20.639712,0 105.696481,20.639536,0 105.697364,20.638929,0 105.697487,20.638892,0 105.697801,20.638926,0 105.697906,20.63888,0 105.69819,20.63873,0 105.698041,20.638357,0 105.698046,20.638063,0 105.698047,20.638038,0 105.698181,20.637569,0 105.695922,20.634677,0 105.695525,20.634431,0 105.694682,20.634279,0 105.693358,20.634055,0 105.689549,20.633394,0 105.689509,20.633387,0 105.689,20.633214,0 105.688713,20.633055,0 105.688415,20.632774,0 105.688084,20.632174,0 105.687674,20.631432,0 105.686801,20.629851,0 105.68541,20.627346,0 105.684744,20.626255,0 105.684578,20.625934,0 105.684448,20.625653,0 105.684317,20.625302,0 105.684286,20.625187,0 105.684197,20.624777,0 105.684154,20.62458,0 105.684106,20.624302,0 105.684097,20.624246,0 105.68405,20.623897,0 105.68392,20.622913,0 105.683889,20.622543,0 105.683876,20.622466,0 105.683854,20.622414,0 105.683823,20.622362,0 105.683682,20.622188,0 105.683144,20.62172,0 105.682897,20.621501,0 105.682738,20.621383,0 105.682685,20.621377,0 105.682627,20.621378,0 105.682352,20.62149,0 105.682152,20.621571,0 105.682071,20.621592,0 105.681915,20.621615,0 105.681711,20.62163,0 105.681565,20.62163,0 105.681391,20.621618,0 105.681234,20.621592,0 105.680888,20.621506,0 105.680254,20.621433,0 105.680177,20.621418,0 105.680106,20.6214,0 105.678532,20.62101,0 105.678239,20.620941,0 105.677874,20.620856,0 105.677643,20.620811,0 105.677448,20.620793,0 105.677318,20.620802,0 105.676888,20.620866,0 105.676801,20.620872,0 105.67672,20.62087,0 105.676442,20.620827,0 105.676378,20.620811,0 105.676316,20.620788,0 105.676225,20.620726,0 105.675899,20.620462,0 105.67583,20.620419,0 105.675744,20.62038,0 105.675098,20.620133,0 105.674861,20.620051,0 105.674749,20.619997,0 105.67457,20.619873,0 105.674504,20.619815,0 105.674319,20.619665,0 105.674228,20.619619,0 105.674127,20.619585,0 105.674004,20.619555,0 105.673774,20.61953,0 105.673536,20.619525,0 105.672454,20.619598,0 105.672413,20.619597,0 105.672349,20.619594,0 105.672327,20.619589,0 105.672135,20.619999,0 105.671914,20.620455,0 105.671854,20.620535,0 105.671774,20.62061,0 105.671688,20.620665,0 105.671443,20.620794,0 105.67138,20.620826,0 105.671319,20.620862,0 105.671262,20.620896,0 105.670672,20.621167,0 105.67057,20.62125,0 105.670546,20.621279,0 105.670529,20.6213,0 105.670527,20.621302,0 105.670468,20.621403,0 105.670413,20.621482,0 105.670382,20.621516,0 105.670307,20.621561,0 105.670208,20.621606,0 105.670186,20.621625,0 105.670179,20.621636,0 105.670173,20.621645,0 105.670164,20.621676,0 105.670173,20.621817,0 105.670169,20.621921,0 105.670158,20.621974,0 105.670129,20.622017,0 105.670058,20.622083,0 105.669981,20.622227,0 105.669917,20.622342,0 105.669816,20.622465,0 105.669917,20.622342,0 105.669981,20.622227,0 105.670058,20.622083,0 105.670129,20.622017,0 105.670158,20.621974,0 105.670169,20.621921,0 105.670173,20.621817,0 105.670164,20.621676,0 105.670173,20.621645,0 105.670179,20.621636,0 105.670186,20.621625,0 105.670208,20.621606,0 105.670307,20.621561,0 105.670382,20.621516,0 105.670413,20.621482,0 105.670468,20.621403,0 105.670527,20.621302,0 105.670546,20.621279,0 105.67057,20.62125,0 105.670672,20.621167,0 105.671262,20.620896,0 105.671319,20.620862,0 105.67138,20.620826,0 105.671443,20.620794,0 105.671688,20.620665,0 105.671774,20.62061,0 105.671854,20.620535,0 105.671914,20.620455,0 105.672135,20.619999,0 105.672327,20.619589,0 105.672349,20.619594,0 105.672413,20.619597,0 105.672454,20.619598,0 105.673536,20.619525,0 105.673774,20.61953,0 105.674004,20.619555,0 105.674127,20.619585,0 105.674228,20.619619,0 105.674319,20.619665,0 105.674504,20.619815,0 105.67457,20.619873,0 105.674749,20.619997,0 105.674861,20.620051,0 105.675098,20.620133,0 105.675744,20.62038,0 105.67583,20.620419,0 105.675899,20.620462,0 105.676225,20.620726,0 105.676316,20.620788,0 105.676378,20.620811,0 105.676442,20.620827,0 105.67672,20.62087,0 105.676801,20.620872,0 105.676888,20.620866,0 105.677318,20.620802,0 105.677448,20.620793,0 105.677643,20.620811,0 105.677874,20.620856,0 105.678239,20.620941,0 105.678532,20.62101,0 105.680106,20.6214,0 105.680177,20.621418,0 105.680254,20.621433,0 105.680888,20.621506,0 105.681234,20.621592,0 105.681391,20.621618,0 105.681565,20.62163,0 105.681711,20.62163,0 105.681915,20.621615,0 105.682071,20.621592,0 105.682152,20.621571,0 105.682352,20.62149,0 105.682627,20.621378,0 105.682685,20.621377,0 105.682738,20.621383,0 105.682897,20.621501,0 105.683144,20.62172,0 105.683682,20.622188,0 105.683823,20.622362,0 105.683854,20.622414,0 105.683876,20.622466,0 105.683889,20.622543,0 105.68392,20.622913,0 105.68405,20.623897,0 105.684097,20.624246,0 105.684106,20.624302,0 105.684154,20.62458,0 105.684197,20.624777,0 105.684286,20.625187,0 105.684317,20.625302,0 105.684448,20.625653,0 105.684578,20.625934,0 105.684744,20.626255,0 105.68541,20.627346,0 105.686801,20.629851,0 105.687674,20.631432,0 105.688084,20.632174,0 105.688415,20.632774,0 105.688713,20.633055,0 105.689,20.633214,0 105.689509,20.633387,0 105.689549,20.633394,0 105.693358,20.634055,0 105.694682,20.634279,0 105.695525,20.634431,0 105.695525,20.634431,0 105.695922,20.634677,0 105.698181,20.637569,0 105.698047,20.638038,0 105.698046,20.638063,0 105.698041,20.638357,0 105.69819,20.63873,0 105.697906,20.63888,0 105.697801,20.638926,0 105.697487,20.638892,0 105.697364,20.638929,0 105.696481,20.639536,0 105.696226,20.639712,0 105.695316,20.640409,0 105.695143,20.640557,0 105.695072,20.640639,0 105.694929,20.64085,0 105.694718,20.641243,0 105.694689,20.641296,0 105.69467,20.641353,0 105.694661,20.641421,0 105.69461,20.641789,0 105.6946,20.641984,0 105.694602,20.64213,0 105.694631,20.64231,0 105.694643,20.642374,0 105.694679,20.642768,0 105.694675,20.642908,0 105.694662,20.643011,0 105.694625,20.643122,0 105.694378,20.643685,0 105.694251,20.64396,0 105.694238,20.644048,0 105.694242,20.644161,0 105.694297,20.644475,0 105.69433,20.644543,0 105.694435,20.644729,0 105.69451,20.64482,0 105.694933,20.645366,0 105.69523,20.645761,0 105.695273,20.645819,0 105.695348,20.645881,0 105.695455,20.64593,0 105.69575,20.646011,0 105.695791,20.646022,0 105.695819,20.645867,0 105.695837,20.645759,0 105.695859,20.645721,0 105.695889,20.645684,0 105.695909,20.645623,0 105.695921,20.645494,0 105.695956,20.645209,0 105.695907,20.64521,0 105.695808,20.645197,0 105.695694,20.645163,0 105.695585,20.645111,0 105.695564,20.645095,0 105.695497,20.645043,0 105.694852,20.644385,0 105.694378,20.643685,0 105.694625,20.643122,0 105.694662,20.643011,0 105.694675,20.642908,0 105.694679,20.642768,0 105.694643,20.642374,0 105.694631,20.64231,0 105.694602,20.64213,0 105.6946,20.641984,0 105.69461,20.641789,0 105.694661,20.641421,0 105.69467,20.641353,0 105.694689,20.641296,0 105.694718,20.641243,0 105.694929,20.64085,0 105.695072,20.640639,0 105.695143,20.640557,0 105.695316,20.640409,0 105.696226,20.639712,0 105.696481,20.639536,0 105.697364,20.638929,0 105.697487,20.638892,0 105.697801,20.638926,0 105.697906,20.63888,0 105.69819,20.63873,0 105.698041,20.638357,0 105.698046,20.638063,0 105.698047,20.638038,0 105.698181,20.637569,0 105.695922,20.634677,0 105.695525,20.634431,0 105.694682,20.634279,0 105.693358,20.634055,0 105.689549,20.633394,0 105.689509,20.633387,0 105.689,20.633214,0 105.688713,20.633055,0 105.688415,20.632774,0 105.688084,20.632174,0 105.687674,20.631432,0 105.686801,20.629851,0 105.68541,20.627346,0 105.685781,20.627231,0 105.686177,20.627161,0 105.686759,20.62713,0 105.687076,20.627066,0 105.68735,20.627,0 105.68768,20.626879,0 105.687964,20.626705,0 105.688246,20.626486,0 105.688446,20.626281,0 105.688624,20.626025,0 105.688862,20.625535,0 105.689099,20.624889,0 105.689131,20.624812,0 105.689263,20.624422,0 105.689547,20.623793,0 105.689867,20.62321,0 105.689987,20.623021,0 105.690182,20.622672,0 105.690351,20.62237,0 105.6913,20.620788,0 105.69117,20.62071,0 105.691078,20.620687,0 105.690875,20.620667,0 105.690802,20.620642,0 105.690738,20.620602,0 105.690644,20.620502,0 105.690392,20.620243,0 105.690644,20.620502,0 105.690738,20.620602,0 105.690802,20.620642,0 105.690875,20.620667,0 105.691078,20.620687,0 105.69117,20.62071,0 105.6913,20.620788,0 105.690351,20.62237,0 105.689987,20.623021,0 105.689867,20.62321,0 105.689547,20.623793,0 105.689263,20.624422,0 105.689131,20.624812,0 105.689099,20.624889,0 105.688862,20.625535,0 105.688624,20.626025,0 105.688446,20.626281,0 105.688246,20.626486,0 105.687964,20.626705,0 105.68768,20.626879,0 105.68735,20.627,0 105.687076,20.627066,0 105.686759,20.62713,0 105.686177,20.627161,0 105.685781,20.627231,0 105.68541,20.627346,0 105.684744,20.626255,0 105.684578,20.625934,0 105.684448,20.625653,0 105.684317,20.625302,0 105.684286,20.625187,0 105.684197,20.624777,0 105.683968,20.624832,0 105.683932,20.624836,0 105.683906,20.624832,0 105.683871,20.624804,0 105.683769,20.624724,0 105.683732,20.624711,0 105.683675,20.624709,0 105.683085,20.624767,0 105.682847,20.624747,0 105.682788,20.624757,0 105.682726,20.624794,0 105.682702,20.624839,0 105.682678,20.62493,0 105.682661,20.625148,0 105.682982,20.625248,0 105.683024,20.625273,0 105.683474,20.62578,0 105.683494,20.625809,0 105.683566,20.625958,0 105.683574,20.625974,0 105.683655,20.626097,0 105.684448,20.625653,0 105.684578,20.625934,0 105.684744,20.626255,0 105.68541,20.627346,0 105.685781,20.627231,0 105.686177,20.627161,0 105.686759,20.62713,0 105.687076,20.627066,0 105.68735,20.627,0 105.68768,20.626879,0 105.687964,20.626705,0 105.688246,20.626486,0 105.688446,20.626281,0 105.688624,20.626025,0 105.688862,20.625535,0 105.689099,20.624889,0 105.689131,20.624812,0 105.689263,20.624422,0 105.689547,20.623793,0 105.689867,20.62321,0 105.689987,20.623021,0 105.690182,20.622672,0</coordinates></LineString>
  </Placemark>
  <Placemark>
    <name>1. Tourism Hub Đồi Dùng</name>
    <styleUrl>#m1</styleUrl>
    <description><![CDATA[<p><b>08:00</b></p><p>Hướng dẫn viên người Mường đón bạn bằng một ly trà thảo dược ấm. Bạn nghe giới thiệu ngắn về Mường Cốc, cam kết 5 KHÔNG và mạng lưới Refill Station dọc tuyến. Sau đó bạn nhận xe đạp, mũ bảo hiểm và bản đồ tour để bắt đầu ngày rong ruổi giữa đồng quê.</p><p><i>Lưu ý: Hãy mang theo bình nước cá nhân để dùng trong suốt hành trình.</i></p>]]></description>
    <Point><coordinates>105.6897842,20.6224767,0</coordinates></Point>
  </Placemark>
  <Placemark>
    <name>2. Đạp xe qua cánh đồng quê về thôn Bơ Môi</name>
    <styleUrl>#m2</styleUrl>
    <description><![CDATA[<p><b>08:30</b></p><p>Bạn đạp xe rời Đồi Dùng, theo con đường làng băng qua những cánh đồng quê về phía thôn Bơ Môi (~6,6 km). Dọc đường, bạn có thể dừng lại bất cứ đâu để chụp ảnh giữa khung cảnh đồng quê thanh bình, nơi trời và ruộng nối liền một dải.</p>]]></description>
    <Point><coordinates>105.6948342,20.6489408,0</coordinates></Point>
  </Placemark>
  <Placemark>
    <name>3. Đồi hoa Mường thôn Bơ Môi &amp; Đập đồi làng</name>
    <styleUrl>#m3</styleUrl>
    <description><![CDATA[<p><b>09:45</b></p><p>Bạn lên đồi hoa Mường thôn Bơ Môi, ngắm cảnh từ đập đồi làng nhìn xuống cánh đồng và làng bản — một trong những điểm check-in đẹp và khoáng đạt nhất của vùng. Cùng người dân, bạn gieo và vun một vạt hoa trên đồi làng, để lại một chút sắc màu cho mùa sau.</p><p><i>Lưu ý: Gieo sắc hoa cho đồi làng Bơ Môi — góp thêm sắc màu cho mùa hoa sau.</i></p>]]></description>
    <Point><coordinates>105.6705467,20.6213133,0</coordinates></Point>
  </Placemark>
  <Placemark>
    <name>4. Đạp xe lên Rộc Éo</name>
    <styleUrl>#m4</styleUrl>
    <description><![CDATA[<p><b>10:45</b></p><p>Bạn đạp xe vòng quanh những cánh đồng lúa thơm ngát lên thôn Rộc Éo (~2,3 km) — gió đồng lồng lộng thổi, hương lúa chín dậy lên hai bên đường. Một quãng đạp xe khiến lòng người nhẹ tênh.</p>]]></description>
    <Point><coordinates>105.6956717,20.6341967,0</coordinates></Point>
  </Placemark>
  <Placemark>
    <name>5. Cánh đồng lúa &amp; thôn Rộc Éo</name>
    <styleUrl>#m5</styleUrl>
    <description><![CDATA[<p><b>11:30</b></p><p>Bạn dừng chân giữa cánh đồng lúa quê, nghe người dân kể về mùa vụ, về hạt gạo quê Mường Cốc nuôi lớn bao thế hệ. Một khoảng dừng giản dị mà đậm vị đồng quê.</p><p><i>Lưu ý: Tùy chọn: ghé đồi dược liệu Rộc Éo gặp lương y bà Châm, bà Phận.</i></p>]]></description>
    <Point><coordinates>105.6948342,20.6489408,0</coordinates></Point>
  </Placemark>
  <Placemark>
    <name>6. Bữa trưa Cỗ Lá Mường</name>
    <styleUrl>#m6</styleUrl>
    <description><![CDATA[<p><b>12:15</b></p><p>Bữa trưa được dọn tại nhà dân với mâm Cỗ Lá Mường — bày trên lá chuối tươi, không một chiếc đĩa nhựa. Nguyên liệu 100% địa phương, phần lớn vừa hái sáng nay — một bữa ăn farm-to-table đúng nghĩa.</p><p><i>Lưu ý: Lá chuối thay đĩa nhựa · nguyên liệu địa phương · nước uống tiếp từ bình cá nhân.</i></p>]]></description>
    <Point><coordinates>105.6897842,20.6224767,0</coordinates></Point>
  </Placemark>
  <Placemark>
    <name>7. Bếp rượu quê Đồi Lý (nhà ông Lập)</name>
    <styleUrl>#m7</styleUrl>
    <description><![CDATA[<p><b>13:45</b></p><p>Trên đường về, bạn ghé nhà ông Lập — nơi vẫn giữ nghề nấu rượu quê thủ công. Bạn xem từng công đoạn ủ men và chưng cất, nghe chuyện nghề rượu qua bao đời, rồi nhấp thử một chén rượu quê Đồi Lý nồng nàn vị gạo.</p>]]></description>
    <Point><coordinates>105.68348,20.625995,0</coordinates></Point>
  </Placemark>
  <Placemark>
    <name>9. Trở về Tourism Hub Đồi Dùng</name>
    <styleUrl>#m9</styleUrl>
    <description><![CDATA[<p><b>15:45</b></p><p>Bạn trả xe đạp và mũ bảo hiểm tại Nhà Văn hoá Đồi Dùng. Mường Cốc gửi tặng bạn món quà lưu niệm cộng đồng — chút hương đồng Bơ Môi mang theo về nhà.</p>]]></description>
    <Point><coordinates>105.6897842,20.6224767,0</coordinates></Point>
  </Placemark>
</Document></kml>
