<?xml version="1.0" encoding="UTF-8"?>
<kml xmlns="http://www.opengis.net/kml/2.2"><Document>
  <name>Xuyên Rừng Hương Tích — chi tiết cung</name>
  <Style id="route"><LineStyle><color>ff0000cc</color><width>5</width></LineStyle></Style>
  <Style id="m1"><IconStyle><scale>1.1</scale><Icon><href>http://maps.google.com/mapfiles/kml/paddle/1.png</href></Icon></IconStyle><LabelStyle><scale>0.85</scale></LabelStyle></Style>
  <Style id="m2"><IconStyle><scale>1.1</scale><Icon><href>http://maps.google.com/mapfiles/kml/paddle/2.png</href></Icon></IconStyle><LabelStyle><scale>0.85</scale></LabelStyle></Style>
  <Style id="m3"><IconStyle><scale>1.1</scale><Icon><href>http://maps.google.com/mapfiles/kml/paddle/3.png</href></Icon></IconStyle><LabelStyle><scale>0.85</scale></LabelStyle></Style>
  <Style id="m4"><IconStyle><scale>1.1</scale><Icon><href>http://maps.google.com/mapfiles/kml/paddle/4.png</href></Icon></IconStyle><LabelStyle><scale>0.85</scale></LabelStyle></Style>
  <Style id="m5"><IconStyle><scale>1.1</scale><Icon><href>http://maps.google.com/mapfiles/kml/paddle/5.png</href></Icon></IconStyle><LabelStyle><scale>0.85</scale></LabelStyle></Style>
  <Style id="m6"><IconStyle><scale>1.1</scale><Icon><href>http://maps.google.com/mapfiles/kml/paddle/6.png</href></Icon></IconStyle><LabelStyle><scale>0.85</scale></LabelStyle></Style>
  <Style id="m7"><IconStyle><scale>1.1</scale><Icon><href>http://maps.google.com/mapfiles/kml/paddle/7.png</href></Icon></IconStyle><LabelStyle><scale>0.85</scale></LabelStyle></Style>
  <Placemark>
    <name>Tuyến — Xuyên Rừng Hương Tích</name>
    
    <styleUrl>#route</styleUrl>
    <LineString><tessellate>1</tessellate><coordinates>105.690182,20.622672,0 105.689987,20.623021,0 105.689867,20.62321,0 105.689547,20.623793,0 105.689263,20.624422,0 105.689131,20.624812,0 105.689099,20.624889,0 105.688862,20.625535,0 105.688624,20.626025,0 105.688446,20.626281,0 105.688246,20.626486,0 105.687964,20.626705,0 105.68768,20.626879,0 105.68735,20.627,0 105.687076,20.627066,0 105.686759,20.62713,0 105.686177,20.627161,0 105.685781,20.627231,0 105.68541,20.627346,0 105.685178,20.627444,0 105.684915,20.627599,0 105.684491,20.627997,0 105.684203,20.628398,0 105.683622,20.629207,0 105.682467,20.630829,0 105.681816,20.631702,0 105.680721,20.633169,0 105.680709,20.633185,0 105.680403,20.633479,0 105.679522,20.634378,0 105.677946,20.635924,0 105.676202,20.637698,0 105.676057,20.637845,0 105.675905,20.637999,0 105.675522,20.638474,0 105.674951,20.639339,0 105.674374,20.640337,0 105.674326,20.64047,0 105.673958,20.641538,0 105.673692,20.642741,0 105.673576,20.646119,0 105.673543,20.647202,0 105.673523,20.647847,0 105.673522,20.647868,0 105.673515,20.648047,0 105.673438,20.649696,0 105.673443,20.649747,0 105.673358,20.651765,0 105.673235,20.654649,0 105.673155,20.656554,0 105.673086,20.658167,0 105.672934,20.663484,0 105.672764,20.664497,0 105.672758,20.664531,0 105.672604,20.665446,0 105.672069,20.667161,0 105.670854,20.670162,0 105.670329,20.671398,0 105.670253,20.671575,0 105.669713,20.672845,0 105.669701,20.672874,0 105.668355,20.676039,0 105.668324,20.676113,0 105.666735,20.67985,0 105.665569,20.682625,0 105.665133,20.683672,0 105.664726,20.68447,0 105.666053,20.684788,0 105.666642,20.684947,0 105.667628,20.685276,0 105.668261,20.685396,0 105.668914,20.685466,0 105.669206,20.685505,0 105.669493,20.685573,0 105.669793,20.685646,0 105.670306,20.685886,0 105.670743,20.686069,0 105.670917,20.686134,0 105.671005,20.686145,0 105.671081,20.686127,0 105.671174,20.686058,0 105.671237,20.685966,0 105.671452,20.68546,0 105.671532,20.685352,0 105.67162,20.68526,0 105.671693,20.685221,0 105.67178,20.685199,0 105.672029,20.685216,0 105.672323,20.685263,0 105.672878,20.685364,0 105.673974,20.685587,0 105.67413,20.685638,0 105.676074,20.686787,0 105.676364,20.686962,0 105.676675,20.687138,0 105.676734,20.687169,0 105.677471,20.687414,0 105.677784,20.68748,0 105.678125,20.687524,0 105.678957,20.687535,0 105.67988,20.687487,0 105.679998,20.687482,0 105.681082,20.687338,0 105.68117,20.687312,0 105.681441,20.687225,0 105.682187,20.686926,0 105.682634,20.686759,0 105.684177,20.686181,0 105.690418,20.683875,0 105.690579,20.683836,0 105.690619,20.683833,0 105.690657,20.683841,0 105.691333,20.684036,0 105.692281,20.684368,0 105.692823,20.684558,0 105.692936,20.684641,0 105.6948,20.686074,0 105.695712,20.686783,0 105.696628,20.687485,0 105.697085,20.687862,0 105.69751,20.688182,0 105.697603,20.688226,0 105.697669,20.68825,0 105.697776,20.688257,0 105.698264,20.688221,0 105.698648,20.68819,0 105.699298,20.688156,0 105.700311,20.688098,0 105.704842,20.687842,0 105.705251,20.687817,0 105.708714,20.68763,0 105.716254,20.687222,0 105.721801,20.686921,0 105.72254,20.68688,0 105.723857,20.686808,0 105.729021,20.686523,0 105.730579,20.686405,0 105.730727,20.686357,0 105.73137,20.686299,0 105.732411,20.686214,0 105.732583,20.686204,0 105.732948,20.686182,0 105.734554,20.68608,0 105.734699,20.686071,0 105.73504,20.686053,0 105.735226,20.686043,0 105.735826,20.686033,0 105.737562,20.685987,0 105.737905,20.685965,0 105.738274,20.685947,0 105.73948,20.685877,0 105.740299,20.685856,0 105.741449,20.685827,0 105.741635,20.685849,0 105.741633,20.685827,0 105.741637,20.685805,0 105.741651,20.685773,0 105.741676,20.685747,0 105.741709,20.685729,0 105.741745,20.685722,0 105.741783,20.685726,0 105.741817,20.685741,0 105.74194,20.685585,0 105.742111,20.685336,0 105.742325,20.685081,0 105.743591,20.683812,0 105.743787,20.683652,0 105.745162,20.682355,0 105.746259,20.681233,0 105.746839,20.680637,0 105.747824,20.679696,0 105.747888,20.679634,0 105.748444,20.679103,0 105.748784,20.678778,0 105.749179,20.678394,0 105.74993,20.677664,0 105.750436,20.677172,0 105.751101,20.67661,0 105.751771,20.676064,0 105.752822,20.675208,0 105.753872,20.674318,0 105.753891,20.674301,0 105.754298,20.67396,0 105.755822,20.672715,0 105.756419,20.672305,0 105.756466,20.672273,0 105.757343,20.671686,0 105.758128,20.67116,0 105.758504,20.670908,0 105.759169,20.670486,0 105.759405,20.670225,0 105.759491,20.670131,0 105.760242,20.669302,0 105.761508,20.667957,0 105.76232,20.666996,0 105.762353,20.666958,0 105.762502,20.666805,0 105.763657,20.665619,0 105.763769,20.665557,0 105.764405,20.665226,0 105.765805,20.664472,0 105.765821,20.664463,0 105.767348,20.663628,0 105.766942,20.662198,0 105.765979,20.65943,0 105.765617,20.658326,0 105.765298,20.656815,0 105.765136,20.655373,0 105.765116,20.654184,0 105.765031,20.653455,0 105.7649,20.652525,0 105.764663,20.651243,0 105.764476,20.650347,0 105.76447,20.650286,0 105.764436,20.64964,0 105.764496,20.649183,0 105.76451,20.648972,0 105.764506,20.648887,0 105.764503,20.648822,0 105.764491,20.648691,0 105.764418,20.648299,0 105.764361,20.64795,0 105.764337,20.647611,0 105.764354,20.64731,0 105.764393,20.647122,0 105.764403,20.646964,0 105.764505,20.645096,0 105.764504,20.644942,0 105.764479,20.644593,0 105.764433,20.644412,0 105.764388,20.644235,0 105.764275,20.643798,0 105.764268,20.643772,0 105.764262,20.643753,0 105.764168,20.643107,0 105.76409,20.642578,0 105.76406,20.642386,0 105.763993,20.642023,0 105.763965,20.641871,0 105.76393,20.64168,0 105.76383,20.641141,0 105.76375,20.640712,0 105.763721,20.640547,0 105.76364,20.640132,0 105.763551,20.639676,0 105.763464,20.639229,0 105.763377,20.638783,0 105.763343,20.638604,0 105.763105,20.637386,0 105.762958,20.636165,0 105.762913,20.635854,0 105.762891,20.635619,0 105.762896,20.635114,0 105.762901,20.634969,0 105.762933,20.634645,0 105.762988,20.634279,0 105.763022,20.634134,0 105.76303,20.634112,0 105.763076,20.633984,0 105.763158,20.63387,0 105.76326,20.633743,0 105.763933,20.632909,0 105.764025,20.632793,0 105.764036,20.63278,0 105.764353,20.632418,0 105.764542,20.632257,0 105.764763,20.632095,0 105.764989,20.631929,0 105.765142,20.631806,0 105.765657,20.631392,0 105.765632,20.631356,0 105.765624,20.631343,0 105.765435,20.630966,0 105.765425,20.630943,0 105.765289,20.630654,0 105.765214,20.63053,0 105.765203,20.630512,0 105.765183,20.630486,0 105.764092,20.629384,0 105.761239,20.626574,0 105.761161,20.626495,0 105.761134,20.626471,0 105.760012,20.62535,0 105.759572,20.624914,0 105.759219,20.624584,0 105.759219,20.624584,0 105.759572,20.624914,0 105.760012,20.62535,0 105.761134,20.626471,0 105.761161,20.626495,0 105.761239,20.626574,0 105.764092,20.629384,0 105.765183,20.630486,0 105.765203,20.630512,0 105.765214,20.63053,0 105.765289,20.630654,0 105.765425,20.630943,0 105.765435,20.630966,0 105.765624,20.631343,0 105.765632,20.631356,0 105.765657,20.631392,0 105.765142,20.631806,0 105.764989,20.631929,0 105.764763,20.632095,0 105.764542,20.632257,0 105.764353,20.632418,0 105.764036,20.63278,0 105.764025,20.632793,0 105.763933,20.632909,0 105.76326,20.633743,0 105.763158,20.63387,0 105.763076,20.633984,0 105.76303,20.634112,0 105.763022,20.634134,0 105.762988,20.634279,0 105.762933,20.634645,0 105.762901,20.634969,0 105.762896,20.635114,0 105.762891,20.635619,0 105.762913,20.635854,0 105.762958,20.636165,0 105.763105,20.637386,0 105.763343,20.638604,0 105.763377,20.638783,0 105.763464,20.639229,0 105.763551,20.639676,0 105.76364,20.640132,0 105.763721,20.640547,0 105.76375,20.640712,0 105.76383,20.641141,0 105.76393,20.64168,0 105.763965,20.641871,0 105.763993,20.642023,0 105.76406,20.642386,0 105.76409,20.642578,0 105.764168,20.643107,0 105.764262,20.643753,0 105.764268,20.643772,0 105.764275,20.643798,0 105.764388,20.644235,0 105.764433,20.644412,0 105.764479,20.644593,0 105.764504,20.644942,0 105.764505,20.645096,0 105.764403,20.646964,0 105.764393,20.647122,0 105.764354,20.64731,0 105.764337,20.647611,0 105.764361,20.64795,0 105.764418,20.648299,0 105.764491,20.648691,0 105.764503,20.648822,0 105.764506,20.648887,0 105.76451,20.648972,0 105.764496,20.649183,0 105.764436,20.64964,0 105.76447,20.650286,0 105.764476,20.650347,0 105.764663,20.651243,0 105.7649,20.652525,0 105.765031,20.653455,0 105.765116,20.654184,0 105.765136,20.655373,0 105.765298,20.656815,0 105.765617,20.658326,0 105.765979,20.65943,0 105.766942,20.662198,0 105.767348,20.663628,0 105.765821,20.664463,0 105.765805,20.664472,0 105.764405,20.665226,0 105.763769,20.665557,0 105.763657,20.665619,0 105.762502,20.666805,0 105.762353,20.666958,0 105.76232,20.666996,0 105.761508,20.667957,0 105.760242,20.669302,0 105.759491,20.670131,0 105.759405,20.670225,0 105.759169,20.670486,0 105.758504,20.670908,0 105.758128,20.67116,0 105.757343,20.671686,0 105.756466,20.672273,0 105.756419,20.672305,0 105.755822,20.672715,0 105.754298,20.67396,0 105.753891,20.674301,0 105.753872,20.674318,0 105.752822,20.675208,0 105.751771,20.676064,0 105.751101,20.67661,0 105.750436,20.677172,0 105.74993,20.677664,0 105.749179,20.678394,0 105.748784,20.678778,0 105.748444,20.679103,0 105.747888,20.679634,0 105.747824,20.679696,0 105.746839,20.680637,0 105.746259,20.681233,0 105.745162,20.682355,0 105.743787,20.683652,0 105.743591,20.683812,0 105.742325,20.685081,0 105.742111,20.685336,0 105.74194,20.685585,0 105.741817,20.685741,0 105.741841,20.685762,0 105.741858,20.685789,0 105.741866,20.685819,0 105.741865,20.685849,0 105.741855,20.685879,0 105.741833,20.685908,0 105.741803,20.685929,0 105.741766,20.68594,0 105.741728,20.685939,0 105.741692,20.685927,0 105.741662,20.685904,0 105.741649,20.685886,0 105.741477,20.685938,0 105.739925,20.685972,0 105.739436,20.685987,0 105.738259,20.686064,0 105.738041,20.686076,0 105.737899,20.686081,0 105.735822,20.686155,0 105.735244,20.686164,0 105.735049,20.686175,0 105.7347,20.686196,0 105.732941,20.686294,0 105.732602,20.686318,0 105.73168,20.686382,0 105.730736,20.686437,0 105.730579,20.686405,0 105.729021,20.686523,0 105.723857,20.686808,0 105.72254,20.68688,0 105.721801,20.686921,0 105.716254,20.687222,0 105.708714,20.68763,0 105.705251,20.687817,0 105.704842,20.687842,0 105.700311,20.688098,0 105.699298,20.688156,0 105.698648,20.68819,0 105.698264,20.688221,0 105.697776,20.688257,0 105.697669,20.68825,0 105.697603,20.688226,0 105.69751,20.688182,0 105.697085,20.687862,0 105.696628,20.687485,0 105.695712,20.686783,0 105.6948,20.686074,0 105.692936,20.684641,0 105.692823,20.684558,0 105.692281,20.684368,0 105.691333,20.684036,0 105.690657,20.683841,0 105.690619,20.683833,0 105.690579,20.683836,0 105.690418,20.683875,0 105.684177,20.686181,0 105.682634,20.686759,0 105.682187,20.686926,0 105.681441,20.687225,0 105.68117,20.687312,0 105.681082,20.687338,0 105.679998,20.687482,0 105.67988,20.687487,0 105.678957,20.687535,0 105.678125,20.687524,0 105.677784,20.68748,0 105.677471,20.687414,0 105.676734,20.687169,0 105.676675,20.687138,0 105.676364,20.686962,0 105.676074,20.686787,0 105.67413,20.685638,0 105.673974,20.685587,0 105.672878,20.685364,0 105.672323,20.685263,0 105.672029,20.685216,0 105.67178,20.685199,0 105.671693,20.685221,0 105.67162,20.68526,0 105.671532,20.685352,0 105.671452,20.68546,0 105.671237,20.685966,0 105.671174,20.686058,0 105.671081,20.686127,0 105.671005,20.686145,0 105.670917,20.686134,0 105.670743,20.686069,0 105.670306,20.685886,0 105.669793,20.685646,0 105.669493,20.685573,0 105.669206,20.685505,0 105.668914,20.685466,0 105.668261,20.685396,0 105.667628,20.685276,0 105.666642,20.684947,0 105.666053,20.684788,0 105.664726,20.68447,0 105.665133,20.683672,0 105.665569,20.682625,0 105.666735,20.67985,0 105.668324,20.676113,0 105.668355,20.676039,0 105.669701,20.672874,0 105.669713,20.672845,0 105.670253,20.671575,0 105.670329,20.671398,0 105.670854,20.670162,0 105.672069,20.667161,0 105.672604,20.665446,0 105.672758,20.664531,0 105.672764,20.664497,0 105.672934,20.663484,0 105.673086,20.658167,0 105.673155,20.656554,0 105.673235,20.654649,0 105.673358,20.651765,0 105.673443,20.649747,0 105.673438,20.649696,0 105.673515,20.648047,0 105.673522,20.647868,0 105.673523,20.647847,0 105.673543,20.647202,0 105.673576,20.646119,0 105.673692,20.642741,0 105.673958,20.641538,0 105.674326,20.64047,0 105.674374,20.640337,0 105.674951,20.639339,0 105.675522,20.638474,0 105.675905,20.637999,0 105.676057,20.637845,0 105.676202,20.637698,0 105.677946,20.635924,0 105.679522,20.634378,0 105.680403,20.633479,0 105.680709,20.633185,0 105.680721,20.633169,0 105.681816,20.631702,0 105.682467,20.630829,0 105.683622,20.629207,0 105.684203,20.628398,0 105.684491,20.627997,0 105.684915,20.627599,0 105.685178,20.627444,0 105.68541,20.627346,0 105.685781,20.627231,0 105.686177,20.627161,0 105.686759,20.62713,0 105.687076,20.627066,0 105.68735,20.627,0 105.68768,20.626879,0 105.687964,20.626705,0 105.688246,20.626486,0 105.688446,20.626281,0 105.688624,20.626025,0 105.688862,20.625535,0 105.689099,20.624889,0 105.689131,20.624812,0 105.689263,20.624422,0 105.689547,20.623793,0 105.689867,20.62321,0 105.689987,20.623021,0 105.690351,20.62237,0 105.6913,20.620788,0 105.69203,20.619564,0 105.692877,20.618093,0 105.693337,20.617288,0 105.693515,20.616965,0 105.693562,20.61688,0 105.693791,20.616401,0 105.694075,20.61556,0 105.694322,20.61453,0 105.694793,20.612205,0 105.695046,20.610921,0 105.695344,20.6095,0 105.695965,20.606561,0 105.696448,20.604131,0 105.69647,20.604021,0 105.696969,20.601577,0 105.698108,20.602462,0 105.698247,20.602603,0 105.698281,20.602647,0 105.698846,20.603492,0 105.699182,20.603848,0 105.69969,20.603633,0 105.700201,20.603022,0 105.701263,20.603969,0 105.7031,20.605793,0 105.703644,20.606331,0 105.704512,20.606612,0 105.704598,20.606651,0 105.70501,20.606836,0 105.705133,20.606892,0 105.705988,20.606917,0 105.706129,20.607005,0 105.706305,20.607201,0 105.706378,20.607468,0 105.706415,20.60773,0 105.706486,20.607807,0 105.706987,20.608307,0 105.707327,20.609365,0 105.707816,20.609795,0 105.70786,20.609804,0 105.70816,20.609818,0 105.709589,20.609479,0 105.709635,20.60946,0 105.710272,20.60919,0 105.711232,20.608734,0 105.71253,20.608348,0 105.712565,20.608338,0 105.714516,20.607288,0 105.715687,20.606953,0 105.716658,20.606573,0 105.718273,20.605983,0 105.719655,20.605537,0 105.721235,20.604457,0 105.72147,20.604605,0 105.721597,20.604741,0 105.72187,20.604992,0 105.722154,20.60522,0 105.722578,20.605604,0 105.722975,20.606003,0 105.72318,20.606252,0 105.723213,20.606287,0 105.723242,20.606307,0 105.72328,20.606307,0 105.72332,20.606273,0 105.723371,20.606207,0 105.723442,20.606098,0 105.723442,20.606098,0 105.723371,20.606207,0 105.72332,20.606273,0 105.72328,20.606307,0 105.723242,20.606307,0 105.723213,20.606287,0 105.72318,20.606252,0 105.722975,20.606003,0 105.722578,20.605604,0 105.722154,20.60522,0 105.72187,20.604992,0 105.721597,20.604741,0 105.72147,20.604605,0 105.721235,20.604457,0 105.719655,20.605537,0 105.718273,20.605983,0 105.716658,20.606573,0 105.715687,20.606953,0 105.714516,20.607288,0 105.712565,20.608338,0 105.71253,20.608348,0 105.711232,20.608734,0 105.710272,20.60919,0 105.709635,20.60946,0 105.709589,20.609479,0 105.70816,20.609818,0 105.70786,20.609804,0 105.707816,20.609795,0 105.707327,20.609365,0 105.706987,20.608307,0 105.706486,20.607807,0 105.706415,20.60773,0 105.706378,20.607468,0 105.706305,20.607201,0 105.706129,20.607005,0 105.705988,20.606917,0 105.705133,20.606892,0 105.70501,20.606836,0 105.704598,20.606651,0 105.704512,20.606612,0 105.703644,20.606331,0 105.7031,20.605793,0 105.701263,20.603969,0 105.700201,20.603022,0 105.69969,20.603633,0 105.699182,20.603848,0 105.698846,20.603492,0 105.698281,20.602647,0 105.698247,20.602603,0 105.698108,20.602462,0 105.696969,20.601577,0 105.69647,20.604021,0 105.696448,20.604131,0 105.695965,20.606561,0 105.695344,20.6095,0 105.695046,20.610921,0 105.694793,20.612205,0 105.694322,20.61453,0 105.694075,20.61556,0 105.693791,20.616401,0 105.693562,20.61688,0 105.693515,20.616965,0 105.693337,20.617288,0 105.692877,20.618093,0 105.69203,20.619564,0 105.6913,20.620788,0 105.690351,20.62237,0 105.690182,20.622672,0</coordinates></LineString>
  </Placemark>
  <Placemark>
    <name>1. Tourism Hub Đồi Dùng</name>
    <styleUrl>#m1</styleUrl>
    <description><![CDATA[<p><b>06:30</b></p><p>Bạn đến từ sớm khi rừng còn ngậm sương. Hướng dẫn viên kiêm người dẫn đường người Mường đón bạn bằng ly trà thảo dược nóng, kiểm tra trang bị (giày, balo, nước, đồ ăn nhẹ), phổ biến cung đường, các mốc nghỉ và quy tắc an toàn trong rừng.</p><p><i>Lưu ý: Mang theo bình nước cá nhân, giày trek bám tốt và balo gọn nhẹ.</i></p>]]></description>
    <Point><coordinates>105.6897842,20.6224767,0</coordinates></Point>
  </Placemark>
  <Placemark>
    <name>2. Khởi hành xuyên rừng từ bản Mường</name>
    <styleUrl>#m2</styleUrl>
    <description><![CDATA[<p><b>07:00</b></p><p>Bạn rời bản, men theo lối mòn vào rừng già. Đoạn đầu qua rìa làng và đồng ruộng, rồi đường dốc dần khi vào rừng — tán cây khép trên đầu. Người dẫn đường mở lối, kể chuyện cây rừng, suối và những câu chuyện đường rừng của người Mường.</p><p><i>Lưu ý: Chặng dài nhất trong ngày — đi theo nhịp người dẫn đường, giữ khoảng cách, không tách đoàn.</i></p>]]></description>
    <Point><coordinates>105.6897842,20.6224767,0</coordinates></Point>
  </Placemark>
  <Placemark>
    <name>4. Sang khu Hương Sơn</name>
    <styleUrl>#m4</styleUrl>
    <description><![CDATA[<p><b>11:00</b></p><p>Bạn vượt sống núi nối Mường Cốc với khu Hương Sơn (Chùa Hương) — ranh giới tự nhiên giữa hai vùng đất. Cảnh quan dần mở ra: những đỉnh núi đá vôi xếp lớp, thung lũng phía dưới và dòng suối Yến uốn lượn xa xa.</p>]]></description>
    <Point><coordinates>105.7486,20.6179,0</coordinates></Point>
  </Placemark>
  <Placemark>
    <name>6. Lên động Hương Tích</name>
    <styleUrl>#m6</styleUrl>
    <description><![CDATA[<p><b>13:30</b></p><p>Chặng cuối đưa bạn lên động Hương Tích — hang đá vôi kỳ vĩ sâu trong lòng núi, điểm chiêm bái linh thiêng nhất của quần thể Hương Sơn, Nam thiên đệ nhất động. Bạn chiêm bái, nghỉ ngơi và thu vào tầm mắt khung cảnh mà mình đã tự đi bộ cả ngày để chạm tới.</p><p><i>Lưu ý: Khu vực có thể đông khách vào mùa lễ hội (tháng Giêng – tháng Ba âm lịch); ngoài mùa tĩnh lặng hơn.</i></p>]]></description>
    <Point><coordinates>105.7389,20.6098,0</coordinates></Point>
  </Placemark>
  <Placemark>
    <name>7. Xuống núi &amp; trở về</name>
    <styleUrl>#m7</styleUrl>
    <description><![CDATA[<p><b>14:30</b></p><p>Bạn xuống núi theo lối phù hợp với thể trạng cả đoàn (đi bộ, hoặc kết hợp cáp treo / thuyền suối Yến — chi phí ngoài chương trình). Xe đón đoàn đưa về lại Mường Cốc hoặc điểm hẹn theo thoả thuận.</p><p><i>Lưu ý: Tốc độ và lối về được người dẫn đường điều chỉnh theo sức khoẻ thực tế của đoàn.</i></p>]]></description>
    <Point><coordinates>105.6897842,20.6224767,0</coordinates></Point>
  </Placemark>
</Document></kml>
