<?xml version="1.0" encoding="UTF-8"?>
<kml xmlns="http://www.opengis.net/kml/2.2"><Document>
  <name>Mường Cốc 1 ngày - Thiên nhiên và nhà nông — chi tiết cung</name>
  <Style id="route"><LineStyle><color>ff0099ff</color><width>5</width></LineStyle></Style>
  <Style id="m1"><IconStyle><scale>1.1</scale><Icon><href>http://maps.google.com/mapfiles/kml/paddle/1.png</href></Icon></IconStyle><LabelStyle><scale>0.85</scale></LabelStyle></Style>
  <Style id="m2"><IconStyle><scale>1.1</scale><Icon><href>http://maps.google.com/mapfiles/kml/paddle/2.png</href></Icon></IconStyle><LabelStyle><scale>0.85</scale></LabelStyle></Style>
  <Style id="m3"><IconStyle><scale>1.1</scale><Icon><href>http://maps.google.com/mapfiles/kml/paddle/3.png</href></Icon></IconStyle><LabelStyle><scale>0.85</scale></LabelStyle></Style>
  <Style id="m4"><IconStyle><scale>1.1</scale><Icon><href>http://maps.google.com/mapfiles/kml/paddle/4.png</href></Icon></IconStyle><LabelStyle><scale>0.85</scale></LabelStyle></Style>
  <Style id="m5"><IconStyle><scale>1.1</scale><Icon><href>http://maps.google.com/mapfiles/kml/paddle/5.png</href></Icon></IconStyle><LabelStyle><scale>0.85</scale></LabelStyle></Style>
  <Style id="m6"><IconStyle><scale>1.1</scale><Icon><href>http://maps.google.com/mapfiles/kml/paddle/6.png</href></Icon></IconStyle><LabelStyle><scale>0.85</scale></LabelStyle></Style>
  <Style id="m7"><IconStyle><scale>1.1</scale><Icon><href>http://maps.google.com/mapfiles/kml/paddle/7.png</href></Icon></IconStyle><LabelStyle><scale>0.85</scale></LabelStyle></Style>
  <Style id="m8"><IconStyle><scale>1.1</scale><Icon><href>http://maps.google.com/mapfiles/kml/paddle/8.png</href></Icon></IconStyle><LabelStyle><scale>0.85</scale></LabelStyle></Style>
  <Placemark>
    <name>Tuyến — Mường Cốc 1 ngày - Thiên nhiên và nhà nông</name>
    
    <styleUrl>#route</styleUrl>
    <LineString><tessellate>1</tessellate><coordinates>105.690182,20.622672,0 105.689987,20.623021,0 105.689867,20.62321,0 105.689739,20.623223,0 105.689698,20.623238,0 105.689021,20.623598,0 105.688986,20.623616,0 105.688828,20.623692,0 105.688815,20.624078,0 105.688804,20.624153,0 105.688696,20.62451,0 105.688645,20.624656,0 105.689131,20.624812,0 105.689099,20.624889,0 105.688862,20.625535,0 105.688624,20.626025,0 105.688446,20.626281,0 105.688246,20.626486,0 105.687964,20.626705,0 105.68768,20.626879,0 105.68735,20.627,0 105.687076,20.627066,0 105.686759,20.62713,0 105.686177,20.627161,0 105.685781,20.627231,0 105.68541,20.627346,0 105.684744,20.626255,0 105.685378,20.625954,0 105.685151,20.625463,0 105.685128,20.625439,0 105.685097,20.625426,0 105.684984,20.625427,0 105.684958,20.625422,0 105.684941,20.625408,0 105.684914,20.625359,0 105.684893,20.625299,0 105.684892,20.625264,0 105.684892,20.625264,0 105.68491,20.625218,0 105.684931,20.625184,0 105.684968,20.625145,0 105.68501,20.625093,0 105.685031,20.625062,0 105.685042,20.625036,0 105.685096,20.624896,0 105.685042,20.625036,0 105.685031,20.625062,0 105.68501,20.625093,0 105.684968,20.625145,0 105.684931,20.625184,0 105.68491,20.625218,0 105.684892,20.625264,0 105.684893,20.625299,0 105.684914,20.625359,0 105.684941,20.625408,0 105.684958,20.625422,0 105.684984,20.625427,0 105.685097,20.625426,0 105.685128,20.625439,0 105.685151,20.625463,0 105.685378,20.625954,0 105.684744,20.626255,0 105.684578,20.625934,0 105.684448,20.625653,0 105.684317,20.625302,0 105.684286,20.625187,0 105.684197,20.624777,0 105.684154,20.62458,0 105.684106,20.624302,0 105.684097,20.624246,0 105.68405,20.623897,0 105.68392,20.622913,0 105.683889,20.622543,0 105.683876,20.622466,0 105.683854,20.622414,0 105.683823,20.622362,0 105.683682,20.622188,0 105.684325,20.622214,0 105.684848,20.621577,0 105.684876,20.621524,0 105.684881,20.621465,0 105.684874,20.621405,0 105.684846,20.62136,0 105.684801,20.621327,0 105.684747,20.621302,0 105.684549,20.621243,0 105.684525,20.621224,0 105.684508,20.62119,0 105.684472,20.620851,0 105.684484,20.620804,0 105.684529,20.620743,0 105.684742,20.620557,0 105.684529,20.620743,0 105.684484,20.620804,0 105.684472,20.620851,0 105.684508,20.62119,0 105.684525,20.621224,0 105.684549,20.621243,0 105.684747,20.621302,0 105.684801,20.621327,0 105.684846,20.62136,0 105.684874,20.621405,0 105.684877,20.621427,0 105.684881,20.621465,0 105.684876,20.621524,0 105.684848,20.621577,0 105.684325,20.622214,0 105.683682,20.622188,0 105.683823,20.622362,0 105.683854,20.622414,0 105.683876,20.622466,0 105.683889,20.622543,0 105.68392,20.622913,0 105.68405,20.623897,0 105.684097,20.624246,0 105.684106,20.624302,0 105.684154,20.62458,0 105.684197,20.624777,0 105.684286,20.625187,0 105.684317,20.625302,0 105.684448,20.625653,0 105.684578,20.625934,0 105.684744,20.626255,0 105.68541,20.627346,0 105.685781,20.627231,0 105.686177,20.627161,0 105.686759,20.62713,0 105.687076,20.627066,0 105.68735,20.627,0 105.68768,20.626879,0 105.687964,20.626705,0 105.688246,20.626486,0 105.688446,20.626281,0 105.688624,20.626025,0 105.688862,20.625535,0 105.689099,20.624889,0 105.689131,20.624812,0 105.689263,20.624422,0 105.689547,20.623793,0 105.689867,20.62321,0 105.689987,20.623021,0 105.690182,20.622672,0 105.690351,20.62237,0 105.6913,20.620788,0 105.69203,20.619564,0 105.692877,20.618093,0 105.693337,20.617288,0 105.693515,20.616965,0 105.693562,20.61688,0 105.693791,20.616401,0 105.694075,20.61556,0 105.6943,20.615629,0 105.695177,20.616078,0 105.695306,20.616146,0 105.69533,20.616182,0 105.695354,20.616259,0 105.695362,20.616415,0 105.695355,20.616777,0 105.695374,20.616854,0 105.695398,20.616873,0 105.695523,20.616938,0 105.695727,20.61701,0 105.696319,20.617199,0 105.696416,20.617209,0 105.696479,20.617204,0 105.696975,20.617052,0 105.697033,20.61704,0 105.697084,20.617047,0 105.697164,20.617081,0 105.697443,20.617276,0 105.697606,20.617379,0 105.697746,20.617434,0 105.69782,20.617426,0 105.697875,20.617399,0 105.697964,20.617315,0 105.698086,20.61709,0 105.698412,20.616588,0 105.698548,20.616432,0 105.698678,20.616313,0 105.699003,20.616034,0 105.699425,20.615644,0 105.699669,20.615414,0 105.699779,20.615314,0 105.699892,20.615251,0 105.700176,20.615107,0 105.700563,20.614891,0 105.701646,20.614321,0 105.701815,20.614243,0 105.702212,20.614138,0 105.702757,20.614002,0 105.703266,20.613912,0 105.703634,20.613869,0 105.703899,20.613872,0 105.704189,20.613917,0 105.704807,20.614105,0 105.704913,20.614127,0 105.705788,20.614474,0 105.706544,20.61477,0 105.707933,20.615323,0 105.708033,20.615363,0 105.708113,20.615373,0 105.708196,20.615333,0 105.708628,20.614814,0 105.708698,20.614738,0 105.708757,20.614696,0 105.708825,20.614662,0 105.708916,20.614633,0 105.709207,20.614534,0 105.709709,20.614384,0 105.710253,20.614143,0 105.710817,20.613972,0 105.711308,20.613835,0 105.71143,20.613804,0 105.71151,20.613782,0 105.711548,20.613749,0 105.711605,20.613696,0 105.711656,20.613661,0 105.711718,20.613641,0 105.71184,20.613603,0 105.711986,20.61356,0 105.712154,20.613516,0 105.712354,20.613442,0 105.712423,20.61342,0 105.7125,20.613382,0 105.712592,20.613314,0 105.712662,20.613282,0 105.712761,20.613244,0 105.71283,20.613226,0 105.712958,20.613208,0 105.713091,20.613179,0 105.713204,20.613143,0 105.713331,20.6131,0 105.713422,20.613082,0 105.713526,20.613074,0 105.71368,20.613057,0 105.713861,20.612983,0 105.714022,20.612923,0 105.714238,20.612795,0 105.714379,20.612689,0 105.714542,20.612546,0 105.714725,20.612418,0 105.714878,20.612368,0 105.715005,20.612336,0 105.715143,20.612328,0 105.715272,20.612343,0 105.715421,20.612364,0 105.715621,20.612363,0 105.715934,20.612302,0 105.716227,20.612265,0 105.716522,20.612262,0 105.716736,20.612257,0 105.717168,20.612215,0 105.717718,20.612132,0 105.718088,20.612107,0 105.718434,20.612092,0 105.718088,20.612107,0 105.717718,20.612132,0 105.717168,20.612215,0 105.716736,20.612257,0 105.716522,20.612262,0 105.716227,20.612265,0 105.715934,20.612302,0 105.715621,20.612363,0 105.715421,20.612364,0 105.7154,20.612361,0 105.715272,20.612343,0 105.715143,20.612328,0 105.715005,20.612336,0 105.714878,20.612368,0 105.714725,20.612418,0 105.714542,20.612546,0 105.714379,20.612689,0 105.714238,20.612795,0 105.714022,20.612923,0 105.713861,20.612983,0 105.71368,20.613057,0 105.713526,20.613074,0 105.713422,20.613082,0 105.713331,20.6131,0 105.713204,20.613143,0 105.713091,20.613179,0 105.712958,20.613208,0 105.71283,20.613226,0 105.712761,20.613244,0 105.712662,20.613282,0 105.712592,20.613314,0 105.7125,20.613382,0 105.712423,20.61342,0 105.712354,20.613442,0 105.712154,20.613516,0 105.711986,20.61356,0 105.71184,20.613603,0 105.711718,20.613641,0 105.711656,20.613661,0 105.711605,20.613696,0 105.711548,20.613749,0 105.71151,20.613782,0 105.71143,20.613804,0 105.711308,20.613835,0 105.710817,20.613972,0 105.710253,20.614143,0 105.709709,20.614384,0 105.709207,20.614534,0 105.708916,20.614633,0 105.708825,20.614662,0 105.708757,20.614696,0 105.708698,20.614738,0 105.708628,20.614814,0 105.708196,20.615333,0 105.708113,20.615373,0 105.708033,20.615363,0 105.707933,20.615323,0 105.706544,20.61477,0 105.705788,20.614474,0 105.704913,20.614127,0 105.704913,20.61406,0 105.704908,20.613993,0 105.704858,20.613522,0 105.704862,20.613462,0 105.704877,20.613404,0 105.70504,20.613012,0 105.705063,20.612936,0 105.705078,20.612866,0 105.705163,20.612292,0 105.705297,20.611651,0 105.705316,20.611582,0 105.705352,20.6115,0 105.705417,20.611394,0 105.705751,20.611005,0 105.705832,20.610882,0 105.705842,20.610857,0 105.706106,20.610639,0 105.706643,20.610294,0 105.706748,20.610236,0 105.706992,20.610121,0 105.707816,20.609795,0 105.70786,20.609804,0 105.70816,20.609818,0 105.709589,20.609479,0 105.709635,20.60946,0 105.710272,20.60919,0 105.711232,20.608734,0 105.712172,20.608454,0 105.71253,20.608348,0 105.712777,20.608755,0 105.712804,20.60879,0 105.712846,20.60881,0 105.712889,20.608819,0 105.712943,20.608818,0 105.713096,20.608798,0 105.713134,20.608801,0 105.713171,20.608816,0 105.713343,20.608905,0 105.713428,20.608963,0 105.713522,20.609047,0 105.713567,20.609107,0 105.713799,20.609679,0 105.713848,20.609777,0 105.713964,20.609967,0 105.713848,20.609777,0 105.713799,20.609679,0 105.713567,20.609107,0 105.713522,20.609047,0 105.713428,20.608963,0 105.713343,20.608905,0 105.713171,20.608816,0 105.713134,20.608801,0 105.713096,20.608798,0 105.712943,20.608818,0 105.712889,20.608819,0 105.712846,20.60881,0 105.712804,20.60879,0 105.712777,20.608755,0 105.71253,20.608348,0 105.711232,20.608734,0 105.710272,20.60919,0 105.709635,20.60946,0 105.709589,20.609479,0 105.70816,20.609818,0 105.70786,20.609804,0 105.707816,20.609795,0 105.707327,20.609365,0 105.706987,20.608307,0 105.706486,20.607807,0 105.706415,20.60773,0 105.706378,20.607468,0 105.706305,20.607201,0 105.706129,20.607005,0 105.705988,20.606917,0 105.705133,20.606892,0 105.70501,20.606836,0 105.704598,20.606651,0 105.704512,20.606612,0 105.703644,20.606331,0 105.7031,20.605793,0 105.701263,20.603969,0 105.700201,20.603022,0 105.69969,20.603633,0 105.699182,20.603848,0 105.698846,20.603492,0 105.698281,20.602647,0 105.698247,20.602603,0 105.698108,20.602462,0 105.696969,20.601577,0 105.69647,20.604021,0 105.696448,20.604131,0 105.695965,20.606561,0 105.695344,20.6095,0 105.695046,20.610921,0 105.694793,20.612205,0 105.694322,20.61453,0 105.694075,20.61556,0 105.693791,20.616401,0 105.693562,20.61688,0 105.693515,20.616965,0 105.693337,20.617288,0 105.692877,20.618093,0 105.69203,20.619564,0 105.6913,20.620788,0 105.690351,20.62237,0 105.690182,20.622672,0</coordinates></LineString>
  </Placemark>
  <Placemark>
    <name>1. Đón khách tại Tourism Hub Đồi Dùng</name>
    <styleUrl>#m1</styleUrl>
    <description><![CDATA[<p><b>Sáng</b></p><p>Hướng dẫn viên người Mường đón bạn bằng một ly trà thảo dược, giới thiệu chương trình và đón bạn theo phong cách ấm áp của bản. Một khởi đầu nhẹ nhàng cho cả ngày trải nghiệm.</p><p><i>Lưu ý: Hãy mang theo bình nước cá nhân của bạn.</i></p>]]></description>
    <Point><coordinates>105.6897842,20.6224767,0</coordinates></Point>
  </Placemark>
  <Placemark>
    <name>2. Chùa Phú Cốc &amp; Cây đa cổ</name>
    <styleUrl>#m2</styleUrl>
    <description><![CDATA[<p><b>Sáng</b></p><p>Trên ngọn đồi lộng gió thôn Đồi Dùng là điểm tựa tâm linh của 6 thôn vùng Phú Cốc. Cây đa cổ thụ hơn 400 năm tuổi xoè tán che chở cả khoảng sân, bên cụm tam bảo, nhà mẫu, nhà thờ tổ và miếu thờ quan lang.</p>]]></description>
    <Point><coordinates>105.68909,20.6237117,0</coordinates></Point>
  </Placemark>
  <Placemark>
    <name>3. Đền Cây Thợi &amp; Cây Thị 400 năm</name>
    <styleUrl>#m3</styleUrl>
    <description><![CDATA[<p><b>Sáng</b></p><p>Đền thờ Nhị vị Thánh Mẫu Từ Quang và Từ Minh — gắn truyền thuyết Đầm Hai Bà và sắc phong Khải Định 1924. Bên đền là cây thị hơn 400 năm tuổi, một gốc cho ba loại quả — một kỳ tích của thiên nhiên đất Mường.</p>]]></description>
    <Point><coordinates>105.6848617,20.6252583,0</coordinates></Point>
  </Placemark>
  <Placemark>
    <name>4. Hồ Baibóo &amp; các homestay ven hồ</name>
    <styleUrl>#m4</styleUrl>
    <description><![CDATA[<p><b>Sáng</b></p><p>Hồ điều hoà sinh thái xanh như ngọc bích, đường vòng hồ chừng 4 km. Bạn ngắm cảnh hồ, khoác trang phục Mường, đi bè tre ra giữa hồ và ghé các homestay ven hồ — Homestay Mường Duy với trang phục và văn nghệ, Homestay ông Kiền với ẩm thực Mường.</p>]]></description>
    <Point><coordinates>105.6860667,20.621305,0</coordinates></Point>
  </Placemark>
  <Placemark>
    <name>5. Bữa trưa Cỗ Lá Mường &amp; giao lưu văn nghệ</name>
    <styleUrl>#m5</styleUrl>
    <description><![CDATA[<p><b>Trưa</b></p><p>Bạn thưởng thức mâm Cỗ Lá Mường bày trên lá chuối, nguyên liệu 100% địa phương, cùng các tiết mục văn nghệ truyền thống do chính cộng đồng biểu diễn. Bữa ăn và tiếng đàn hoà làm một, ấm áp như trong một gia đình Mường.</p>]]></description>
    <Point><coordinates>105.6897842,20.6224767,0</coordinates></Point>
  </Placemark>
  <Placemark>
    <name>6. Thung Cánh</name>
    <styleUrl>#m6</styleUrl>
    <description><![CDATA[<p><b>Chiều</b></p><p>Bạn vào thung lũng hoang sơ, tận hưởng không gian xanh mát và trồng một cây nhỏ làm kỷ niệm — góp một mầm xanh cho thung. Mường Cốc trao bạn Chứng nhận trồng cây hoặc một phần quà lưu niệm, để ngày hôm nay ở lại với mảnh đất này.</p>]]></description>
    <Point><coordinates>105.7154,20.6123583,0</coordinates></Point>
  </Placemark>
  <Placemark>
    <name>7. Nhà thờ Giáo xứ Bắc Sơn</name>
    <styleUrl>#m7</styleUrl>
    <description><![CDATA[<p><b>Chiều</b></p><p>Ngôi nhà tâm linh của hơn 1.800 giáo dân thôn Thanh Hà, mang kiến trúc Pháp cổ thanh thoát. Nhà thờ toạ trên đồi cao nhìn ra sông Thanh Hà; khởi nguồn nhà nguyện 1958, định hình 2008, nâng lên hàng Giáo xứ 2021.</p>]]></description>
    <Point><coordinates>105.7122936,20.608813,0</coordinates></Point>
  </Placemark>
  <Placemark>
    <name>8. Trở về Tourism Hub Đồi Dùng</name>
    <styleUrl>#m8</styleUrl>
    <description><![CDATA[<p><b>Chiều</b></p><p>Bạn trở về điểm xuất phát, khép lại một ngày đầy ắp trải nghiệm (về theo đường Hồ Chí Minh). Mường Cốc tiễn bạn với lời hẹn gặp lại.</p><p><i>Lưu ý: Tùy chọn theo cung đường: Vườn Sim Cổ và Rượu Sim.</i></p>]]></description>
    <Point><coordinates>105.6897842,20.6224767,0</coordinates></Point>
  </Placemark>
</Document></kml>
