<?xml version="1.0" encoding="UTF-8"?>
<kml xmlns="http://www.opengis.net/kml/2.2"><Document>
  <name>Hồn Mường Bên Hồ Baibóo — chi tiết cung</name>
  <Style id="route"><LineStyle><color>ff00aa00</color><width>5</width></LineStyle></Style>
  <Style id="m1"><IconStyle><scale>1.1</scale><Icon><href>http://maps.google.com/mapfiles/kml/paddle/1.png</href></Icon></IconStyle><LabelStyle><scale>0.85</scale></LabelStyle></Style>
  <Style id="m2"><IconStyle><scale>1.1</scale><Icon><href>http://maps.google.com/mapfiles/kml/paddle/2.png</href></Icon></IconStyle><LabelStyle><scale>0.85</scale></LabelStyle></Style>
  <Style id="m3"><IconStyle><scale>1.1</scale><Icon><href>http://maps.google.com/mapfiles/kml/paddle/3.png</href></Icon></IconStyle><LabelStyle><scale>0.85</scale></LabelStyle></Style>
  <Style id="m4"><IconStyle><scale>1.1</scale><Icon><href>http://maps.google.com/mapfiles/kml/paddle/4.png</href></Icon></IconStyle><LabelStyle><scale>0.85</scale></LabelStyle></Style>
  <Style id="m5"><IconStyle><scale>1.1</scale><Icon><href>http://maps.google.com/mapfiles/kml/paddle/5.png</href></Icon></IconStyle><LabelStyle><scale>0.85</scale></LabelStyle></Style>
  <Style id="m6"><IconStyle><scale>1.1</scale><Icon><href>http://maps.google.com/mapfiles/kml/paddle/6.png</href></Icon></IconStyle><LabelStyle><scale>0.85</scale></LabelStyle></Style>
  <Style id="m7"><IconStyle><scale>1.1</scale><Icon><href>http://maps.google.com/mapfiles/kml/paddle/7.png</href></Icon></IconStyle><LabelStyle><scale>0.85</scale></LabelStyle></Style>
  <Style id="m8"><IconStyle><scale>1.1</scale><Icon><href>http://maps.google.com/mapfiles/kml/paddle/8.png</href></Icon></IconStyle><LabelStyle><scale>0.85</scale></LabelStyle></Style>
  <Style id="m9"><IconStyle><scale>1.1</scale><Icon><href>http://maps.google.com/mapfiles/kml/paddle/9.png</href></Icon></IconStyle><LabelStyle><scale>0.85</scale></LabelStyle></Style>
  <Style id="m10"><IconStyle><scale>1.1</scale><Icon><href>http://maps.google.com/mapfiles/kml/paddle/10.png</href></Icon></IconStyle><LabelStyle><scale>0.85</scale></LabelStyle></Style>
  <Style id="m11"><IconStyle><scale>1.1</scale><Icon><href>http://maps.google.com/mapfiles/kml/paddle/grn-blank.png</href></Icon></IconStyle><LabelStyle><scale>0.85</scale></LabelStyle></Style>
  <Style id="m12"><IconStyle><scale>1.1</scale><Icon><href>http://maps.google.com/mapfiles/kml/paddle/grn-blank.png</href></Icon></IconStyle><LabelStyle><scale>0.85</scale></LabelStyle></Style>
  <Placemark>
    <name>Tuyến — Hồn Mường Bên Hồ Baibóo</name>
    <description><![CDATA[<p><i>Tuyến bám đường dân sinh. Nếu định tuyến OSRM lệch, kéo lại theo đường thực địa.</i></p>]]></description>
    <styleUrl>#route</styleUrl>
    <LineString><tessellate>1</tessellate><coordinates>105.690182,20.622672,0 105.689987,20.623021,0 105.689867,20.62321,0 105.689547,20.623793,0 105.689263,20.624422,0 105.689131,20.624812,0 105.689099,20.624889,0 105.688862,20.625535,0 105.688624,20.626025,0 105.688446,20.626281,0 105.688246,20.626486,0 105.687964,20.626705,0 105.68768,20.626879,0 105.68735,20.627,0 105.687076,20.627066,0 105.686759,20.62713,0 105.686177,20.627161,0 105.685781,20.627231,0 105.68541,20.627346,0 105.684744,20.626255,0 105.684578,20.625934,0 105.684448,20.625653,0 105.684317,20.625302,0 105.684286,20.625187,0 105.684197,20.624777,0 105.684154,20.62458,0 105.684106,20.624302,0 105.684097,20.624246,0 105.68405,20.623897,0 105.68392,20.622913,0 105.683889,20.622543,0 105.683876,20.622466,0 105.683854,20.622414,0 105.683823,20.622362,0 105.683682,20.622188,0 105.683144,20.62172,0 105.682897,20.621501,0 105.682738,20.621383,0 105.682685,20.621377,0 105.682627,20.621378,0 105.682352,20.62149,0 105.682152,20.621571,0 105.682071,20.621592,0 105.681915,20.621615,0 105.681711,20.62163,0 105.681711,20.62163,0 105.681565,20.62163,0 105.681391,20.621618,0 105.681234,20.621592,0 105.680888,20.621506,0 105.680254,20.621433,0 105.680177,20.621418,0 105.680106,20.6214,0 105.680091,20.621341,0 105.68005,20.621257,0 105.679977,20.621122,0 105.679629,20.620443,0 105.679977,20.621122,0 105.68005,20.621257,0 105.680091,20.621341,0 105.680106,20.6214,0 105.680177,20.621418,0 105.680254,20.621433,0 105.680888,20.621506,0 105.681234,20.621592,0 105.681391,20.621618,0 105.681565,20.62163,0 105.681711,20.62163,0 105.681915,20.621615,0 105.682071,20.621592,0 105.682152,20.621571,0 105.682352,20.62149,0 105.682627,20.621378,0 105.682685,20.621377,0 105.682738,20.621383,0 105.682897,20.621501,0 105.683144,20.62172,0 105.683682,20.622188,0 105.683823,20.622362,0 105.683854,20.622414,0 105.683876,20.622466,0 105.683889,20.622543,0 105.68392,20.622913,0 105.68405,20.623897,0 105.684097,20.624246,0 105.684106,20.624302,0 105.684154,20.62458,0 105.684197,20.624777,0 105.684286,20.625187,0 105.684317,20.625302,0 105.684448,20.625653,0 105.684578,20.625934,0 105.684744,20.626255,0 105.68541,20.627346,0 105.685781,20.627231,0 105.686177,20.627161,0 105.686759,20.62713,0 105.687076,20.627066,0 105.68735,20.627,0 105.68768,20.626879,0 105.687964,20.626705,0 105.688246,20.626486,0 105.688446,20.626281,0 105.688624,20.626025,0 105.688862,20.625535,0 105.689099,20.624889,0 105.689131,20.624812,0 105.689263,20.624422,0 105.689547,20.623793,0 105.689867,20.62321,0 105.689739,20.623223,0 105.689698,20.623238,0 105.689021,20.623598,0 105.688986,20.623616,0 105.688828,20.623692,0 105.688815,20.624078,0 105.688804,20.624153,0 105.688696,20.62451,0 105.688645,20.624656,0 105.689131,20.624812,0 105.689099,20.624889,0 105.688862,20.625535,0 105.688624,20.626025,0 105.688446,20.626281,0 105.688246,20.626486,0 105.687964,20.626705,0 105.68768,20.626879,0 105.68735,20.627,0 105.687076,20.627066,0 105.686759,20.62713,0 105.686177,20.627161,0 105.685781,20.627231,0 105.68541,20.627346,0 105.684744,20.626255,0 105.684578,20.625934,0 105.684448,20.625653,0 105.684317,20.625302,0 105.684286,20.625187,0 105.684197,20.624777,0 105.684154,20.62458,0 105.684106,20.624302,0 105.684097,20.624246,0 105.68405,20.623897,0 105.68392,20.622913,0 105.683889,20.622543,0 105.683876,20.622466,0 105.683854,20.622414,0 105.683823,20.622362,0 105.683682,20.622188,0 105.684325,20.622214,0 105.684848,20.621577,0 105.684876,20.621524,0 105.684881,20.621465,0 105.684874,20.621405,0 105.684846,20.62136,0 105.684801,20.621327,0 105.684747,20.621302,0 105.684549,20.621243,0 105.684525,20.621224,0 105.684508,20.62119,0 105.684472,20.620851,0 105.684484,20.620804,0 105.684529,20.620743,0 105.684742,20.620557,0 105.684529,20.620743,0 105.684484,20.620804,0 105.684472,20.620851,0 105.684508,20.62119,0 105.684525,20.621224,0 105.684549,20.621243,0 105.684747,20.621302,0 105.684801,20.621327,0 105.684846,20.62136,0 105.684874,20.621405,0 105.684877,20.621427,0 105.684881,20.621465,0 105.684876,20.621524,0 105.684848,20.621577,0 105.684325,20.622214,0 105.683682,20.622188,0 105.683823,20.622362,0 105.683854,20.622414,0 105.683876,20.622466,0 105.683889,20.622543,0 105.68392,20.622913,0 105.68405,20.623897,0 105.684097,20.624246,0 105.684106,20.624302,0 105.684154,20.62458,0 105.684197,20.624777,0 105.684286,20.625187,0 105.684317,20.625302,0 105.684448,20.625653,0 105.684578,20.625934,0 105.684744,20.626255,0 105.68541,20.627346,0 105.685781,20.627231,0 105.686177,20.627161,0 105.686759,20.62713,0 105.687076,20.627066,0 105.68735,20.627,0 105.68768,20.626879,0 105.687964,20.626705,0 105.688246,20.626486,0 105.688446,20.626281,0 105.688624,20.626025,0 105.688862,20.625535,0 105.689099,20.624889,0 105.689131,20.624812,0 105.688645,20.624656,0 105.688696,20.62451,0 105.688804,20.624153,0 105.688815,20.624078,0 105.688828,20.623692,0 105.688836,20.62357,0 105.688856,20.623266,0 105.688854,20.623213,0 105.688841,20.623159,0 105.688748,20.622915,0 105.688472,20.622351,0 105.688159,20.621778,0 105.688135,20.621752,0 105.687833,20.621593,0 105.68778,20.621581,0 105.687602,20.621574,0 105.687569,20.621566,0 105.687551,20.621537,0 105.68753,20.621476,0 105.687473,20.621269,0 105.68746,20.621219,0 105.687465,20.621206,0 105.687479,20.621203,0 105.688325,20.621343,0 105.688519,20.621392,0 105.688569,20.621393,0 105.688611,20.621376,0 105.688649,20.621335,0 105.688692,20.621291,0 105.688721,20.621274,0 105.688987,20.621172,0 105.688721,20.621274,0 105.688692,20.621291,0 105.688649,20.621335,0 105.688611,20.621376,0 105.688569,20.621393,0 105.688519,20.621392,0 105.688325,20.621343,0 105.687479,20.621203,0 105.687465,20.621206,0 105.68746,20.621219,0 105.687473,20.621269,0 105.68753,20.621476,0 105.687549,20.621531,0 105.687551,20.621537,0 105.687569,20.621566,0 105.687602,20.621574,0 105.68778,20.621581,0 105.687833,20.621593,0 105.688135,20.621752,0 105.688159,20.621778,0 105.688472,20.622351,0 105.688748,20.622915,0 105.688841,20.623159,0 105.688854,20.623213,0 105.688856,20.623266,0 105.688836,20.62357,0 105.688828,20.623692,0 105.688815,20.624078,0 105.688804,20.624153,0 105.688696,20.62451,0 105.688645,20.624656,0 105.689131,20.624812,0 105.689099,20.624889,0 105.688862,20.625535,0 105.688624,20.626025,0 105.688446,20.626281,0 105.688246,20.626486,0 105.687964,20.626705,0 105.68768,20.626879,0 105.68735,20.627,0 105.687076,20.627066,0 105.686759,20.62713,0 105.686177,20.627161,0 105.685781,20.627231,0 105.68541,20.627346,0 105.686801,20.629851,0 105.687674,20.631432,0 105.688084,20.632174,0 105.688415,20.632774,0 105.688713,20.633055,0 105.689,20.633214,0 105.689509,20.633387,0 105.689549,20.633394,0 105.688901,20.634277,0 105.688709,20.634539,0 105.687759,20.635796,0 105.687127,20.63665,0 105.68632,20.637711,0 105.688074,20.6385,0 105.690925,20.63978,0 105.69228,20.640373,0 105.693447,20.640884,0 105.694108,20.640404,0 105.694157,20.64037,0 105.694796,20.639937,0 105.695615,20.639398,0 105.69619,20.638989,0 105.696515,20.638715,0 105.696667,20.638587,0 105.697167,20.638219,0 105.697446,20.637954,0 105.698046,20.638063,0 105.698047,20.638038,0 105.698181,20.637569,0 105.695922,20.634677,0 105.695525,20.634431,0 105.694682,20.634279,0 105.693358,20.634055,0 105.689549,20.633394,0 105.689509,20.633387,0 105.689,20.633214,0 105.688713,20.633055,0 105.688415,20.632774,0 105.688084,20.632174,0 105.687674,20.631432,0 105.686801,20.629851,0 105.68541,20.627346,0 105.685781,20.627231,0 105.686177,20.627161,0 105.686759,20.62713,0 105.687076,20.627066,0 105.68735,20.627,0 105.68768,20.626879,0 105.687964,20.626705,0 105.688246,20.626486,0 105.688446,20.626281,0 105.688624,20.626025,0 105.688862,20.625535,0 105.689099,20.624889,0 105.689131,20.624812,0 105.689263,20.624422,0 105.689547,20.623793,0 105.689867,20.62321,0 105.689987,20.623021,0 105.690182,20.622672,0 105.690351,20.62237,0 105.6913,20.620788,0 105.69117,20.62071,0 105.691078,20.620687,0 105.690875,20.620667,0 105.690802,20.620642,0 105.690738,20.620602,0 105.690644,20.620502,0 105.690392,20.620243,0 105.690644,20.620502,0 105.690738,20.620602,0 105.690802,20.620642,0 105.690875,20.620667,0 105.691078,20.620687,0 105.69117,20.62071,0 105.6913,20.620788,0 105.690351,20.62237,0 105.689987,20.623021,0 105.689867,20.62321,0 105.689547,20.623793,0 105.689263,20.624422,0 105.689131,20.624812,0 105.689099,20.624889,0 105.688862,20.625535,0 105.688624,20.626025,0 105.688446,20.626281,0 105.688246,20.626486,0 105.687964,20.626705,0 105.68768,20.626879,0 105.68735,20.627,0 105.687076,20.627066,0 105.686759,20.62713,0 105.686177,20.627161,0 105.685781,20.627231,0 105.68541,20.627346,0 105.684744,20.626255,0 105.684578,20.625934,0 105.684448,20.625653,0 105.684317,20.625302,0 105.684286,20.625187,0 105.684197,20.624777,0 105.684154,20.62458,0 105.684106,20.624302,0 105.684097,20.624246,0 105.68405,20.623897,0 105.68392,20.622913,0 105.683889,20.622543,0 105.683876,20.622466,0 105.683854,20.622414,0 105.683823,20.622362,0 105.683682,20.622188,0 105.683144,20.62172,0 105.682897,20.621501,0 105.682738,20.621383,0 105.682685,20.621377,0 105.682627,20.621378,0 105.682352,20.62149,0 105.682152,20.621571,0 105.682071,20.621592,0 105.681915,20.621615,0 105.681711,20.62163,0 105.681565,20.62163,0 105.681391,20.621618,0 105.681234,20.621592,0 105.680888,20.621506,0 105.680254,20.621433,0 105.680177,20.621418,0 105.680106,20.6214,0 105.678532,20.62101,0 105.678239,20.620941,0 105.677874,20.620856,0 105.677643,20.620811,0 105.677448,20.620793,0 105.677318,20.620802,0 105.676888,20.620866,0 105.676801,20.620872,0 105.67672,20.62087,0 105.676442,20.620827,0 105.676378,20.620811,0 105.676316,20.620788,0 105.676225,20.620726,0 105.675899,20.620462,0 105.67583,20.620419,0 105.675744,20.62038,0 105.675098,20.620133,0 105.674861,20.620051,0 105.674749,20.619997,0 105.67457,20.619873,0 105.674504,20.619815,0 105.674319,20.619665,0 105.674228,20.619619,0 105.674127,20.619585,0 105.674004,20.619555,0 105.673774,20.61953,0 105.673536,20.619525,0 105.672454,20.619598,0 105.672413,20.619597,0 105.672349,20.619594,0 105.672327,20.619589,0 105.672135,20.619999,0 105.671914,20.620455,0 105.671854,20.620535,0 105.671774,20.62061,0 105.671688,20.620665,0 105.671443,20.620794,0 105.67138,20.620826,0 105.671319,20.620862,0 105.671262,20.620896,0 105.670672,20.621167,0 105.67057,20.62125,0 105.670546,20.621279,0 105.670529,20.6213,0 105.670527,20.621302,0 105.670468,20.621403,0 105.670413,20.621482,0 105.670382,20.621516,0 105.670307,20.621561,0 105.670208,20.621606,0 105.670186,20.621625,0 105.670179,20.621636,0 105.670173,20.621645,0 105.670164,20.621676,0 105.670173,20.621817,0 105.670169,20.621921,0 105.670158,20.621974,0 105.670129,20.622017,0 105.670058,20.622083,0 105.669981,20.622227,0 105.669917,20.622342,0 105.669816,20.622465,0 105.669917,20.622342,0 105.669981,20.622227,0 105.670058,20.622083,0 105.670129,20.622017,0 105.670158,20.621974,0 105.670169,20.621921,0 105.670173,20.621817,0 105.670164,20.621676,0 105.670173,20.621645,0 105.670179,20.621636,0 105.670186,20.621625,0 105.670208,20.621606,0 105.670307,20.621561,0 105.670382,20.621516,0 105.670413,20.621482,0 105.670468,20.621403,0 105.670527,20.621302,0 105.670546,20.621279,0 105.67057,20.62125,0 105.670672,20.621167,0 105.671262,20.620896,0 105.671319,20.620862,0 105.67138,20.620826,0 105.671443,20.620794,0 105.671688,20.620665,0 105.671774,20.62061,0 105.671854,20.620535,0 105.671914,20.620455,0 105.672135,20.619999,0 105.672327,20.619589,0 105.672349,20.619594,0 105.672413,20.619597,0 105.672454,20.619598,0 105.673536,20.619525,0 105.673774,20.61953,0 105.674004,20.619555,0 105.674127,20.619585,0 105.674228,20.619619,0 105.674319,20.619665,0 105.674504,20.619815,0 105.67457,20.619873,0 105.674749,20.619997,0 105.674861,20.620051,0 105.675098,20.620133,0 105.675744,20.62038,0 105.67583,20.620419,0 105.675899,20.620462,0 105.676225,20.620726,0 105.676316,20.620788,0 105.676378,20.620811,0 105.676442,20.620827,0 105.67672,20.62087,0 105.676801,20.620872,0 105.676888,20.620866,0 105.677318,20.620802,0 105.677448,20.620793,0 105.677643,20.620811,0 105.677874,20.620856,0 105.678239,20.620941,0 105.678532,20.62101,0 105.678703,20.62079,0 105.678762,20.620712,0 105.678798,20.620675,0 105.678909,20.620607,0 105.678992,20.620562,0 105.679126,20.620509,0 105.679263,20.620484,0 105.679207,20.620494,0 105.679126,20.620509,0 105.678992,20.620562,0 105.678909,20.620607,0 105.678798,20.620675,0 105.678762,20.620712,0 105.678703,20.62079,0 105.678532,20.62101,0 105.680106,20.6214,0 105.680177,20.621418,0 105.680254,20.621433,0 105.680888,20.621506,0 105.681234,20.621592,0 105.681391,20.621618,0 105.681565,20.62163,0 105.681711,20.62163,0 105.681915,20.621615,0 105.682071,20.621592,0 105.682152,20.621571,0 105.682352,20.62149,0 105.682627,20.621378,0 105.682685,20.621377,0 105.682738,20.621383,0 105.682897,20.621501,0 105.683144,20.62172,0 105.683682,20.622188,0 105.684325,20.622214,0 105.684848,20.621577,0 105.684876,20.621524,0 105.684881,20.621465,0 105.684874,20.621405,0 105.684846,20.62136,0 105.684801,20.621327,0 105.684747,20.621302,0 105.684549,20.621243,0 105.684525,20.621224,0 105.684508,20.62119,0 105.684472,20.620851,0 105.684484,20.620804,0 105.684529,20.620743,0 105.684742,20.620557,0 105.684529,20.620743,0 105.684484,20.620804,0 105.684472,20.620851,0 105.684508,20.62119,0 105.684525,20.621224,0 105.684549,20.621243,0 105.684747,20.621302,0 105.684801,20.621327,0 105.684846,20.62136,0 105.684874,20.621405,0 105.684881,20.621465,0 105.684876,20.621524,0 105.684848,20.621577,0 105.684325,20.622214,0 105.684325,20.622214,0 105.683682,20.622188,0 105.683823,20.622362,0 105.683854,20.622414,0 105.683876,20.622466,0 105.683889,20.622543,0 105.68392,20.622913,0 105.68405,20.623897,0 105.684097,20.624246,0 105.684106,20.624302,0 105.684154,20.62458,0 105.684197,20.624777,0 105.684286,20.625187,0 105.684317,20.625302,0 105.684448,20.625653,0 105.684578,20.625934,0 105.684744,20.626255,0 105.685378,20.625954,0 105.685151,20.625463,0 105.685128,20.625439,0 105.685097,20.625426,0 105.684984,20.625427,0 105.684958,20.625422,0 105.684941,20.625408,0 105.684914,20.625359,0 105.684893,20.625299,0 105.684892,20.625264,0 105.684892,20.625264,0 105.68491,20.625218,0 105.684931,20.625184,0 105.684968,20.625145,0 105.68501,20.625093,0 105.685031,20.625062,0 105.685042,20.625036,0 105.685096,20.624896,0 105.685042,20.625036,0 105.685031,20.625062,0 105.68501,20.625093,0 105.684968,20.625145,0 105.684931,20.625184,0 105.68491,20.625218,0 105.684892,20.625264,0 105.684893,20.625299,0 105.684914,20.625359,0 105.684941,20.625408,0 105.684958,20.625422,0 105.684984,20.625427,0 105.685097,20.625426,0 105.685128,20.625439,0 105.685151,20.625463,0 105.685378,20.625954,0 105.684744,20.626255,0 105.68541,20.627346,0 105.685781,20.627231,0 105.686177,20.627161,0 105.686759,20.62713,0 105.687076,20.627066,0 105.68735,20.627,0 105.68768,20.626879,0 105.687964,20.626705,0 105.688246,20.626486,0 105.688446,20.626281,0 105.688624,20.626025,0 105.688862,20.625535,0 105.689099,20.624889,0 105.689131,20.624812,0 105.689263,20.624422,0 105.689547,20.623793,0 105.689867,20.62321,0 105.689987,20.623021,0 105.690182,20.622672,0</coordinates></LineString>
  </Placemark>
  <Placemark>
    <name>1. Tourism Hub Đồi Dùng</name>
    <styleUrl>#m1</styleUrl>
    <description><![CDATA[<p><b>08:00</b></p><p>Hướng dẫn viên người Mường đón bạn bằng một ly trà thảo dược ấm. Bạn nghe giới thiệu ngắn về Mường Cốc, cam kết 5 KHÔNG và mạng lưới Refill Station dọc tuyến. Sau đó bạn nhận xe đạp, mũ bảo hiểm và bản đồ tour để bắt đầu một ngày thong dong bên hồ.</p><p><i>Lưu ý: Hãy mang theo bình nước cá nhân để dùng trong suốt hành trình.</i></p>]]></description>
    <Point><coordinates>105.6897842,20.6224767,0</coordinates></Point>
  </Placemark>
  <Placemark>
    <name>2. Trải nghiệm nhà sàn (nhà bà Diển)</name>
    <styleUrl>#m2</styleUrl>
    <description><![CDATA[<p><b>08:20</b></p><p>Ngay đối diện Nhà Văn hoá thôn, bạn bước vào nếp nhà sàn của bà Diển giữa vườn cây xanh mát. Bạn ngồi trên sàn gỗ, nghe kể về lối dựng nhà sàn truyền thống và nếp sinh hoạt của người Mường thuở trước — một khởi đầu ấm áp và rất gần gũi.</p>]]></description>
    <Point><coordinates>105.6817383,20.6219117,0</coordinates></Point>
  </Placemark>
  <Placemark>
    <name>3. Chùa Phú Cốc &amp; Cây đa cổ</name>
    <styleUrl>#m3</styleUrl>
    <description><![CDATA[<p><b>08:50</b></p><p>Trên ngọn đồi lộng gió thôn Đồi Dùng là điểm tựa tâm linh của 6 thôn vùng Phú Cốc. Cây đa cổ thụ hơn 400 năm tuổi xoè tán che chở cả khoảng sân, bên cụm tam bảo, nhà mẫu, nhà thờ tổ và miếu thờ quan lang. Một khoảng lặng tâm linh giữa hành trình văn hoá.</p><p><i>Lưu ý: Cởi giày khi vào điện, trang phục lịch sự, không quay phim trong chính điện.</i></p>]]></description>
    <Point><coordinates>105.68909,20.6237117,0</coordinates></Point>
  </Placemark>
  <Placemark>
    <name>4. Homestay Mường Duy &amp; Hồ Baibóo</name>
    <styleUrl>#m4</styleUrl>
    <description><![CDATA[<p><b>09:20</b></p><p>Hồ Baibóo nằm giữa thôn Đồi Dùng và Gốc Báng như một viên ngọc bích — hồ điều hoà sinh thái khơi nguồn từ núi đá vôi, vòng hồ chừng 4 km. Bạn khoác trang phục dân tộc Mường lưu lại khung hình bên hồ, đi bè tre ra giữa mặt nước, và giao lưu cùng đội biểu diễn văn nghệ của bản. Mặt hồ phẳng lặng, gió mát và tiếng cồng chiêng làm nên một buổi sáng khó quên.</p>]]></description>
    <Point><coordinates>105.6860667,20.621305,0</coordinates></Point>
  </Placemark>
  <Placemark>
    <name>5. Homestay ông Kiền</name>
    <styleUrl>#m5</styleUrl>
    <description><![CDATA[<p><b>10:30</b></p><p>Một nếp nhà rộng rãi liền hồ Baibóo. Bạn nghỉ chân, thưởng thức chút ẩm thực Mường do chính gia đình chuẩn bị và ngắm mặt hồ lấp lánh từ hiên nhà. Một khoảng dừng để thở chậm lại giữa thiên nhiên.</p>]]></description>
    <Point><coordinates>105.6866,20.6218167,0</coordinates></Point>
  </Placemark>
  <Placemark>
    <name>6. Workshop gói bánh lá Mường</name>
    <styleUrl>#m6</styleUrl>
    <description><![CDATA[<p><b>11:00</b></p><p>Bạn cùng các bà, các chị người Mường học gói một mẻ bánh truyền thống bằng lá — một hoạt động vui tay, hợp cả người lớn và trẻ nhỏ. Niềm vui trọn vẹn nhất là khi chính tay mình mở chiếc bánh nóng hổi vừa luộc trong bữa trưa.</p>]]></description>
    <Point><coordinates>105.6963883,20.6385833,0</coordinates></Point>
  </Placemark>
  <Placemark>
    <name>7. Bữa trưa Cỗ Lá Mường</name>
    <styleUrl>#m7</styleUrl>
    <description><![CDATA[<p><b>12:00</b></p><p>Bữa trưa được dọn bên hồ với mâm Cỗ Lá Mường — bày trên lá chuối tươi, không một chiếc đĩa nhựa. Nguyên liệu 100% địa phương, phần lớn vừa hái sáng nay — một bữa ăn farm-to-table đúng nghĩa, ngon hơn nhờ làn gió hồ mát rượi.</p><p><i>Lưu ý: Lá chuối thay đĩa nhựa · nguyên liệu địa phương · nước uống tiếp từ bình cá nhân.</i></p>]]></description>
    <Point><coordinates>105.6897842,20.6224767,0</coordinates></Point>
  </Placemark>
  <Placemark>
    <name>8. Đồi hoa kèn hồng &amp; điểm dừng chân bà Toàn</name>
    <styleUrl>#m8</styleUrl>
    <description><![CDATA[<p><b>13:30</b></p><p>Bạn check-in giữa đồi hoa kèn hồng đẹp như trong cổ tích — một trong những điểm chụp ảnh được yêu thích nhất vùng — rồi ghé điểm dừng chân nhà bà Toàn, uống một ngụm nước mát và trò chuyện cùng người dân. Cùng họ, bạn vun lại gốc và chăm một khóm hoa trên đồi, gửi lại một chút màu cho mùa sau.</p><p><i>Lưu ý: Gửi một sắc hoa cho đồi Baibóo — góp một chút màu cho mùa hoa năm sau.</i></p>]]></description>
    <Point><coordinates>105.6705467,20.6213133,0</coordinates></Point>
  </Placemark>
  <Placemark>
    <name>9. Nhà văn hoá dân tộc &amp; Đình Phú Cốc</name>
    <styleUrl>#m9</styleUrl>
    <description><![CDATA[<p><b>14:20</b></p><p>Đình Phú Cốc là ngôi đại đình chung của các thôn người Mường, thờ Nhị vị Thánh Mẫu Từ Quang – Từ Minh được tôn làm Thành Hoàng. Kề bên là Nhà văn hoá dân tộc thôn Đình — nơi truyền dạy cồng chiêng, hát dân ca và nhạc cụ dân tộc. Bạn có thể nghe vài nhịp chiêng còn ngân trong không gian làng.</p>]]></description>
    <Point><coordinates>105.6791833,20.6203792,0</coordinates></Point>
  </Placemark>
  <Placemark>
    <name>10. Nhà thờ họ ông Chế</name>
    <styleUrl>#m10</styleUrl>
    <description><![CDATA[<p><b>15:00</b></p><p>Bạn lắng nghe câu chuyện về các đời người Mường đã sinh sống tại đây, chiêm ngưỡng 4 cọc nhà sàn cổ còn được lưu giữ, và có thể được thưởng thức đôi câu hát, điệu múa Mường. Một mạch nối lặng lẽ giữa quá khứ và hiện tại của dòng họ.</p><p><i>Lưu ý: Tùy chọn: ghé thêm nhà ông Kế nghe chuyện người Mường cổ và đời sống xưa.</i></p>]]></description>
    <Point><coordinates>105.684325,20.62227,0</coordinates></Point>
  </Placemark>
  <Placemark>
    <name>11. Đền Cây Thợi &amp; Cây Thị 400 năm</name>
    <styleUrl>#m11</styleUrl>
    <description><![CDATA[<p><b>15:30</b></p><p>"Cây Thợi" trong tiếng Mường nghĩa là cây thị. Đền dựng nơi gốc cây thị cổ, thờ Nhị vị Thánh Mẫu hiệu Từ Quang và Từ Minh — gắn truyền thuyết đắm đò trên đầm rồi hoá thiêng (Đầm Hai Bà), sắc phong Khải Định 1924. Bên đền là cây thị hơn 400 năm tuổi, một gốc cho ba loại quả — một kỳ tích của thiên nhiên và là điểm khép lại trọn vẹn cho hành trình.</p><p><i>Lưu ý: Tùy chọn (cùng khu): ghé nhà Niệm Nga hái sen làm trà sen; hoặc nhà ông Lập xem nấu rượu quê.</i></p>]]></description>
    <Point><coordinates>105.6848617,20.6252583,0</coordinates></Point>
  </Placemark>
  <Placemark>
    <name>12. Trở về Tourism Hub Đồi Dùng</name>
    <styleUrl>#m12</styleUrl>
    <description><![CDATA[<p><b>16:00</b></p><p>Bạn đạp xe thong thả trở về Nhà Văn hoá Đồi Dùng, trả xe và mũ bảo hiểm. Mường Cốc gửi tặng bạn món quà lưu niệm cộng đồng để mang theo hồn Mường về nhà.</p>]]></description>
    <Point><coordinates>105.6897842,20.6224767,0</coordinates></Point>
  </Placemark>
</Document></kml>
