<?xml version="1.0" encoding="UTF-8"?>
<kml xmlns="http://www.opengis.net/kml/2.2"><Document>
  <name>Mường Cốc 2 ngày 1 đêm - Thiên nhiên và nhà nông — chi tiết cung</name>
  <Style id="route"><LineStyle><color>ff0099ff</color><width>5</width></LineStyle></Style>
  <Style id="m1"><IconStyle><scale>1.1</scale><Icon><href>http://maps.google.com/mapfiles/kml/paddle/1.png</href></Icon></IconStyle><LabelStyle><scale>0.85</scale></LabelStyle></Style>
  <Style id="m2"><IconStyle><scale>1.1</scale><Icon><href>http://maps.google.com/mapfiles/kml/paddle/2.png</href></Icon></IconStyle><LabelStyle><scale>0.85</scale></LabelStyle></Style>
  <Style id="m3"><IconStyle><scale>1.1</scale><Icon><href>http://maps.google.com/mapfiles/kml/paddle/3.png</href></Icon></IconStyle><LabelStyle><scale>0.85</scale></LabelStyle></Style>
  <Style id="m4"><IconStyle><scale>1.1</scale><Icon><href>http://maps.google.com/mapfiles/kml/paddle/4.png</href></Icon></IconStyle><LabelStyle><scale>0.85</scale></LabelStyle></Style>
  <Style id="m5"><IconStyle><scale>1.1</scale><Icon><href>http://maps.google.com/mapfiles/kml/paddle/5.png</href></Icon></IconStyle><LabelStyle><scale>0.85</scale></LabelStyle></Style>
  <Style id="m6"><IconStyle><scale>1.1</scale><Icon><href>http://maps.google.com/mapfiles/kml/paddle/6.png</href></Icon></IconStyle><LabelStyle><scale>0.85</scale></LabelStyle></Style>
  <Style id="m7"><IconStyle><scale>1.1</scale><Icon><href>http://maps.google.com/mapfiles/kml/paddle/7.png</href></Icon></IconStyle><LabelStyle><scale>0.85</scale></LabelStyle></Style>
  <Style id="m8"><IconStyle><scale>1.1</scale><Icon><href>http://maps.google.com/mapfiles/kml/paddle/8.png</href></Icon></IconStyle><LabelStyle><scale>0.85</scale></LabelStyle></Style>
  <Placemark>
    <name>Tuyến — Mường Cốc 2 ngày 1 đêm - Thiên nhiên và nhà nông</name>
    
    <styleUrl>#route</styleUrl>
    <LineString><tessellate>1</tessellate><coordinates>105.689021,20.623598,0 105.689698,20.623238,0 105.689739,20.623223,0 105.689867,20.62321,0 105.689547,20.623793,0 105.689263,20.624422,0 105.689131,20.624812,0 105.689099,20.624889,0 105.688862,20.625535,0 105.688624,20.626025,0 105.688446,20.626281,0 105.688246,20.626486,0 105.687964,20.626705,0 105.68768,20.626879,0 105.68735,20.627,0 105.687076,20.627066,0 105.686759,20.62713,0 105.686177,20.627161,0 105.685781,20.627231,0 105.68541,20.627346,0 105.684744,20.626255,0 105.684578,20.625934,0 105.684448,20.625653,0 105.684317,20.625302,0 105.684286,20.625187,0 105.684197,20.624777,0 105.684154,20.62458,0 105.684106,20.624302,0 105.684097,20.624246,0 105.68405,20.623897,0 105.68392,20.622913,0 105.683889,20.622543,0 105.683876,20.622466,0 105.683854,20.622414,0 105.683823,20.622362,0 105.683682,20.622188,0 105.684325,20.622214,0 105.684848,20.621577,0 105.684876,20.621524,0 105.684881,20.621465,0 105.684874,20.621405,0 105.684846,20.62136,0 105.684801,20.621327,0 105.684747,20.621302,0 105.684549,20.621243,0 105.684525,20.621224,0 105.684508,20.62119,0 105.684472,20.620851,0 105.684484,20.620804,0 105.684529,20.620743,0 105.684742,20.620557,0 105.684529,20.620743,0 105.684484,20.620804,0 105.684472,20.620851,0 105.684508,20.62119,0 105.684525,20.621224,0 105.684549,20.621243,0 105.684747,20.621302,0 105.684801,20.621327,0 105.684846,20.62136,0 105.684874,20.621405,0 105.684877,20.621427,0 105.684881,20.621465,0 105.684876,20.621524,0 105.684848,20.621577,0 105.684325,20.622214,0 105.683682,20.622188,0 105.683823,20.622362,0 105.683854,20.622414,0 105.683876,20.622466,0 105.683889,20.622543,0 105.68392,20.622913,0 105.68405,20.623897,0 105.684097,20.624246,0 105.684106,20.624302,0 105.684154,20.62458,0 105.684197,20.624777,0 105.684286,20.625187,0 105.684317,20.625302,0 105.684448,20.625653,0 105.684578,20.625934,0 105.684744,20.626255,0 105.68541,20.627346,0 105.685781,20.627231,0 105.686177,20.627161,0 105.686759,20.62713,0 105.687076,20.627066,0 105.68735,20.627,0 105.68768,20.626879,0 105.687964,20.626705,0 105.688246,20.626486,0 105.688446,20.626281,0 105.688624,20.626025,0 105.688862,20.625535,0 105.689099,20.624889,0 105.689131,20.624812,0 105.689263,20.624422,0 105.689547,20.623793,0 105.689867,20.62321,0 105.689987,20.623021,0 105.690351,20.62237,0 105.6913,20.620788,0 105.69203,20.619564,0 105.692877,20.618093,0 105.693337,20.617288,0 105.693515,20.616965,0 105.693562,20.61688,0 105.693791,20.616401,0 105.694075,20.61556,0 105.694322,20.61453,0 105.694793,20.612205,0 105.695046,20.610921,0 105.695344,20.6095,0 105.695965,20.606561,0 105.696448,20.604131,0 105.69647,20.604021,0 105.696969,20.601577,0 105.698108,20.602462,0 105.698247,20.602603,0 105.698281,20.602647,0 105.698846,20.603492,0 105.699182,20.603848,0 105.69969,20.603633,0 105.700201,20.603022,0 105.701263,20.603969,0 105.7031,20.605793,0 105.703644,20.606331,0 105.704512,20.606612,0 105.704598,20.606651,0 105.70501,20.606836,0 105.705133,20.606892,0 105.705988,20.606917,0 105.706129,20.607005,0 105.706305,20.607201,0 105.706378,20.607468,0 105.706415,20.60773,0 105.706486,20.607807,0 105.706987,20.608307,0 105.707327,20.609365,0 105.707816,20.609795,0 105.70786,20.609804,0 105.70816,20.609818,0 105.709589,20.609479,0 105.709635,20.60946,0 105.710272,20.60919,0 105.711232,20.608734,0 105.712172,20.608454,0 105.71253,20.608348,0 105.712777,20.608755,0 105.712804,20.60879,0 105.712846,20.60881,0 105.712889,20.608819,0 105.712943,20.608818,0 105.713096,20.608798,0 105.713134,20.608801,0 105.713171,20.608816,0 105.713343,20.608905,0 105.713428,20.608963,0 105.713522,20.609047,0 105.713567,20.609107,0 105.713799,20.609679,0 105.713848,20.609777,0 105.713964,20.609967,0 105.713848,20.609777,0 105.713799,20.609679,0 105.713567,20.609107,0 105.713522,20.609047,0 105.713428,20.608963,0 105.713343,20.608905,0 105.713171,20.608816,0 105.713134,20.608801,0 105.713096,20.608798,0 105.712943,20.608818,0 105.712889,20.608819,0 105.712846,20.60881,0 105.712804,20.60879,0 105.712777,20.608755,0 105.71253,20.608348,0 105.711232,20.608734,0 105.710272,20.60919,0 105.709635,20.60946,0 105.709589,20.609479,0 105.70816,20.609818,0 105.70786,20.609804,0 105.707816,20.609795,0 105.707327,20.609365,0 105.706987,20.608307,0 105.706486,20.607807,0 105.706415,20.60773,0 105.706378,20.607468,0 105.706305,20.607201,0 105.706129,20.607005,0 105.705988,20.606917,0 105.705133,20.606892,0 105.70501,20.606836,0 105.704598,20.606651,0 105.704512,20.606612,0 105.703644,20.606331,0 105.7031,20.605793,0 105.701263,20.603969,0 105.700201,20.603022,0 105.69969,20.603633,0 105.699182,20.603848,0 105.698846,20.603492,0 105.698281,20.602647,0 105.698247,20.602603,0 105.698108,20.602462,0 105.696969,20.601577,0 105.69647,20.604021,0 105.696448,20.604131,0 105.695965,20.606561,0 105.695344,20.6095,0 105.695046,20.610921,0 105.694793,20.612205,0 105.694322,20.61453,0 105.694075,20.61556,0 105.693791,20.616401,0 105.693562,20.61688,0 105.693515,20.616965,0 105.693337,20.617288,0 105.692877,20.618093,0 105.69203,20.619564,0 105.6913,20.620788,0 105.690351,20.62237,0 105.690182,20.622672,0 105.689987,20.623021,0 105.689867,20.62321,0 105.689547,20.623793,0 105.689263,20.624422,0 105.689131,20.624812,0 105.689322,20.625171,0 105.689431,20.625397,0 105.689575,20.625707,0 105.689765,20.626118,0 105.689794,20.626184,0 105.691108,20.62569,0 105.692511,20.625198,0 105.69261,20.625171,0 105.692771,20.625111,0 105.69442,20.624536,0 105.69626,20.623873,0 105.69442,20.624536,0 105.692771,20.625111,0 105.69261,20.625171,0 105.69256,20.625185,0 105.692511,20.625198,0 105.691108,20.62569,0 105.689794,20.626184,0 105.689855,20.626324,0 105.690058,20.626765,0 105.69028,20.627256,0 105.690503,20.627753,0 105.690794,20.628384,0 105.690902,20.628619,0 105.691019,20.628876,0 105.691392,20.629702,0 105.691843,20.630656,0 105.69203,20.631089,0 105.692095,20.631241,0 105.692629,20.63241,0 105.693012,20.633259,0 105.693283,20.633864,0 105.693358,20.634055,0 105.694682,20.634279,0 105.695525,20.634431,0 105.695922,20.634677,0 105.698181,20.637569,0 105.698047,20.638038,0 105.698046,20.638063,0 105.698041,20.638357,0 105.69819,20.63873,0 105.698385,20.639155,0 105.701595,20.644768,0 105.70185,20.645227,0 105.702045,20.645568,0 105.701327,20.645564,0 105.700496,20.645559,0 105.700398,20.645577,0 105.700099,20.645674,0 105.700057,20.645682,0 105.700015,20.645678,0 105.699705,20.645573,0 105.699643,20.645557,0 105.699569,20.645557,0 105.698289,20.645762,0 105.697875,20.645852,0 105.69761,20.645888,0 105.696573,20.646029,0 105.696197,20.64608,0 105.696089,20.646086,0 105.695999,20.646078,0 105.695999,20.646078,0 105.695791,20.646022,0 105.695455,20.64593,0 105.695348,20.645881,0 105.695273,20.645819,0 105.69523,20.645761,0 105.694933,20.645366,0 105.69451,20.64482,0 105.694435,20.644729,0 105.69433,20.644543,0 105.694297,20.644475,0 105.694242,20.644161,0 105.694238,20.644048,0 105.694251,20.64396,0 105.694378,20.643685,0 105.694625,20.643122,0 105.694662,20.643011,0 105.694675,20.642908,0 105.694679,20.642768,0 105.694643,20.642374,0 105.694631,20.64231,0 105.694602,20.64213,0 105.6946,20.641984,0 105.69461,20.641789,0 105.694661,20.641421,0 105.69467,20.641353,0 105.694689,20.641296,0 105.694718,20.641243,0 105.694929,20.64085,0 105.695072,20.640639,0 105.695143,20.640557,0 105.695316,20.640409,0 105.696226,20.639712,0 105.696481,20.639536,0 105.697364,20.638929,0 105.697487,20.638892,0 105.697801,20.638926,0 105.697906,20.63888,0 105.69819,20.63873,0 105.698041,20.638357,0 105.698046,20.638063,0 105.698047,20.638038,0 105.698181,20.637569,0 105.695922,20.634677,0 105.695525,20.634431,0 105.694682,20.634279,0 105.693358,20.634055,0 105.689549,20.633394,0 105.689509,20.633387,0 105.689,20.633214,0 105.688713,20.633055,0 105.688415,20.632774,0 105.688084,20.632174,0 105.687674,20.631432,0 105.686801,20.629851,0 105.68541,20.627346,0 105.685781,20.627231,0 105.686177,20.627161,0 105.686759,20.62713,0 105.687076,20.627066,0 105.68735,20.627,0 105.68768,20.626879,0 105.687964,20.626705,0 105.688246,20.626486,0 105.688446,20.626281,0 105.688624,20.626025,0 105.688862,20.625535,0 105.689099,20.624889,0 105.689131,20.624812,0 105.689263,20.624422,0 105.689547,20.623793,0 105.689867,20.62321,0 105.689987,20.623021,0 105.690182,20.622672,0</coordinates></LineString>
  </Placemark>
  <Placemark>
    <name>1. Đón khách &amp; Chùa Phú Cốc, Đền Cây Thợi</name>
    <styleUrl>#m1</styleUrl>
    <description><![CDATA[<p><b>Ngày 1 — Sáng</b></p><p>Hướng dẫn viên người Mường đón bạn tại Tourism Hub Đồi Dùng bằng ly trà thảo dược. Bạn thăm Chùa Phú Cốc với cây đa hơn 400 năm tuổi và Đền Cây Thợi (Nhị vị Thánh Mẫu, sắc Khải Định 1924, cây thị một gốc ba loại quả).</p><p><i>Lưu ý: Hãy mang theo bình nước cá nhân.</i></p>]]></description>
    <Point><coordinates>105.68909,20.6237117,0</coordinates></Point>
  </Placemark>
  <Placemark>
    <name>2. Hồ Baibóo &amp; Bữa trưa Cỗ Lá Mường</name>
    <styleUrl>#m2</styleUrl>
    <description><![CDATA[<p><b>Ngày 1 — Trưa</b></p><p>Hồ điều hoà sinh thái ngọc bích, đường vòng 4 km. Bạn ngắm cảnh, khoác trang phục Mường, đi bè tre và ghé homestay ven hồ. Bữa trưa Cỗ Lá Mường trên lá chuối, 100% nguyên liệu địa phương, cùng văn nghệ truyền thống cộng đồng.</p>]]></description>
    <Point><coordinates>105.6860667,20.621305,0</coordinates></Point>
  </Placemark>
  <Placemark>
    <name>3. Thung Cánh &amp; Nhà thờ Bắc Sơn</name>
    <styleUrl>#m3</styleUrl>
    <description><![CDATA[<p><b>Ngày 1 — Chiều</b></p><p>Bạn vào thung lũng hoang sơ, trồng một cây nhỏ làm kỷ niệm và nhận Chứng nhận trồng cây. Sau đó ghé Nhà thờ Giáo xứ Bắc Sơn kiến trúc Pháp cổ, toạ trên đồi cao nhìn ra sông Thanh Hà.</p><p><i>Lưu ý: Tùy chọn theo cung đường: Vườn Sim Cổ và Rượu Sim.</i></p>]]></description>
    <Point><coordinates>105.7122936,20.608813,0</coordinates></Point>
  </Placemark>
  <Placemark>
    <name>4. Nhận phòng homestay</name>
    <styleUrl>#m4</styleUrl>
    <description><![CDATA[<p><b>Ngày 1 — Chiều muộn</b></p><p>Bạn nhận phòng tại homestay cộng đồng ven hồ Baibóo, nghỉ ngơi và dạo bản lúc hoàng hôn buông trên mặt nước. Một buổi chiều êm để thật sự chạm vào nhịp sống của bản.</p>]]></description>
    <Point><coordinates>105.6897842,20.6224767,0</coordinates></Point>
  </Placemark>
  <Placemark>
    <name>5. Đêm lửa trại bản Mường</name>
    <styleUrl>#m5</styleUrl>
    <description><![CDATA[<p><b>Ngày 1 — Tối</b></p><p>Bên ánh lửa bập bùng, bạn thưởng thức chương trình văn nghệ Mường (cồng chiêng, hát đối, hát thường rang), lắng nghe nghệ nhân thực hiện Mo Mường và thư giãn với chậu ngâm chân lá thuốc Mường (ngải cứu, sả, gừng). Bạn nghỉ đêm tại homestay cộng đồng.</p><p><i>Lưu ý: Mo Mường buổi tối cần đặt lịch trước với Ban điều phối và nghệ nhân.</i></p>]]></description>
    <Point><coordinates>105.6897842,20.6224767,0</coordinates></Point>
  </Placemark>
  <Placemark>
    <name>6. Vườn Sim Cổ, Chùa Đinh Long &amp; Con đường Tràm</name>
    <styleUrl>#m6</styleUrl>
    <description><![CDATA[<p><b>Ngày 2 — Sáng</b></p><p>Bạn thăm vườn sim cổ, thưởng thức và mua rượu sim OCOP. Tiếp đó chiêm bái Chùa Đinh Long (dấu vua Đinh Bộ Lĩnh, dấu ấn kháng chiến) và đi qua Con đường Tràm 800 m khép tán xanh mát.</p>]]></description>
    <Point><coordinates>105.6927417,20.62577,0</coordinates></Point>
  </Placemark>
  <Placemark>
    <name>7. Chùa Tiên &amp; Đền Mẫu Thượng Thiên</name>
    <styleUrl>#m7</styleUrl>
    <description><![CDATA[<p><b>Ngày 2 — Trưa</b></p><p>Chùa Tiên (thôn Ái Nàng) phát hiện năm 1958, với nhũ đá thiên nhiên hoang sơ giữa rừng núi. Đền Mẫu Thượng Thiên toạ trên núi Đền, thờ Mẫu Quế Anh phu nhân, giữ bốn đạo sắc Nguyễn từ Tự Đức đến Khải Định.</p><p><i>Lưu ý: Tùy chọn: chèo thuyền ngắm cảnh sông; ghé Bản Mộc Mường Cốc; nhà cổ Hữu Lệnh.</i></p>]]></description>
    <Point><coordinates>105.6946117,20.6506333,0</coordinates></Point>
  </Placemark>
  <Placemark>
    <name>8. Trở về</name>
    <styleUrl>#m8</styleUrl>
    <description><![CDATA[<p><b>Ngày 2 — Chiều</b></p><p>Bạn chia tay bản Mường, khép lại hành trình hai ngày đầy đặn với ký ức về núi đồi, lửa trại và những con người hiếu khách.</p>]]></description>
    <Point><coordinates>105.6897842,20.6224767,0</coordinates></Point>
  </Placemark>
</Document></kml>
