<?xml version="1.0" encoding="UTF-8"?>
<kml xmlns="http://www.opengis.net/kml/2.2"><Document>
  <name>Vòng Xe Xanh Mường Cốc — chi tiết cung</name>
  <Style id="route"><LineStyle><color>ff00aa00</color><width>5</width></LineStyle></Style>
  <Style id="m1"><IconStyle><scale>1.1</scale><Icon><href>http://maps.google.com/mapfiles/kml/paddle/1.png</href></Icon></IconStyle><LabelStyle><scale>0.85</scale></LabelStyle></Style>
  <Style id="m2"><IconStyle><scale>1.1</scale><Icon><href>http://maps.google.com/mapfiles/kml/paddle/2.png</href></Icon></IconStyle><LabelStyle><scale>0.85</scale></LabelStyle></Style>
  <Style id="m3"><IconStyle><scale>1.1</scale><Icon><href>http://maps.google.com/mapfiles/kml/paddle/3.png</href></Icon></IconStyle><LabelStyle><scale>0.85</scale></LabelStyle></Style>
  <Style id="m4"><IconStyle><scale>1.1</scale><Icon><href>http://maps.google.com/mapfiles/kml/paddle/4.png</href></Icon></IconStyle><LabelStyle><scale>0.85</scale></LabelStyle></Style>
  <Style id="m5"><IconStyle><scale>1.1</scale><Icon><href>http://maps.google.com/mapfiles/kml/paddle/5.png</href></Icon></IconStyle><LabelStyle><scale>0.85</scale></LabelStyle></Style>
  <Style id="m6"><IconStyle><scale>1.1</scale><Icon><href>http://maps.google.com/mapfiles/kml/paddle/6.png</href></Icon></IconStyle><LabelStyle><scale>0.85</scale></LabelStyle></Style>
  <Style id="m7"><IconStyle><scale>1.1</scale><Icon><href>http://maps.google.com/mapfiles/kml/paddle/7.png</href></Icon></IconStyle><LabelStyle><scale>0.85</scale></LabelStyle></Style>
  <Style id="m8"><IconStyle><scale>1.1</scale><Icon><href>http://maps.google.com/mapfiles/kml/paddle/8.png</href></Icon></IconStyle><LabelStyle><scale>0.85</scale></LabelStyle></Style>
  <Style id="m9"><IconStyle><scale>1.1</scale><Icon><href>http://maps.google.com/mapfiles/kml/paddle/9.png</href></Icon></IconStyle><LabelStyle><scale>0.85</scale></LabelStyle></Style>
  <Style id="m10"><IconStyle><scale>1.1</scale><Icon><href>http://maps.google.com/mapfiles/kml/paddle/10.png</href></Icon></IconStyle><LabelStyle><scale>0.85</scale></LabelStyle></Style>
  <Placemark>
    <name>Tuyến — Vòng Xe Xanh Mường Cốc</name>
    <description><![CDATA[<p><i>Tuyến bám đường dân sinh. Nếu định tuyến OSRM lệch, kéo lại theo đường thực địa.</i></p>]]></description>
    <styleUrl>#route</styleUrl>
    <LineString><tessellate>1</tessellate><coordinates>105.6891178,20.6226476,0 105.6887531,20.6229187,0 105.6888389,20.6235011,0 105.6882595,20.6235412,0 105.6885814,20.6240333,0 105.6886697,20.6239984,0 105.6885599,20.6236115,0 105.6954049,20.6204184,0 105.6974649,20.6209606,0 105.6983597,20.6223352,0 105.6995772,20.6221444,0 105.6997489,20.6218833,0 105.7008647,20.6217829,0 105.7067521,20.6214058,0 105.7088978,20.6180117,0 105.7080395,20.615441,0 105.7085116,20.6147984,0 105.7135756,20.6131716,0 105.7147558,20.6123682,0 105.7194121,20.6120469,0 105.721236,20.6117657,0 105.7211317,20.6115692,0 105.7147159,20.6121316,0 105.7132997,20.6130153,0 105.7084717,20.6145216,0 105.7078709,20.6152245,0 105.7049702,20.6140828,0 105.7050775,20.6123154,0 105.705571,20.6111304,0 105.7077597,20.6098249,0 105.7120083,20.6085395,0 105.712172,20.608454,0 105.711232,20.608734,0 105.710272,20.60919,0 105.709635,20.60946,0 105.709589,20.609479,0 105.70816,20.609818,0 105.70786,20.609804,0 105.707816,20.609795,0 105.706992,20.610121,0 105.706748,20.610236,0 105.706643,20.610294,0 105.706106,20.610639,0 105.705842,20.610857,0 105.705832,20.610882,0 105.705751,20.611005,0 105.705417,20.611394,0 105.705352,20.6115,0 105.705316,20.611582,0 105.705297,20.611651,0 105.705163,20.612292,0 105.705078,20.612866,0 105.705069,20.612907,0 105.705063,20.612936,0 105.70504,20.613012,0 105.704877,20.613404,0 105.704862,20.613462,0 105.704858,20.613522,0 105.704908,20.613993,0 105.704913,20.61406,0 105.704913,20.614127,0 105.704807,20.614105,0 105.704189,20.613917,0 105.703899,20.613872,0 105.703634,20.613869,0 105.703266,20.613912,0 105.702757,20.614002,0 105.702212,20.614138,0 105.701815,20.614243,0 105.701646,20.614321,0 105.700563,20.614891,0 105.700176,20.615107,0 105.699892,20.615251,0 105.699779,20.615314,0 105.699669,20.615414,0 105.699425,20.615644,0 105.699003,20.616034,0 105.698678,20.616313,0 105.698548,20.616432,0 105.698412,20.616588,0 105.698086,20.61709,0 105.697964,20.617315,0 105.697875,20.617399,0 105.69782,20.617426,0 105.697746,20.617434,0 105.697606,20.617379,0 105.697593,20.617371,0 105.697443,20.617276,0 105.697164,20.617081,0 105.697084,20.617047,0 105.697033,20.61704,0 105.696975,20.617052,0 105.696479,20.617204,0 105.696416,20.617209,0 105.696319,20.617199,0 105.695727,20.61701,0 105.695523,20.616938,0 105.695398,20.616873,0 105.695374,20.616854,0 105.695355,20.616777,0 105.695362,20.616415,0 105.695354,20.616259,0 105.69533,20.616182,0 105.695306,20.616146,0 105.695177,20.616078,0 105.6943,20.615629,0 105.694075,20.61556,0 105.693791,20.616401,0 105.693562,20.61688,0 105.693515,20.616965,0 105.693337,20.617288,0 105.692877,20.618093,0 105.69203,20.619564,0 105.6913,20.620788,0 105.690351,20.62237,0 105.689987,20.623021,0 105.69014,20.622999,0 105.690236,20.622967,0 105.690397,20.622901,0 105.691014,20.622603,0 105.692326,20.621948,0 105.692434,20.622,0 105.69259,20.622054,0 105.692713,20.622083,0 105.693118,20.622141,0 105.693468,20.622212,0 105.694175,20.622343,0 105.694237,20.622359,0 105.694286,20.622362,0 105.694325,20.622338,0 105.694286,20.622362,0 105.694237,20.622359,0 105.694175,20.622343,0 105.693468,20.622212,0 105.693118,20.622141,0 105.692713,20.622083,0 105.69259,20.622054,0 105.692434,20.622,0 105.692326,20.621948,0 105.691305,20.622458,0 105.691014,20.622603,0 105.690397,20.622901,0 105.690236,20.622967,0 105.69014,20.622999,0 105.689987,20.623021,0 105.689867,20.62321,0 105.689547,20.623793,0 105.689263,20.624422,0 105.689131,20.624812,0 105.688645,20.624656,0 105.688696,20.62451,0 105.688804,20.624153,0 105.688815,20.624078,0 105.688818,20.624002,0 105.688828,20.623692,0 105.688836,20.62357,0 105.688856,20.623266,0 105.688854,20.623213,0 105.688841,20.623159,0 105.688748,20.622915,0 105.688633,20.622679,0</coordinates></LineString>
  </Placemark>
  <Placemark>
    <name>1. Tourism Hub Đồi Dùng</name>
    <styleUrl>#m1</styleUrl>
    <description><![CDATA[<p><b>07:30</b></p><p>Hướng dẫn viên người Mường đón bạn bằng một ly trà thảo dược ấm nóng, hái ngay trong vườn nhà. Bạn nghe giới thiệu ngắn về Mường Cốc, về cam kết 5 KHÔNG và mạng lưới Refill Station phủ khắp tuyến. Sau đó bạn nhận xe đạp, mũ bảo hiểm và bản đồ tour để bắt đầu một ngày thong dong.</p><p><i>Lưu ý: Hãy mang theo bình nước cá nhân để dùng trong suốt hành trình.</i></p>]]></description>
    <Point><coordinates>105.6897842,20.6224767,0</coordinates></Point>
  </Placemark>
  <Placemark>
    <name>2. Chùa Phú Cốc</name>
    <styleUrl>#m2</styleUrl>
    <description><![CDATA[<p><b>08:00</b></p><p>Trên ngọn đồi lộng gió thôn Đồi Dùng là điểm tựa tâm linh chung của 6 thôn vùng Phú Cốc. Tâm điểm là cây đa cổ thụ hơn 400 năm tuổi xoè tán che chở cả khoảng sân. Bạn lặng bước qua cụm tam bảo, nhà mẫu, nhà thờ tổ và miếu thờ quan lang, cảm nhận sự tĩnh tại của một ngôi chùa quê đã đứng đó qua bao thế hệ.</p><p><i>Lưu ý: Cởi giày khi vào điện, trang phục lịch sự, không quay phim trong chính điện.</i></p>]]></description>
    <Point><coordinates>105.68909,20.6237117,0</coordinates></Point>
  </Placemark>
  <Placemark>
    <name>3. Bà Là Homestay</name>
    <styleUrl>#m3</styleUrl>
    <description><![CDATA[<p><b>08:30</b></p><p>Bên hiên nhà của hai ông bà có một chiếc giếng gia đình đã nuôi nhiều thế hệ. Bên ấm trà thảo dược, hai ông bà thong thả kể chuyện tuổi thơ, đám cưới Mường, ngày dựng nhà sàn và mùa hái lá thuốc. Bạn ngồi lại như một người khách được mời thật sự — không vội vàng, không kịch bản, chỉ có những câu chuyện đời chậm rãi trôi.</p><p><i>Lưu ý: Bạn có thể múc nước giếng, học vài câu chào Mường, chụp ảnh cùng hai ông bà nếu được phép.</i></p>]]></description>
    <Point><coordinates>105.6886883,20.6243,0</coordinates></Point>
  </Placemark>
  <Placemark>
    <name>4. Vườn Sim Cổ và Rượu Sim</name>
    <styleUrl>#m4</styleUrl>
    <description><![CDATA[<p><b>09:30</b></p><p>Đây là một trong những vườn sim cổ hiếm hoi còn được chăm bằng tay, không hoá chất. Bạn tự tay hái những quả sim tím mọng dưới nắng, rồi thưởng thức ly rượu sim OCOP ngọt thơm — ủ từ chính nắng và gió của khu vườn nhà. Một khoảnh khắc nhỏ nhưng đậm vị đất Mường Cốc.</p>]]></description>
    <Point><coordinates>105.6927417,20.62577,0</coordinates></Point>
  </Placemark>
  <Placemark>
    <name>5. Gió Núi Farmstay</name>
    <styleUrl>#m5</styleUrl>
    <description><![CDATA[<p><b>10:30</b></p><p>Một không gian Vườn — Ao — Chuồng đặc trưng của nhà nông Mường. Bạn cho cá ăn, hái rau, thăm chuồng gà — vịt và ngắm những dụng cụ nông — ngư nghiệp cổ: cối giã gạo bằng chân, gùi đan tay, chiếc liềm mòn vẹt theo bao mùa gặt. Mỗi món đồ là một dấu vết của đời sống lao động đã nuôi sống bản làng.</p><p><i>Lưu ý: Có thể chọn thay Gió Núi bằng điểm khác cùng cụm — xem mục Phương án Farmstay.</i></p>]]></description>
    <Point><coordinates>105.6982,20.623555,0</coordinates></Point>
  </Placemark>
  <Placemark>
    <name>6. Bữa Trưa Cỗ Lá Mường</name>
    <styleUrl>#m6</styleUrl>
    <description><![CDATA[<p><b>12:00</b></p><p>Trên bàn tre, mâm Cỗ Lá Mường được bày trực tiếp trên lá chuối tươi, không một chiếc đĩa nhựa. Nguyên liệu 100% địa phương, phần lớn vừa hái sáng nay — một bữa ăn farm-to-table đúng nghĩa. Bạn ăn theo cách người Mường vẫn ăn, giữa tiếng cười và hương lá rừng.</p><p><i>Lưu ý: Lá chuối thay đĩa nhựa · nguyên liệu địa phương · nước uống tiếp từ bình cá nhân.</i></p>]]></description>
    <Point><coordinates>105.6897842,20.6224767,0</coordinates></Point>
  </Placemark>
  <Placemark>
    <name>7. Thung Cánh</name>
    <styleUrl>#m7</styleUrl>
    <description><![CDATA[<p><b>13:30</b></p><p>Một thung lũng hoang sơ giữa lòng Mường Cốc, nơi áp dụng trọn vẹn mô hình 5 KHÔNG. Mỗi vị khách trồng một cây nhỏ làm kỷ niệm — một khóm hoa bản địa hoặc một cây dược liệu — và nhận Chứng nhận trồng cây mang tên mình. Giữa thung chỉ có gió núi, tiếng chim và cảm giác mình vừa để lại điều gì đó tốt lành.</p><p><i>Lưu ý: Không xả rác, không hái cây, không can thiệp sinh vật trong khu Thung Cánh.</i></p>]]></description>
    <Point><coordinates>105.7154,20.6123583,0</coordinates></Point>
  </Placemark>
  <Placemark>
    <name>8. Trạm Chill Thung Cánh Farmstay</name>
    <styleUrl>#m8</styleUrl>
    <description><![CDATA[<p><b>14:30</b></p><p>Một điểm dừng để bạn thật sự chậm lại: ngâm và massage chân với lá thuốc Mường (ngải cứu, sả, lá lốt, gừng), dạo quanh vườn dược liệu, hái hoa quả theo mùa. Trà thảo dược được hái ngay, pha ngay và uống ngay — nguyên vẹn vị tươi của núi rừng.</p><p><i>Lưu ý: Massage chân lá thuốc theo yêu cầu của khách.</i></p>]]></description>
    <Point><coordinates>105.7154783,20.6123117,0</coordinates></Point>
  </Placemark>
  <Placemark>
    <name>9. Nhà Thờ Giáo Xứ Bắc Sơn</name>
    <styleUrl>#m9</styleUrl>
    <description><![CDATA[<p><b>15:30</b></p><p>Ngôi nhà tâm linh của hơn 1.800 giáo dân thôn Thanh Hà, mang kiến trúc Pháp cổ thanh thoát. Nhà thờ toạ trên đồi cao, lưng tựa vách núi, mặt hướng ra sông Thanh Hà. Khởi nguồn từ nhà nguyện năm 1958, định hình năm 2008 và được nâng lên hàng Giáo xứ năm 2021 — một dòng chảy đức tin lặng lẽ bên dòng sông.</p><p><i>Lưu ý: Bạn đi từ chùa Phật giáo cổ buổi sáng đến thánh đường Công giáo trẻ buổi chiều — sự dung hợp văn hoá hài hoà.</i></p>]]></description>
    <Point><coordinates>105.7122936,20.608813,0</coordinates></Point>
  </Placemark>
  <Placemark>
    <name>10. Trở về Tourism Hub Đồi Dùng</name>
    <styleUrl>#m10</styleUrl>
    <description><![CDATA[<p><b>16:30</b></p><p>Bạn đạp xe khoảng 2,5 km thong thả trở về Nhà Văn hoá Đồi Dùng, trả xe và mũ bảo hiểm. Mường Cốc gửi tặng bạn Chứng nhận trồng cây hoặc một món quà lưu niệm cộng đồng — để ngày hôm nay theo bạn về tận nhà.</p>]]></description>
    <Point><coordinates>105.6897842,20.6224767,0</coordinates></Point>
  </Placemark>
</Document></kml>
